<?xml version="1.0" encoding="UTF-8" standalone="no"?>
<gpx xmlns="http://www.topografix.com/GPX/1/1" xmlns:xsi="http://www.w3.org/2001/XMLSchema-instance" xsi:schemaLocation="http://www.topografix.com/GPX/1/1 http://www.topografix.com/GPX/1/1/gpx.xsd" version="1.1" creator="Metric Trails">
  <metadata>
    <name>Metric Trails Generated GPX</name>
    <desc>This track was generated by Metric Trails technology for GNSS trajectory processing.</desc>
    <author>
      <name>Metric Trails</name>
      <link href="https://www.metrictrails.com"/>
    </author>
    <time>2025-10-28T11:41:55Z</time>
  </metadata>
  <trk>
    <name>Metric Trails. Track standarized to 49.7-meter spatial resolution</name>
    <trkseg>
      <trkpt lat="-27.488" lon="152.743318">        <ele>39.1806123652912</ele>        <time></time>      </trkpt>
      <trkpt lat="-27.4879017683109" lon="152.743819853523">        <ele>35.5167239200024</ele>        <time></time>      </trkpt>
      <trkpt lat="-27.4878490000005" lon="152.744329292388">        <ele>33.5638135997332</ele>        <time></time>      </trkpt>
      <trkpt lat="-27.4879504101472" lon="152.744813665566">        <ele>33.4780601344815</ele>        <time></time>      </trkpt>
      <trkpt lat="-27.4881699127276" lon="152.745264605804">        <ele>34.3652534319185</ele>        <time></time>      </trkpt>
      <trkpt lat="-27.4884498372992" lon="152.745670120904">        <ele>32.2120342497759</ele>        <time></time>      </trkpt>
      <trkpt lat="-27.4887350214255" lon="152.746069244538">        <ele>31.1976088324955</ele>        <time></time>      </trkpt>
      <trkpt lat="-27.4888982906549" lon="152.746547830974">        <ele>32.1175911906241</ele>        <time></time>      </trkpt>
      <trkpt lat="-27.4892611114967" lon="152.746458479265">        <ele>38.6620974848894</ele>        <time></time>      </trkpt>
      <trkpt lat="-27.4895366887316" lon="152.746049946647">        <ele>46.1419215945953</ele>        <time></time>      </trkpt>
      <trkpt lat="-27.4895501365682" lon="152.746200440524">        <ele>43.2855787561949</ele>        <time></time>      </trkpt>
      <trkpt lat="-27.4892789613966" lon="152.746612661193">        <ele>38.5831422607353</ele>        <time></time>      </trkpt>
      <trkpt lat="-27.48897585227" lon="152.746996021378">        <ele>32.3903550511129</ele>        <time></time>      </trkpt>
      <trkpt lat="-27.4887285785318" lon="152.747428660761">        <ele>30.9834250213477</ele>        <time></time>      </trkpt>
      <trkpt lat="-27.4884496527574" lon="152.747836333361">        <ele>36.6793530987318</ele>        <time></time>      </trkpt>
      <trkpt lat="-27.4881527481299" lon="152.748225389222">        <ele>42.613059414255</ele>        <time></time>      </trkpt>
      <trkpt lat="-27.4879891884334" lon="152.748705125482">        <ele>43.2179711886818</ele>        <time></time>      </trkpt>
      <trkpt lat="-27.4878661078459" lon="152.749196058912">        <ele>47.6505595706758</ele>        <time></time>      </trkpt>
      <trkpt lat="-27.4877443784572" lon="152.749691581876">        <ele>51.2190830457656</ele>        <time></time>      </trkpt>
      <trkpt lat="-27.4874909696507" lon="152.750118883766">        <ele>56.1400364941992</ele>        <time></time>      </trkpt>
      <trkpt lat="-27.4872459367507" lon="152.750551687514">        <ele>67.293748930559</ele>        <time></time>      </trkpt>
      <trkpt lat="-27.4870207806125" lon="152.750997513184">        <ele>75.5159690164056</ele>        <time></time>      </trkpt>
      <trkpt lat="-27.4868142271099" lon="152.751456793866">        <ele>71.9801644037062</ele>        <time></time>      </trkpt>
      <trkpt lat="-27.4865726179304" lon="152.751876158323">        <ele>69.9738705626131</ele>        <time></time>      </trkpt>
      <trkpt lat="-27.4861887279374" lon="152.75214767255">        <ele>72.3689674396015</ele>        <time></time>      </trkpt>
      <trkpt lat="-27.4857613022339" lon="152.752002451811">        <ele>73.6141958842281</ele>        <time></time>      </trkpt>
      <trkpt lat="-27.4853813892272" lon="152.752231273831">        <ele>73.1101728834852</ele>        <time></time>      </trkpt>
      <trkpt lat="-27.4849830144923" lon="152.752479104268">        <ele>70.6638850988306</ele>        <time></time>      </trkpt>
      <trkpt lat="-27.484809545237" lon="152.752909364314">        <ele>65.0035463900958</ele>        <time></time>      </trkpt>
      <trkpt lat="-27.4844975832074" lon="152.753271014007">        <ele>66.6634609258392</ele>        <time></time>      </trkpt>
      <trkpt lat="-27.4840844409104" lon="152.753475497032">        <ele>62.7546861961634</ele>        <time></time>      </trkpt>
      <trkpt lat="-27.483630707583" lon="152.753448718981">        <ele>57.7610926898422</ele>        <time></time>      </trkpt>
      <trkpt lat="-27.4835118636357" lon="152.753014297894">        <ele>58.4586836363795</ele>        <time></time>      </trkpt>
      <trkpt lat="-27.4837045662959" lon="152.752562219176">        <ele>66.2702993109455</ele>        <time></time>      </trkpt>
      <trkpt lat="-27.4834026065806" lon="152.752437292344">        <ele>64.744302302629</ele>        <time></time>      </trkpt>
      <trkpt lat="-27.4829799040616" lon="152.752561492152">        <ele>58.9717369216184</ele>        <time></time>      </trkpt>
      <trkpt lat="-27.4827069370495" lon="152.752194359303">        <ele>62.697487989891</ele>        <time></time>      </trkpt>
      <trkpt lat="-27.4825867476084" lon="152.751743835532">        <ele>64.2899868914754</ele>        <time></time>      </trkpt>
      <trkpt lat="-27.4824216038311" lon="152.751273270301">        <ele>66.3868574491614</ele>        <time></time>      </trkpt>
      <trkpt lat="-27.4822830000004" lon="152.750801349318">        <ele>70.2093877639579</ele>        <time></time>      </trkpt>
      <trkpt lat="-27.4820246353575" lon="152.750594688208">        <ele>74.2807292554001</ele>        <time></time>      </trkpt>
      <trkpt lat="-27.4816511864675" lon="152.750888615807">        <ele>74.9762285840449</ele>        <time></time>      </trkpt>
      <trkpt lat="-27.4812595486322" lon="152.751060548632">        <ele>74.2838585197322</ele>        <time></time>      </trkpt>
      <trkpt lat="-27.4809326775577" lon="152.750705106809">        <ele>72.9075832095186</ele>        <time></time>      </trkpt>
      <trkpt lat="-27.4805024287439" lon="152.750658725497">        <ele>68.9327702203848</ele>        <time></time>      </trkpt>
      <trkpt lat="-27.4800848122916" lon="152.750566366901">        <ele>69.7211871011103</ele>        <time></time>      </trkpt>
      <trkpt lat="-27.4796940627181" lon="152.750460326857">        <ele>70.0558166054735</ele>        <time></time>      </trkpt>
      <trkpt lat="-27.4793514186536" lon="152.750780302351">        <ele>68.5114261398631</ele>        <time></time>      </trkpt>
      <trkpt lat="-27.4790701929125" lon="152.750391934755">        <ele>73.1896173402217</ele>        <time></time>      </trkpt>
      <trkpt lat="-27.4787120647169" lon="152.750078927794">        <ele>84.5793028490708</ele>        <time></time>      </trkpt>
      <trkpt lat="-27.4783091395222" lon="152.749857827904">        <ele>91.5006840280193</ele>        <time></time>      </trkpt>
      <trkpt lat="-27.4779775791876" lon="152.750135957463">        <ele>91.5362798525743</ele>        <time></time>      </trkpt>
      <trkpt lat="-27.4776132796471" lon="152.750437640282">        <ele>86.6616375413416</ele>        <time></time>      </trkpt>
      <trkpt lat="-27.477197" lon="152.750649">        <ele>83.477745441598</ele>        <time></time>      </trkpt>
      <trkpt lat="-27.477197" lon="152.750649">        <ele>83.4591679282474</ele>        <time></time>      </trkpt>
      <trkpt lat="-27.4767758791957" lon="152.750765679682">        <ele>82.8543152106485</ele>        <time></time>      </trkpt>
      <trkpt lat="-27.4764467468935" lon="152.750435456442">        <ele>74.4410833078312</ele>        <time></time>      </trkpt>
      <trkpt lat="-27.4761210030212" lon="152.750078501888">        <ele>75.9460955668948</ele>        <time></time>      </trkpt>
      <trkpt lat="-27.4758617331524" lon="152.750420787792">        <ele>76.8761519454859</ele>        <time></time>      </trkpt>
      <trkpt lat="-27.4756298592394" lon="152.750820656304">        <ele>77.317598691886</ele>        <time></time>      </trkpt>
      <trkpt lat="-27.4753031910019" lon="152.751162901418">        <ele>79.865433875446</ele>        <time></time>      </trkpt>
      <trkpt lat="-27.4749427179438" lon="152.751458330489">        <ele>85.993541669768</ele>        <time></time>      </trkpt>
      <trkpt lat="-27.4744931891388" lon="152.75142">        <ele>89.9414338303362</ele>        <time></time>      </trkpt>
      <trkpt lat="-27.4740470525787" lon="152.751372170556">        <ele>97.3178405611458</ele>        <time></time>      </trkpt>
      <trkpt lat="-27.4738111256916" lon="152.751783994475">        <ele>96.8421198384742</ele>        <time></time>      </trkpt>
      <trkpt lat="-27.4738654225351" lon="152.752290323938">        <ele>93.933661365196</ele>        <time></time>      </trkpt>
      <trkpt lat="-27.4740407332075" lon="152.752756416509">        <ele>94.0134869073994</ele>        <time></time>      </trkpt>
      <trkpt lat="-27.4743536006105" lon="152.753127214633">        <ele>98.7795258426126</ele>        <time></time>      </trkpt>
      <trkpt lat="-27.4742520087938" lon="152.753548396484">        <ele>95.9557222375965</ele>        <time></time>      </trkpt>
      <trkpt lat="-27.4738373475044" lon="152.75375986368">        <ele>91.831848866868</ele>        <time></time>      </trkpt>
      <trkpt lat="-27.4734277225777" lon="152.753990072529">        <ele>88.6473032233283</ele>        <time></time>      </trkpt>
      <trkpt lat="-27.4730762880365" lon="152.75431922827">        <ele>82.4301413165479</ele>        <time></time>      </trkpt>
      <trkpt lat="-27.472658220405" lon="152.754490660525">        <ele>76.3903779131289</ele>        <time></time>      </trkpt>
      <trkpt lat="-27.4722163807753" lon="152.754431663458">        <ele>73.233691111781</ele>        <time></time>      </trkpt>
      <trkpt lat="-27.4722515248201" lon="152.754933738094">        <ele>72.6609741384179</ele>        <time></time>      </trkpt>
      <trkpt lat="-27.4719839291175" lon="152.755217130605">        <ele>76.5951880571771</ele>        <time></time>      </trkpt>
      <trkpt lat="-27.4715627468309" lon="152.755034788139">        <ele>84.4080566037536</ele>        <time></time>      </trkpt>
      <trkpt lat="-27.4711148459981" lon="152.754940133154">        <ele>89.1210316651844</ele>        <time></time>      </trkpt>
      <trkpt lat="-27.4707883078044" lon="152.755277646889">        <ele>87.3246429691198</ele>        <time></time>      </trkpt>
      <trkpt lat="-27.4704600302895" lon="152.755623939423">        <ele>78.6920530656111</ele>        <time></time>      </trkpt>
      <trkpt lat="-27.470132900191" lon="152.755981317119">        <ele>67.9473075125952</ele>        <time></time>      </trkpt>
      <trkpt lat="-27.470143833654" lon="152.756478183998">        <ele>67.6710578942529</ele>        <time></time>      </trkpt>
      <trkpt lat="-27.4701335500887" lon="152.75681486307">        <ele>66.9166497223335</ele>        <time></time>      </trkpt>
      <trkpt lat="-27.469694119034" lon="152.756674847612">        <ele>76.2001297339189</ele>        <time></time>      </trkpt>
      <trkpt lat="-27.4692457103711" lon="152.75657425718">        <ele>84.3650826760023</ele>        <time></time>      </trkpt>
      <trkpt lat="-27.4688019747929" lon="152.756470232942">        <ele>91.5978715327076</ele>        <time></time>      </trkpt>
      <trkpt lat="-27.4683906129868" lon="152.756569806387">        <ele>93.4093841821665</ele>        <time></time>      </trkpt>
      <trkpt lat="-27.4680035776002" lon="152.756843715808">        <ele>89.2158963324169</ele>        <time></time>      </trkpt>
      <trkpt lat="-27.4676633842839" lon="152.75718214279">        <ele>82.004229024574</ele>        <time></time>      </trkpt>
      <trkpt lat="-27.467439" lon="152.75762">        <ele>77.8731087941433</ele>        <time></time>      </trkpt>
      <trkpt lat="-27.467439" lon="152.75762">        <ele>77.9147929958298</ele>        <time></time>      </trkpt>
      <trkpt lat="-27.4672714610013" lon="152.758091385723">        <ele>72.3285381272576</ele>        <time></time>      </trkpt>
      <trkpt lat="-27.4669774464187" lon="152.75845431404">        <ele>65.211240618746</ele>        <time></time>      </trkpt>
      <trkpt lat="-27.4665363941523" lon="152.758371262767">        <ele>62.198339102292</ele>        <time></time>      </trkpt>
      <trkpt lat="-27.4661169934902" lon="152.758225751629">        <ele>68.4694623404747</ele>        <time></time>      </trkpt>
      <trkpt lat="-27.4657833798571" lon="152.758557990948">        <ele>67.6560925805771</ele>        <time></time>      </trkpt>
      <trkpt lat="-27.4654317349778" lon="152.758878642527">        <ele>67.7198256197649</ele>        <time></time>      </trkpt>
      <trkpt lat="-27.4650971686701" lon="152.759219071812">        <ele>66.0240874643871</ele>        <time></time>      </trkpt>
      <trkpt lat="-27.4646646953899" lon="152.759290881399">        <ele>68.0980481036983</ele>        <time></time>      </trkpt>
      <trkpt lat="-27.4644497801541" lon="152.759536404274">        <ele>63.442768759207</ele>        <time></time>      </trkpt>
      <trkpt lat="-27.4648118677068" lon="152.759399645292">        <ele>66.2638657208758</ele>        <time></time>      </trkpt>
      <trkpt lat="-27.4652332929498" lon="152.759280604147">        <ele>62.851216642005</ele>        <time></time>      </trkpt>
      <trkpt lat="-27.4655609534683" lon="152.758928046532">        <ele>64.8401972994614</ele>        <time></time>      </trkpt>
      <trkpt lat="-27.4659188951399" lon="152.75861808389">        <ele>63.8815466580984</ele>        <time></time>      </trkpt>
      <trkpt lat="-27.4662724738166" lon="152.758314694763">        <ele>64.7188810868411</ele>        <time></time>      </trkpt>
      <trkpt lat="-27.4667015729408" lon="152.758480680324">        <ele>61.3236575223029</ele>        <time></time>      </trkpt>
      <trkpt lat="-27.4671464091777" lon="152.758501813324">        <ele>65.6751995846623</ele>        <time></time>      </trkpt>
      <trkpt lat="-27.4674037116539" lon="152.758092322713">        <ele>73.1506757056106</ele>        <time></time>      </trkpt>
      <trkpt lat="-27.4675421910138" lon="152.757616140438">        <ele>78.5890848117546</ele>        <time></time>      </trkpt>
      <trkpt lat="-27.467745494864" lon="152.757178200342">        <ele>82.744672148162</ele>        <time></time>      </trkpt>
      <trkpt lat="-27.4681003080814" lon="152.756885766181">        <ele>89.7558224517398</ele>        <time></time>      </trkpt>
      <trkpt lat="-27.4684692294505" lon="152.756594141485">        <ele>93.4215411973519</ele>        <time></time>      </trkpt>
      <trkpt lat="-27.4688710689299" lon="152.756554400848">        <ele>90.548037639855</ele>        <time></time>      </trkpt>
      <trkpt lat="-27.4693117278962" lon="152.756671676998">        <ele>82.7120644459316</ele>        <time></time>      </trkpt>
      <trkpt lat="-27.4697519291108" lon="152.756789636257">        <ele>73.9880745906261</ele>        <time></time>      </trkpt>
      <trkpt lat="-27.4701836268382" lon="152.756891005007">        <ele>66.5313764132288</ele>        <time></time>      </trkpt>
      <trkpt lat="-27.4701944954472" lon="152.756415896673">        <ele>66.9484259466637</ele>        <time></time>      </trkpt>
      <trkpt lat="-27.4702244222067" lon="152.75594743706">        <ele>69.1048438580575</ele>        <time></time>      </trkpt>
      <trkpt lat="-27.4705413393605" lon="152.755599447986">        <ele>79.8423599083629</ele>        <time></time>      </trkpt>
      <trkpt lat="-27.4708822334626" lon="152.755271944229">        <ele>87.8203318530448</ele>        <time></time>      </trkpt>
      <trkpt lat="-27.4712469501829" lon="152.755031771402">        <ele>87.4625926985913</ele>        <time></time>      </trkpt>
      <trkpt lat="-27.4716874917077" lon="152.755132748618">        <ele>82.2556596244116</ele>        <time></time>      </trkpt>
      <trkpt lat="-27.4721000026403" lon="152.75531999912">        <ele>75.8138412675634</ele>        <time></time>      </trkpt>
      <trkpt lat="-27.4722953325626" lon="152.754896324435">        <ele>72.3290719679526</ele>        <time></time>      </trkpt>
      <trkpt lat="-27.4722827318622" lon="152.754479707376">        <ele>73.0058719429912</ele>        <time></time>      </trkpt>
      <trkpt lat="-27.472723" lon="152.754566">        <ele>76.784165642755</ele>        <time></time>      </trkpt>
      <trkpt lat="-27.472723" lon="152.754566">        <ele>76.8072672801341</ele>        <time></time>      </trkpt>
      <trkpt lat="-27.4731455484393" lon="152.754441696322">        <ele>80.8631221468201</ele>        <time></time>      </trkpt>
      <trkpt lat="-27.4734715157416" lon="152.754096677734">        <ele>88.2360811136755</ele>        <time></time>      </trkpt>
      <trkpt lat="-27.4738661635447" lon="152.753853160051">        <ele>91.4026194443068</ele>        <time></time>      </trkpt>
      <trkpt lat="-27.4742728720319" lon="152.753642765996">        <ele>95.6396927702187</ele>        <time></time>      </trkpt>
      <trkpt lat="-27.4744058898009" lon="152.753275470271">        <ele>99.0707571228841</ele>        <time></time>      </trkpt>
      <trkpt lat="-27.4741397837927" lon="152.752870686496">        <ele>95.9975434075535</ele>        <time></time>      </trkpt>
      <trkpt lat="-27.4739303259355" lon="152.752431839563">        <ele>93.1754176944093</ele>        <time></time>      </trkpt>
      <trkpt lat="-27.4738759070085" lon="152.751930411045">        <ele>96.0450309041293</ele>        <time></time>      </trkpt>
      <trkpt lat="-27.4739885770628" lon="152.751458958184">        <ele>96.8678620961936</ele>        <time></time>      </trkpt>
      <trkpt lat="-27.4743947663978" lon="152.751456207811">        <ele>91.5599630256971</ele>        <time></time>      </trkpt>
      <trkpt lat="-27.4748412679942" lon="152.751527">        <ele>86.4417518189446</ele>        <time></time>      </trkpt>
      <trkpt lat="-27.4752317647401" lon="152.751298376033">        <ele>81.4404959524985</ele>        <time></time>      </trkpt>
      <trkpt lat="-27.4756080876785" lon="152.751052373478">        <ele>74.4073457640046</ele>        <time></time>      </trkpt>
      <trkpt lat="-27.4759071655087" lon="152.750710755214">        <ele>75.2162545727425</ele>        <time></time>      </trkpt>
      <trkpt lat="-27.4760685316939" lon="152.750241777107">        <ele>74.8504503848154</ele>        <time></time>      </trkpt>
      <trkpt lat="-27.4764104499509" lon="152.750371456624">        <ele>73.5750789638645</ele>        <time></time>      </trkpt>
      <trkpt lat="-27.4767470617684" lon="152.750695067648">        <ele>82.0711892985438</ele>        <time></time>      </trkpt>
      <trkpt lat="-27.4771761546473" lon="152.750725884015">        <ele>83.8916778940578</ele>        <time></time>      </trkpt>
      <trkpt lat="-27.477601037" lon="152.750578219385">        <ele>87.0241714421572</ele>        <time></time>      </trkpt>
      <trkpt lat="-27.4779723034176" lon="152.750293696583">        <ele>90.8175678711662</ele>        <time></time>      </trkpt>
      <trkpt lat="-27.4782711937774" lon="152.749934670933">        <ele>90.9977491103248</ele>        <time></time>      </trkpt>
      <trkpt lat="-27.4786804029844" lon="152.750116763489">        <ele>84.7111957101228</ele>        <time></time>      </trkpt>
      <trkpt lat="-27.4790105802203" lon="152.750454449039">        <ele>74.0231238927102</ele>        <time></time>      </trkpt>
      <trkpt lat="-27.479248838665" lon="152.750879270931">        <ele>70.0960095446021</ele>        <time></time>      </trkpt>
      <trkpt lat="-27.4796246626344" lon="152.750632447805">        <ele>67.8544459191025</ele>        <time></time>      </trkpt>
      <trkpt lat="-27.4800258868783" lon="152.750565115518">        <ele>70.0372683654605</ele>        <time></time>      </trkpt>
      <trkpt lat="-27.4804120492428" lon="152.750784902273">        <ele>67.1657140916393</ele>        <time></time>      </trkpt>
      <trkpt lat="-27.4808526978122" lon="152.750761944234">        <ele>71.7424804122954</ele>        <time></time>      </trkpt>
      <trkpt lat="-27.4812348536918" lon="152.751022417375">        <ele>74.54157451701</ele>        <time></time>      </trkpt>
      <trkpt lat="-27.4816195408262" lon="152.751020733555">        <ele>73.8557632422908</ele>        <time></time>      </trkpt>
      <trkpt lat="-27.481971" lon="152.750707">        <ele>73.0861252175334</ele>        <time></time>      </trkpt>
      <trkpt lat="-27.481971" lon="152.750707">        <ele>73.0719866284609</ele>        <time></time>      </trkpt>
      <trkpt lat="-27.4822250319665" lon="152.75083859542">        <ele>69.4870169267484</ele>        <time></time>      </trkpt>
      <trkpt lat="-27.4823231724172" lon="152.75131565831">        <ele>62.7710764953734</ele>        <time></time>      </trkpt>
      <trkpt lat="-27.4825263385297" lon="152.751764046764">        <ele>62.6527258914872</ele>        <time></time>      </trkpt>
      <trkpt lat="-27.4826182441534" lon="152.752200480651">        <ele>61.5976641604945</ele>        <time></time>      </trkpt>
      <trkpt lat="-27.4828943070947" lon="152.752573575316">        <ele>58.0904953935965</ele>        <time></time>      </trkpt>
      <trkpt lat="-27.4833275156169" lon="152.752567786628">        <ele>61.6790157676505</ele>        <time></time>      </trkpt>
      <trkpt lat="-27.4836590202353" lon="152.752546629893">        <ele>65.6676890426598</ele>        <time></time>      </trkpt>
      <trkpt lat="-27.4835300817407" lon="152.75298376513">        <ele>58.9933340833574</ele>        <time></time>      </trkpt>
      <trkpt lat="-27.4835840150166" lon="152.753433318665">        <ele>57.4739294877738</ele>        <time></time>      </trkpt>
      <trkpt lat="-27.484027414679" lon="152.753503487811">        <ele>62.032733731708</ele>        <time></time>      </trkpt>
      <trkpt lat="-27.4844607230663" lon="152.753362348564">        <ele>65.557896250861</ele>        <time></time>      </trkpt>
      <trkpt lat="-27.4848170588969" lon="152.753053470429">        <ele>63.5611718466422</ele>        <time></time>      </trkpt>
      <trkpt lat="-27.4849485821103" lon="152.752589374155">        <ele>68.4548202123658</ele>        <time></time>      </trkpt>
      <trkpt lat="-27.4853486479911" lon="152.752359583434">        <ele>70.2681784023824</ele>        <time></time>      </trkpt>
      <trkpt lat="-27.4856740234273" lon="152.752076004685">        <ele>72.9748679920199</ele>        <time></time>      </trkpt>
      <trkpt lat="-27.4861013641015" lon="152.752246170513">        <ele>-59.5820355316551</ele>        <time></time>      </trkpt>
      <trkpt lat="-27.4865106239463" lon="152.75206220335">        <ele>69.2259141375113</ele>        <time></time>      </trkpt>
      <trkpt lat="-27.4868802622047" lon="152.751765285357">        <ele>-493.257563189584</ele>        <time></time>      </trkpt>
      <trkpt lat="-27.4870911723834" lon="152.751316689741">        <ele>68.1801001444196</ele>        <time></time>      </trkpt>
      <trkpt lat="-27.4872756794676" lon="152.750850641065">        <ele>67.3010190562471</ele>        <time></time>      </trkpt>
      <trkpt lat="-27.4874970074527" lon="152.750405922766">        <ele>57.0141539600415</ele>        <time></time>      </trkpt>
      <trkpt lat="-27.4877476593742" lon="152.749981245521">        <ele>50.1732602304796</ele>        <time></time>      </trkpt>
      <trkpt lat="-27.487957097308" lon="152.749532439966">        <ele>46.8790290323169</ele>        <time></time>      </trkpt>
      <trkpt lat="-27.488059703481" lon="152.749036501812">        <ele>41.1062169304326</ele>        <time></time>      </trkpt>
      <trkpt lat="-27.4881845689753" lon="152.748546781293">        <ele>40.8824038265735</ele>        <time></time>      </trkpt>
      <trkpt lat="-27.4883540825544" lon="152.748073928664">        <ele>40.5758137153755</ele>        <time></time>      </trkpt>
      <trkpt lat="-27.4886281140375" lon="152.747673607455">        <ele>32.7286004592588</ele>        <time></time>      </trkpt>
      <trkpt lat="-27.4889134979794" lon="152.747279532504">        <ele>30.4370504883937</ele>        <time></time>      </trkpt>
      <trkpt lat="-27.4891877682094" lon="152.746873899344">        <ele>35.9854520706293</ele>        <time></time>      </trkpt>
      <trkpt lat="-27.489487143999" lon="152.746492991203">        <ele>39.4358126047908</ele>        <time></time>      </trkpt>
      <trkpt lat="-27.489754604428" lon="152.746082827185">        <ele>46.2407677234398</ele>        <time></time>      </trkpt>
      <trkpt lat="-27.4895994936661" lon="152.746043985147">        <ele>46.5272480025776</ele>        <time></time>      </trkpt>
      <trkpt lat="-27.4893282435506" lon="152.746450567024">        <ele>39.0323972743637</ele>        <time></time>      </trkpt>
      <trkpt lat="-27.4890097114785" lon="152.746424848933">        <ele>35.1626926672886</ele>        <time></time>      </trkpt>
      <trkpt lat="-27.4888599181151" lon="152.74594527452">        <ele>32.4163176157112</ele>        <time></time>      </trkpt>
      <trkpt lat="-27.4885901274778" lon="152.74553792685">        <ele>34.2760595408002</ele>        <time></time>      </trkpt>
      <trkpt lat="-27.4882884996365" lon="152.745156624544">        <ele>35.2432254638217</ele>        <time></time>      </trkpt>
      <trkpt lat="-27.4880435722144" lon="152.744730637723">        <ele>33.9250597856312</ele>        <time></time>      </trkpt>
      <trkpt lat="-27.487919" lon="152.744263">        <ele>34.5703645120961</ele>        <time></time>      </trkpt>
      <trkpt lat="-27.487919" lon="152.744263">        <ele>34.5342944875558</ele>        <time></time>      </trkpt>
      <trkpt lat="-27.4880300043568" lon="152.743714094657">        <ele>37.8452032483423</ele>        <time></time>      </trkpt>
      <trkpt lat="-27.488144" lon="152.743166">        <ele>40.3302750557657</ele>        <time></time>      </trkpt>
    </trkseg>
  </trk>
</gpx>
