<?xml version="1.0" encoding="UTF-8" standalone="no"?>
<gpx xmlns="http://www.topografix.com/GPX/1/1" xmlns:xsi="http://www.w3.org/2001/XMLSchema-instance" xsi:schemaLocation="http://www.topografix.com/GPX/1/1 http://www.topografix.com/GPX/1/1/gpx.xsd" version="1.1" creator="Metric Trails">
  <metadata>
    <name>Metric Trails Generated GPX</name>
    <desc>This track was generated by Metric Trails technology for GNSS trajectory processing.</desc>
    <author>
      <name>Metric Trails</name>
      <link href="https://www.metrictrails.com"/>
    </author>
    <time>2025-10-28T11:43:44Z</time>
  </metadata>
  <trk>
    <name>Metric Trails. Track standarized to 49.7-meter spatial resolution</name>
    <trkseg>
      <trkpt lat="-27.44807" lon="152.92899">        <ele>74.1702538665231</ele>        <time></time>      </trkpt>
      <trkpt lat="-27.4484948990838" lon="152.928818162891">        <ele>80.2340986275822</ele>        <time></time>      </trkpt>
      <trkpt lat="-27.4487581170843" lon="152.928471627974">        <ele>89.3309740518292</ele>        <time></time>      </trkpt>
      <trkpt lat="-27.4487905954862" lon="152.927971943879">        <ele>92.4750445332733</ele>        <time></time>      </trkpt>
      <trkpt lat="-27.4491384021973" lon="152.927682543569">        <ele>99.3974090755554</ele>        <time></time>      </trkpt>
      <trkpt lat="-27.4488409760259" lon="152.927349695997">        <ele>90.6322772762609</ele>        <time></time>      </trkpt>
      <trkpt lat="-27.4488828046428" lon="152.926954796945">        <ele>85.4738117109918</ele>        <time></time>      </trkpt>
      <trkpt lat="-27.4493013521714" lon="152.926767786121">        <ele>88.3066055681973</ele>        <time></time>      </trkpt>
      <trkpt lat="-27.449543980869" lon="152.926403287931">        <ele>87.0499646716311</ele>        <time></time>      </trkpt>
      <trkpt lat="-27.4494765753974" lon="152.925902602498">        <ele>83.5090597679899</ele>        <time></time>      </trkpt>
      <trkpt lat="-27.4495188843958" lon="152.925408723042">        <ele>83.835565510591</ele>        <time></time>      </trkpt>
      <trkpt lat="-27.4496536914327" lon="152.924925679341">        <ele>82.090347162123</ele>        <time></time>      </trkpt>
      <trkpt lat="-27.4497959497463" lon="152.92444512263">        <ele>83.0334942446833</ele>        <time></time>      </trkpt>
      <trkpt lat="-27.4499299229307" lon="152.923961548813">        <ele>84.4915222297975</ele>        <time></time>      </trkpt>
      <trkpt lat="-27.450090592699" lon="152.923490696376">        <ele>91.1645129595559</ele>        <time></time>      </trkpt>
      <trkpt lat="-27.4503665397711" lon="152.923094564511">        <ele>96.3016011613262</ele>        <time></time>      </trkpt>
      <trkpt lat="-27.45075763348" lon="152.922929447122">        <ele>103.990544867819</ele>        <time></time>      </trkpt>
      <trkpt lat="-27.4511778071985" lon="152.923113903525">        <ele>111.209651362518</ele>        <time></time>      </trkpt>
      <trkpt lat="-27.4515848266485" lon="152.923001392477">        <ele>110.990052697015</ele>        <time></time>      </trkpt>
      <trkpt lat="-27.4518900000554" lon="152.922664473805">        <ele>103.826238756743</ele>        <time></time>      </trkpt>
      <trkpt lat="-27.4519471036063" lon="152.922164964791">        <ele>93.6235591739935</ele>        <time></time>      </trkpt>
      <trkpt lat="-27.4523147310539" lon="152.921879543106">        <ele>91.3998648887924</ele>        <time></time>      </trkpt>
      <trkpt lat="-27.4526638982631" lon="152.921563381065">        <ele>93.9826317766537</ele>        <time></time>      </trkpt>
      <trkpt lat="-27.4526286690265" lon="152.921159745375">        <ele>96.8504903349773</ele>        <time></time>      </trkpt>
      <trkpt lat="-27.4521888993856" lon="152.921072477108">        <ele>92.4785303529183</ele>        <time></time>      </trkpt>
      <trkpt lat="-27.4517432259378" lon="152.921013778811">        <ele>92.5971284912072</ele>        <time></time>      </trkpt>
      <trkpt lat="-27.4513423167408" lon="152.921193073309">        <ele>90.2270508972805</ele>        <time></time>      </trkpt>
      <trkpt lat="-27.4509041449449" lon="152.921297903638">        <ele>91.3666106388418</ele>        <time></time>      </trkpt>
      <trkpt lat="-27.4504632124408" lon="152.921219670392">        <ele>95.4051453715402</ele>        <time></time>      </trkpt>
      <trkpt lat="-27.4501715231326" lon="152.920871346119">        <ele>101.79555709292</ele>        <time></time>      </trkpt>
      <trkpt lat="-27.4500750232069" lon="152.920386918457">        <ele>104.115800068813</ele>        <time></time>      </trkpt>
      <trkpt lat="-27.4497336698161" lon="152.920060168776">        <ele>99.9915384722056</ele>        <time></time>      </trkpt>
      <trkpt lat="-27.4494474224742" lon="152.919685352651">        <ele>95.8777783851923</ele>        <time></time>      </trkpt>
      <trkpt lat="-27.4493361361084" lon="152.919200483106">        <ele>102.188747487398</ele>        <time></time>      </trkpt>
      <trkpt lat="-27.4491256860506" lon="152.918752427329">        <ele>104.247513336592</ele>        <time></time>      </trkpt>
      <trkpt lat="-27.4489715539444" lon="152.918281316001">        <ele>98.2625107692696</ele>        <time></time>      </trkpt>
      <trkpt lat="-27.4491590500884" lon="152.917875529072">        <ele>92.1399757809028</ele>        <time></time>      </trkpt>
      <trkpt lat="-27.4495781347419" lon="152.91771936097">        <ele>95.8670600934819</ele>        <time></time>      </trkpt>
      <trkpt lat="-27.449592690635" lon="152.917276920683">        <ele>96.1077708454543</ele>        <time></time>      </trkpt>
      <trkpt lat="-27.4492216165072" lon="152.917010600443">        <ele>88.7605512714876</ele>        <time></time>      </trkpt>
      <trkpt lat="-27.4487989301708" lon="152.916902767528">        <ele>87.1212117712296</ele>        <time></time>      </trkpt>
      <trkpt lat="-27.4483612297845" lon="152.916892895243">        <ele>91.8657888047264</ele>        <time></time>      </trkpt>
      <trkpt lat="-27.4479449385523" lon="152.916711104037">        <ele>97.8101088819302</ele>        <time></time>      </trkpt>
      <trkpt lat="-27.4476160225087" lon="152.916380718365">        <ele>99.2442914594767</ele>        <time></time>      </trkpt>
      <trkpt lat="-27.4472407249523" lon="152.916136087128">        <ele>94.7746020601648</ele>        <time></time>      </trkpt>
      <trkpt lat="-27.4471165366588" lon="152.915678538855">        <ele>89.2422143084784</ele>        <time></time>      </trkpt>
      <trkpt lat="-27.4472438385366" lon="152.915199444965">        <ele>89.3574786707642</ele>        <time></time>      </trkpt>
      <trkpt lat="-27.4474526883412" lon="152.914752557986">        <ele>89.9482178444787</ele>        <time></time>      </trkpt>
      <trkpt lat="-27.4476721636656" lon="152.914310228914">        <ele>91.8922674493336</ele>        <time></time>      </trkpt>
      <trkpt lat="-27.4478678724664" lon="152.91385401203">        <ele>93.277975752159</ele>        <time></time>      </trkpt>
      <trkpt lat="-27.4481031601451" lon="152.913429430632">        <ele>93.8223142610939</ele>        <time></time>      </trkpt>
      <trkpt lat="-27.448293483052" lon="152.912974326755">        <ele>97.2813713511323</ele>        <time></time>      </trkpt>
      <trkpt lat="-27.4484681629782" lon="152.912514769858">        <ele>100.124173077709</ele>        <time></time>      </trkpt>
      <trkpt lat="-27.448830090154" lon="152.912240559678">        <ele>105.76767594856</ele>        <time></time>      </trkpt>
      <trkpt lat="-27.4492549669328" lon="152.912148268203">        <ele>110.993729635877</ele>        <time></time>      </trkpt>
      <trkpt lat="-27.4492595890358" lon="152.912145726041">        <ele>110.993729635877</ele>        <time></time>      </trkpt>
      <trkpt lat="-27.4488815271277" lon="152.912178502429">        <ele>105.244903588273</ele>        <time></time>      </trkpt>
      <trkpt lat="-27.4490667867771" lon="152.911720125483">        <ele>99.0752654472004</ele>        <time></time>      </trkpt>
      <trkpt lat="-27.449327351876" lon="152.91130932195">        <ele>94.5213946450199</ele>        <time></time>      </trkpt>
      <trkpt lat="-27.4497330896416" lon="152.911089091507">        <ele>92.1210431691082</ele>        <time></time>      </trkpt>
      <trkpt lat="-27.4499320326159" lon="152.910664428417">        <ele>82.8766248446959</ele>        <time></time>      </trkpt>
      <trkpt lat="-27.4502613079938" lon="152.910322953728">        <ele>86.9919959031998</ele>        <time></time>      </trkpt>
      <trkpt lat="-27.4505567328676" lon="152.90994475221">        <ele>88.8893857573269</ele>        <time></time>      </trkpt>
      <trkpt lat="-27.4507197691633" lon="152.909473827528">        <ele>92.6036648393348</ele>        <time></time>      </trkpt>
      <trkpt lat="-27.4507860900907" lon="152.908975423708">        <ele>90.4491413662594</ele>        <time></time>      </trkpt>
      <trkpt lat="-27.4508345629017" lon="152.908482814451">        <ele>90.170989935372</ele>        <time></time>      </trkpt>
      <trkpt lat="-27.450441121961" lon="152.908299420503">        <ele>82.5351256476454</ele>        <time></time>      </trkpt>
      <trkpt lat="-27.4500037815181" lon="152.908241087674">        <ele>83.3841169049368</ele>        <time></time>      </trkpt>
      <trkpt lat="-27.4495612977647" lon="152.90814611425">        <ele>87.2063741383705</ele>        <time></time>      </trkpt>
      <trkpt lat="-27.4491126495467" lon="152.908106436562">        <ele>90.9649228750684</ele>        <time></time>      </trkpt>
      <trkpt lat="-27.4486758593818" lon="152.908224713655">        <ele>91</ele>        <time></time>      </trkpt>
      <trkpt lat="-27.4482423899306" lon="152.908314378531">        <ele>91.0024468684018</ele>        <time></time>      </trkpt>
      <trkpt lat="-27.4477965693475" lon="152.90833759629">        <ele>94.6532460376631</ele>        <time></time>      </trkpt>
      <trkpt lat="-27.4473573223936" lon="152.908293700189">        <ele>94.456142056782</ele>        <time></time>      </trkpt>
      <trkpt lat="-27.4472066950164" lon="152.908046101935">        <ele>91.6662946558572</ele>        <time></time>      </trkpt>
      <trkpt lat="-27.4474700000471" lon="152.908276353716">        <ele>96.7073900271022</ele>        <time></time>      </trkpt>
      <trkpt lat="-27.4474785670539" lon="152.907770155006">        <ele>104.780257099748</ele>        <time></time>      </trkpt>
      <trkpt lat="-27.4477816107196" lon="152.907414972682">        <ele>110.407528255122</ele>        <time></time>      </trkpt>
      <trkpt lat="-27.4479064773003" lon="152.906965278905">        <ele>114.714888870081</ele>        <time></time>      </trkpt>
      <trkpt lat="-27.4480642382407" lon="152.906493677803">        <ele>116.326411322085</ele>        <time></time>      </trkpt>
      <trkpt lat="-27.4481500001684" lon="152.905999489394">        <ele>117.802065039107</ele>        <time></time>      </trkpt>
      <trkpt lat="-27.4481160063885" lon="152.905499520109">        <ele>117</ele>        <time></time>      </trkpt>
      <trkpt lat="-27.4479619970927" lon="152.905023912713">        <ele>117.227941334866</ele>        <time></time>      </trkpt>
      <trkpt lat="-27.4477681895048" lon="152.904566526803">        <ele>121.855106142325</ele>        <time></time>      </trkpt>
      <trkpt lat="-27.4478027072577" lon="152.904083064412">        <ele>125.946919237568</ele>        <time></time>      </trkpt>
      <trkpt lat="-27.4477513358516" lon="152.903612118114">        <ele>129.418999164203</ele>        <time></time>      </trkpt>
      <trkpt lat="-27.4477591363367" lon="152.903122073146">        <ele>132.970723567932</ele>        <time></time>      </trkpt>
      <trkpt lat="-27.4478924472293" lon="152.902643600531">        <ele>131.975966421562</ele>        <time></time>      </trkpt>
      <trkpt lat="-27.4479695128256" lon="152.902144778607">        <ele>134.467048431306</ele>        <time></time>      </trkpt>
      <trkpt lat="-27.4480898676774" lon="152.901660309354">        <ele>139.057792601287</ele>        <time></time>      </trkpt>
      <trkpt lat="-27.4482933646831" lon="152.90120860743">        <ele>144.585313943264</ele>        <time></time>      </trkpt>
      <trkpt lat="-27.4485251058538" lon="152.900773972915">        <ele>147.999541840686</ele>        <time></time>      </trkpt>
      <trkpt lat="-27.4487766876757" lon="152.900353776746">        <ele>155.327876261442</ele>        <time></time>      </trkpt>
      <trkpt lat="-27.4491251693708" lon="152.900039148845">        <ele>161.273912462562</ele>        <time></time>      </trkpt>
      <trkpt lat="-27.4494943024711" lon="152.899748488322">        <ele>170.619277053656</ele>        <time></time>      </trkpt>
      <trkpt lat="-27.4499111613184" lon="152.899553389421">        <ele>185.781030708223</ele>        <time></time>      </trkpt>
      <trkpt lat="-27.4503494919581" lon="152.899435090754">        <ele>194.021643856075</ele>        <time></time>      </trkpt>
      <trkpt lat="-27.4507767554749" lon="152.899476755464">        <ele>200.998751127624</ele>        <time></time>      </trkpt>
      <trkpt lat="-27.451198974986" lon="152.899395597991">        <ele>206.430882592885</ele>        <time></time>      </trkpt>
      <trkpt lat="-27.4516022676127" lon="152.899197732397">        <ele>208.395244808244</ele>        <time></time>      </trkpt>
      <trkpt lat="-27.4518576460659" lon="152.898784708594">        <ele>208.977210165551</ele>        <time></time>      </trkpt>
      <trkpt lat="-27.4521324451428" lon="152.898390492174">        <ele>205.375768173092</ele>        <time></time>      </trkpt>
      <trkpt lat="-27.4525276369186" lon="152.898210107413">        <ele>204.120580342456</ele>        <time></time>      </trkpt>
      <trkpt lat="-27.4528658563392" lon="152.897877348133">        <ele>204.211146238704</ele>        <time></time>      </trkpt>
      <trkpt lat="-27.4530955404782" lon="152.897445825955">        <ele>207.387498861564</ele>        <time></time>      </trkpt>
      <trkpt lat="-27.4533758287603" lon="152.897048965973">        <ele>206.96878423798</ele>        <time></time>      </trkpt>
      <trkpt lat="-27.453662471753" lon="152.896657586938">        <ele>210.490482327655</ele>        <time></time>      </trkpt>
      <trkpt lat="-27.4538694301469" lon="152.89620880661">        <ele>214.163156559714</ele>        <time></time>      </trkpt>
      <trkpt lat="-27.4540538263885" lon="152.895746676152">        <ele>216.22461254322</ele>        <time></time>      </trkpt>
      <trkpt lat="-27.4541653249916" lon="152.895258829451">        <ele>218.600415051269</ele>        <time></time>      </trkpt>
      <trkpt lat="-27.4541788330384" lon="152.894753021756">        <ele>221.615549640974</ele>        <time></time>      </trkpt>
      <trkpt lat="-27.4541128891026" lon="152.894256001676">        <ele>223.752805115165</ele>        <time></time>      </trkpt>
      <trkpt lat="-27.4541574899637" lon="152.893755896964">        <ele>231.443871196591</ele>        <time></time>      </trkpt>
      <trkpt lat="-27.4541325202336" lon="152.893252144813">        <ele>244.588044771088</ele>        <time></time>      </trkpt>
      <trkpt lat="-27.4540676404532" lon="152.892754157359">        <ele>256.252804436734</ele>        <time></time>      </trkpt>
      <trkpt lat="-27.4543187288009" lon="152.892344887339">        <ele>264.598522819446</ele>        <time></time>      </trkpt>
      <trkpt lat="-27.4545900372299" lon="152.891942790182">        <ele>266.986886490323</ele>        <time></time>      </trkpt>
      <trkpt lat="-27.4548819253025" lon="152.891628290751">        <ele>265.405954793016</ele>        <time></time>      </trkpt>
      <trkpt lat="-27.4552453401894" lon="152.891433299224">        <ele>265.18249008124</ele>        <time></time>      </trkpt>
      <trkpt lat="-27.4553713325235" lon="152.890949002228">        <ele>260.517008350191</ele>        <time></time>      </trkpt>
      <trkpt lat="-27.4556641024879" lon="152.890567272642">        <ele>254.826175625803</ele>        <time></time>      </trkpt>
      <trkpt lat="-27.4559918227728" lon="152.890219926179">        <ele>252.110757231229</ele>        <time></time>      </trkpt>
      <trkpt lat="-27.4563803614046" lon="152.88998">        <ele>249.098037245493</ele>        <time></time>      </trkpt>
      <trkpt lat="-27.4567614508253" lon="152.890202888161">        <ele>247.16420189006</ele>        <time></time>      </trkpt>
      <trkpt lat="-27.4570417641505" lon="152.89059999808">        <ele>241.200940646089</ele>        <time></time>      </trkpt>
      <trkpt lat="-27.4573276231471" lon="152.890992017229">        <ele>241.922040808582</ele>        <time></time>      </trkpt>
      <trkpt lat="-27.457578350044" lon="152.891408039984">        <ele>239.389085213131</ele>        <time></time>      </trkpt>
      <trkpt lat="-27.4576551770443" lon="152.891903573571">        <ele>239.731243286437</ele>        <time></time>      </trkpt>
      <trkpt lat="-27.457672234633" lon="152.892409611219">        <ele>239.001816956717</ele>        <time></time>      </trkpt>
      <trkpt lat="-27.4576317003638" lon="152.892910479665">        <ele>231.554906924104</ele>        <time></time>      </trkpt>
      <trkpt lat="-27.457523367155" lon="152.893401363569">        <ele>224.221330651165</ele>        <time></time>      </trkpt>
      <trkpt lat="-27.4573875340272" lon="152.893884326352">        <ele>217.266989358283</ele>        <time></time>      </trkpt>
      <trkpt lat="-27.4572466053779" lon="152.89436540037">        <ele>209.178734650591</ele>        <time></time>      </trkpt>
      <trkpt lat="-27.4570989007441" lon="152.894843962835">        <ele>210.83187558936</ele>        <time></time>      </trkpt>
      <trkpt lat="-27.4570244051137" lon="152.895338936322">        <ele>214.210678223592</ele>        <time></time>      </trkpt>
      <trkpt lat="-27.4569968825578" lon="152.895843256682">        <ele>214.198306160817</ele>        <time></time>      </trkpt>
      <trkpt lat="-27.4569777821439" lon="152.896347898665">        <ele>218.586975606557</ele>        <time></time>      </trkpt>
      <trkpt lat="-27.4571404763417" lon="152.896816189863">        <ele>220.644662295043</ele>        <time></time>      </trkpt>
      <trkpt lat="-27.4573253047183" lon="152.897278260597">        <ele>218.199083683865</ele>        <time></time>      </trkpt>
      <trkpt lat="-27.4575226187679" lon="152.897733655785">        <ele>221.650917915446</ele>        <time></time>      </trkpt>
      <trkpt lat="-27.4578250062292" lon="152.89810568888">        <ele>224.951818312671</ele>        <time></time>      </trkpt>
      <trkpt lat="-27.458123159299" lon="152.898483978632">        <ele>223.497818644143</ele>        <time></time>      </trkpt>
      <trkpt lat="-27.4583526261236" lon="152.898919212492">        <ele>219.379309395589</ele>        <time></time>      </trkpt>
      <trkpt lat="-27.4585887733517" lon="152.899350501015">        <ele>215.97387183115</ele>        <time></time>      </trkpt>
      <trkpt lat="-27.458746339769" lon="152.89982223437">        <ele>217.489127995961</ele>        <time></time>      </trkpt>
      <trkpt lat="-27.4587641275967" lon="152.900325856635">        <ele>217.835511067746</ele>        <time></time>      </trkpt>
      <trkpt lat="-27.4587250208892" lon="152.900829024981">        <ele>219.989224672163</ele>        <time></time>      </trkpt>
      <trkpt lat="-27.4585984566454" lon="152.90131309226">        <ele>211.762852194799</ele>        <time></time>      </trkpt>
      <trkpt lat="-27.4587445174394" lon="152.90173490883">        <ele>212.586002057937</ele>        <time></time>      </trkpt>
      <trkpt lat="-27.4590055207552" lon="152.902133522136">        <ele>212.417096466265</ele>        <time></time>      </trkpt>
      <trkpt lat="-27.4590987322154" lon="152.902623934063">        <ele>206.292769355295</ele>        <time></time>      </trkpt>
      <trkpt lat="-27.459073054613" lon="152.903126291897">        <ele>204.541877304327</ele>        <time></time>      </trkpt>
      <trkpt lat="-27.4589706694589" lon="152.903618847527">        <ele>196.274883663723</ele>        <time></time>      </trkpt>
      <trkpt lat="-27.4588083933817" lon="152.904087773572">        <ele>189.334137473613</ele>        <time></time>      </trkpt>
      <trkpt lat="-27.4585814910669" lon="152.904525656517">        <ele>185.338632812626</ele>        <time></time>      </trkpt>
      <trkpt lat="-27.4583464567728" lon="152.9049581196">        <ele>186.998981676214</ele>        <time></time>      </trkpt>
      <trkpt lat="-27.4579757764377" lon="152.905244300138">        <ele>192.352152641639</ele>        <time></time>      </trkpt>
      <trkpt lat="-27.4576371075602" lon="152.905572892464">        <ele>197.725211044323</ele>        <time></time>      </trkpt>
      <trkpt lat="-27.4572125459475" lon="152.905581272951">        <ele>199.000055204881</ele>        <time></time>      </trkpt>
      <trkpt lat="-27.4568423833473" lon="152.905700835576">        <ele>198.489360181797</ele>        <time></time>      </trkpt>
      <trkpt lat="-27.4567410708179" lon="152.906166121367">        <ele>195.97826561334</ele>        <time></time>      </trkpt>
      <trkpt lat="-27.4570118734074" lon="152.906560932329">        <ele>199.304345042989</ele>        <time></time>      </trkpt>
      <trkpt lat="-27.457019243307" lon="152.907055687738">        <ele>195.527991023018</ele>        <time></time>      </trkpt>
      <trkpt lat="-27.4568084168279" lon="152.907499857881">        <ele>180.372938702076</ele>        <time></time>      </trkpt>
      <trkpt lat="-27.4565684249018" lon="152.907928458617">        <ele>171.228841586871</ele>        <time></time>      </trkpt>
      <trkpt lat="-27.4563578583406" lon="152.908376474581">        <ele>168.786302895228</ele>        <time></time>      </trkpt>
      <trkpt lat="-27.4561472903279" lon="152.908824488846">        <ele>167.097943584523</ele>        <time></time>      </trkpt>
      <trkpt lat="-27.4561615105929" lon="152.90932394241">        <ele>163.425909560819</ele>        <time></time>      </trkpt>
      <trkpt lat="-27.4562148142288" lon="152.909826737679">        <ele>161.730246177481</ele>        <time></time>      </trkpt>
      <trkpt lat="-27.4562616677119" lon="152.910330399064">        <ele>160.058169206463</ele>        <time></time>      </trkpt>
      <trkpt lat="-27.4563085193746" lon="152.91083406088">        <ele>159.446354688478</ele>        <time></time>      </trkpt>
      <trkpt lat="-27.4563481590012" lon="152.911337999366">        <ele>163.289249865097</ele>        <time></time>      </trkpt>
      <trkpt lat="-27.4563320943639" lon="152.911844072039">        <ele>161.20053010218</ele>        <time></time>      </trkpt>
      <trkpt lat="-27.4563160278877" lon="152.912350144571">        <ele>158.047699854156</ele>        <time></time>      </trkpt>
      <trkpt lat="-27.4563149060586" lon="152.912856369425">        <ele>154.659148205281</ele>        <time></time>      </trkpt>
      <trkpt lat="-27.4563227562002" lon="152.913362685855">        <ele>156.899975356809</ele>        <time></time>      </trkpt>
      <trkpt lat="-27.4563381277231" lon="152.913867929302">        <ele>158.721516052883</ele>        <time></time>      </trkpt>
      <trkpt lat="-27.4565640107834" lon="152.914163008038">        <ele>156.866292154195</ele>        <time></time>      </trkpt>
      <trkpt lat="-27.4561455950091" lon="152.91404">        <ele>158.902123332626</ele>        <time></time>      </trkpt>
      <trkpt lat="-27.4556967733637" lon="152.913991210982">        <ele>156.096989663349</ele>        <time></time>      </trkpt>
      <trkpt lat="-27.455247177821" lon="152.913946991632">        <ele>150.232911751975</ele>        <time></time>      </trkpt>
      <trkpt lat="-27.4547971474563" lon="152.91390874357">        <ele>148.177939329709</ele>        <time></time>      </trkpt>
      <trkpt lat="-27.454403367694" lon="152.913682135612">        <ele>147.436740748953</ele>        <time></time>      </trkpt>
      <trkpt lat="-27.4540617287515" lon="152.913355355705">        <ele>148.401212262961</ele>        <time></time>      </trkpt>
      <trkpt lat="-27.4536614471123" lon="152.913122578718">        <ele>145.663500527754</ele>        <time></time>      </trkpt>
      <trkpt lat="-27.4532359845699" lon="152.912952393721">        <ele>143.999168230303</ele>        <time></time>      </trkpt>
      <trkpt lat="-27.4527895478538" lon="152.912887405159">        <ele>142.845576334961</ele>        <time></time>      </trkpt>
      <trkpt lat="-27.4523385626477" lon="152.912870000001">        <ele>138.830573638394</ele>        <time></time>      </trkpt>
      <trkpt lat="-27.451886968478" lon="152.91287746497">        <ele>134.156796569872</ele>        <time></time>      </trkpt>
      <trkpt lat="-27.4514355323493" lon="152.912895401888">        <ele>132.202183205311</ele>        <time></time>      </trkpt>
      <trkpt lat="-27.4509894156843" lon="152.912837011563">        <ele>131.878264526611</ele>        <time></time>      </trkpt>
      <trkpt lat="-27.4505908086824" lon="152.912627835974">        <ele>126.508199083661</ele>        <time></time>      </trkpt>
      <trkpt lat="-27.4501722771397" lon="152.912440416261">        <ele>123.923011326852</ele>        <time></time>      </trkpt>
      <trkpt lat="-27.4497680574468" lon="152.912217322346">        <ele>118.15538590089</ele>        <time></time>      </trkpt>
      <trkpt lat="-27.449349386444" lon="152.912128659093">        <ele>112.715245420562</ele>        <time></time>      </trkpt>
      <trkpt lat="-27.4489223839347" lon="152.91222785758">        <ele>106.334820957691</ele>        <time></time>      </trkpt>
      <trkpt lat="-27.4485206385786" lon="152.912423627846">        <ele>101.006475773087</ele>        <time></time>      </trkpt>
      <trkpt lat="-27.4483168737132" lon="152.912869068862">        <ele>97.9169691256212</ele>        <time></time>      </trkpt>
      <trkpt lat="-27.4481529613274" lon="152.913337485304">        <ele>94.0858055614016</ele>        <time></time>      </trkpt>
      <trkpt lat="-27.4479087201086" lon="152.913755674918">        <ele>93.4106000247897</ele>        <time></time>      </trkpt>
      <trkpt lat="-27.4477178131037" lon="152.914214582092">        <ele>92.3641507916766</ele>        <time></time>      </trkpt>
      <trkpt lat="-27.4475040598001" lon="152.914660629872">        <ele>91.1346067617125</ele>        <time></time>      </trkpt>
      <trkpt lat="-27.4472803655231" lon="152.915098995445">        <ele>88.4582567154915</ele>        <time></time>      </trkpt>
      <trkpt lat="-27.4471192473297" lon="152.915570108412">        <ele>87.9092381670167</ele>        <time></time>      </trkpt>
      <trkpt lat="-27.4471827965749" lon="152.916049194587">        <ele>93.8387383945412</ele>        <time></time>      </trkpt>
      <trkpt lat="-27.4475245497651" lon="152.916345309503">        <ele>98.3613182896718</ele>        <time></time>      </trkpt>
      <trkpt lat="-27.4478605306308" lon="152.91665804771">        <ele>98.4646780244797</ele>        <time></time>      </trkpt>
      <trkpt lat="-27.4482677300122" lon="152.916865227855">        <ele>93.1229875690254</ele>        <time></time>      </trkpt>
      <trkpt lat="-27.4487044770658" lon="152.916926380805">        <ele>87.7345434049567</ele>        <time></time>      </trkpt>
      <trkpt lat="-27.4491327176974" lon="152.916967738544">        <ele>87.7424235547811</ele>        <time></time>      </trkpt>
      <trkpt lat="-27.449530416603" lon="152.917193888688">        <ele>95.209775163531</ele>        <time></time>      </trkpt>
      <trkpt lat="-27.4496374643163" lon="152.91763366266">        <ele>96.6225324274486</ele>        <time></time>      </trkpt>
      <trkpt lat="-27.449250522979" lon="152.917840120225">        <ele>92.3637063085585</ele>        <time></time>      </trkpt>
      <trkpt lat="-27.4489612813486" lon="152.918173454059">        <ele>96.1572479399181</ele>        <time></time>      </trkpt>
      <trkpt lat="-27.4490806022065" lon="152.918656442818">        <ele>104.364443717177</ele>        <time></time>      </trkpt>
      <trkpt lat="-27.4492910525737" lon="152.91910449823">        <ele>103.085630254291</ele>        <time></time>      </trkpt>
      <trkpt lat="-27.4494058624474" lon="152.91958738992">        <ele>96.9982073617632</ele>        <time></time>      </trkpt>
      <trkpt lat="-27.4496577031001" lon="152.919992967601">        <ele>98.1785614855268</ele>        <time></time>      </trkpt>
      <trkpt lat="-27.4500123146898" lon="152.920306662804">        <ele>103.970095238346</ele>        <time></time>      </trkpt>
      <trkpt lat="-27.4501463827054" lon="152.920766594504">        <ele>102.754789378958</ele>        <time></time>      </trkpt>
      <trkpt lat="-27.4503754248695" lon="152.921174020869">        <ele>96.2917426902837</ele>        <time></time>      </trkpt>
      <trkpt lat="-27.4508076233191" lon="152.921290077544">        <ele>92.0165311339946</ele>        <time></time>      </trkpt>
      <trkpt lat="-27.4512511722132" lon="152.921229531154">        <ele>90.1815654887156</ele>        <time></time>      </trkpt>
      <trkpt lat="-27.4516506429292" lon="152.920996238053">        <ele>92.4642907703539</ele>        <time></time>      </trkpt>
      <trkpt lat="-27.4520940553887" lon="152.921050921677">        <ele>92.4247515689302</ele>        <time></time>      </trkpt>
      <trkpt lat="-27.4525403507733" lon="152.921124680429">        <ele>96.398315215583</ele>        <time></time>      </trkpt>
      <trkpt lat="-27.4527249085318" lon="152.921480182954">        <ele>94.7020658027933</ele>        <time></time>      </trkpt>
      <trkpt lat="-27.4523962586397" lon="152.921821177911">        <ele>91.829477143641</ele>        <time></time>      </trkpt>
      <trkpt lat="-27.4520171323512" lon="152.922095073628">        <ele>92.8591089762082</ele>        <time></time>      </trkpt>
      <trkpt lat="-27.4518900000634" lon="152.922555996118">        <ele>101.502516644673</ele>        <time></time>      </trkpt>
      <trkpt lat="-27.4516628852402" lon="152.922937273017">        <ele>109.401931073855</ele>        <time></time>      </trkpt>
      <trkpt lat="-27.4512676933216" lon="152.923148820447">        <ele>112.330577829761</ele>        <time></time>      </trkpt>
      <trkpt lat="-27.4508493011985" lon="152.922964217622">        <ele>105.943750281089</ele>        <time></time>      </trkpt>
      <trkpt lat="-27.4504318456327" lon="152.923014511946">        <ele>96.8345820513991</ele>        <time></time>      </trkpt>
      <trkpt lat="-27.4501345259818" lon="152.923394042961">        <ele>91.9365066095994</ele>        <time></time>      </trkpt>
      <trkpt lat="-27.449956814243" lon="152.923857345196">        <ele>85.2962198653854</ele>        <time></time>      </trkpt>
      <trkpt lat="-27.4498248055515" lon="152.924341581494">        <ele>83.5119861390407</ele>        <time></time>      </trkpt>
      <trkpt lat="-27.4496850052221" lon="152.924823039607">        <ele>81.7167010883408</ele>        <time></time>      </trkpt>
      <trkpt lat="-27.4495445020326" lon="152.925304117379">        <ele>83.1892992150988</ele>        <time></time>      </trkpt>
      <trkpt lat="-27.4494631471522" lon="152.925795176544">        <ele>83.7140475725347</ele>        <time></time>      </trkpt>
      <trkpt lat="-27.4495292652989" lon="152.926296073995">        <ele>85.4916788121689</ele>        <time></time>      </trkpt>
      <trkpt lat="-27.449387104591" lon="152.926721470052">        <ele>88.8573963083023</ele>        <time></time>      </trkpt>
      <trkpt lat="-27.4489674868415" lon="152.92690292202">        <ele>85.8925261758086</ele>        <time></time>      </trkpt>
      <trkpt lat="-27.4487978235376" lon="152.927252602743">        <ele>88.7587027864916</ele>        <time></time>      </trkpt>
      <trkpt lat="-27.4491158004139" lon="152.927577068541">        <ele>98.8628956540516</ele>        <time></time>      </trkpt>
      <trkpt lat="-27.4488366948954" lon="152.927876610215">        <ele>93.3575023703894</ele>        <time></time>      </trkpt>
      <trkpt lat="-27.4487546202208" lon="152.928363224181">        <ele>90.7828593325383</ele>        <time></time>      </trkpt>
      <trkpt lat="-27.4485866732465" lon="152.928783747573">        <ele>81.1835043679161</ele>        <time></time>      </trkpt>
      <trkpt lat="-27.44816" lon="152.92895">        <ele>75.2903408034823</ele>        <time></time>      </trkpt>
    </trkseg>
  </trk>
</gpx>
