<?xml version="1.0" encoding="UTF-8" standalone="no"?>
<gpx xmlns="http://www.topografix.com/GPX/1/1" xmlns:xsi="http://www.w3.org/2001/XMLSchema-instance" xsi:schemaLocation="http://www.topografix.com/GPX/1/1 http://www.topografix.com/GPX/1/1/gpx.xsd" version="1.1" creator="Metric Trails">
  <metadata>
    <name>Metric Trails Generated GPX</name>
    <desc>This track was generated by Metric Trails technology for GNSS trajectory processing.</desc>
    <author>
      <name>Metric Trails</name>
      <link href="https://www.metrictrails.com"/>
    </author>
    <time>2025-10-28T11:41:17Z</time>
  </metadata>
  <trk>
    <name>Metric Trails. Track standarized to 49.9-meter spatial resolution</name>
    <trkseg>
      <trkpt lat="-27.44785" lon="152.92907">        <ele>72.7566197408853</ele>        <time></time>      </trkpt>
      <trkpt lat="-27.4482772962559" lon="152.928904642828">        <ele>77.1565578175029</ele>        <time></time>      </trkpt>
      <trkpt lat="-27.4486856049623" lon="152.928709135797">        <ele>83.0839199809787</ele>        <time></time>      </trkpt>
      <trkpt lat="-27.448750108928" lon="152.928223376654">        <ele>91.6320331339738</ele>        <time></time>      </trkpt>
      <trkpt lat="-27.4489381540938" lon="152.927795922956">        <ele>95.4055546876734</ele>        <time></time>      </trkpt>
      <trkpt lat="-27.449016955568" lon="152.927506579241">        <ele>96.8284476621336</ele>        <time></time>      </trkpt>
      <trkpt lat="-27.448741634136" lon="152.927126176729">        <ele>86.1880884739424</ele>        <time></time>      </trkpt>
      <trkpt lat="-27.4490863722431" lon="152.926854801863">        <ele>86.98237458645</ele>        <time></time>      </trkpt>
      <trkpt lat="-27.4494782722433" lon="152.926622705088">        <ele>88.6942070867052</ele>        <time></time>      </trkpt>
      <trkpt lat="-27.4495099265699" lon="152.926155177845">        <ele>84.0929185602044</ele>        <time></time>      </trkpt>
      <trkpt lat="-27.4494586873951" lon="152.925654526742">        <ele>84.3344274587087</ele>        <time></time>      </trkpt>
      <trkpt lat="-27.4495802353094" lon="152.925166451202">        <ele>82.4464926667114</ele>        <time></time>      </trkpt>
      <trkpt lat="-27.4497265337134" lon="152.924686917847">        <ele>81.9997650313639</ele>        <time></time>      </trkpt>
      <trkpt lat="-27.4498631901358" lon="152.924203848437">        <ele>84.0723281477252</ele>        <time></time>      </trkpt>
      <trkpt lat="-27.4499926936129" lon="152.92371831238">        <ele>87.0300137985106</ele>        <time></time>      </trkpt>
      <trkpt lat="-27.4502143943892" lon="152.923281065223">        <ele>93.4997354536911</ele>        <time></time>      </trkpt>
      <trkpt lat="-27.4505438732211" lon="152.922949500687">        <ele>98.6125625316922</ele>        <time></time>      </trkpt>
      <trkpt lat="-27.4509726152332" lon="152.923011307613">        <ele>108.092006099086</ele>        <time></time>      </trkpt>
      <trkpt lat="-27.4513981371043" lon="152.923140124193">        <ele>113.168818514268</ele>        <time></time>      </trkpt>
      <trkpt lat="-27.4517686017128" lon="152.922850434435">        <ele>107.945946426688</ele>        <time></time>      </trkpt>
      <trkpt lat="-27.4518997134328" lon="152.922409814195">        <ele>98.2055831420782</ele>        <time></time>      </trkpt>
      <trkpt lat="-27.4521236228385" lon="152.922007945026">        <ele>92.1068528381481</ele>        <time></time>      </trkpt>
      <trkpt lat="-27.4525067531274" lon="152.921739760873">        <ele>92.6202088231203</ele>        <time></time>      </trkpt>
      <trkpt lat="-27.4527696506518" lon="152.92134157207">        <ele>95.5089515150558</ele>        <time></time>      </trkpt>
      <trkpt lat="-27.4524079479053" lon="152.921110494401">        <ele>94.7464430176009</ele>        <time></time>      </trkpt>
      <trkpt lat="-27.4519607429089" lon="152.92105">        <ele>92.3315979877224</ele>        <time></time>      </trkpt>
      <trkpt lat="-27.4515352527441" lon="152.921072111933">        <ele>91.1660592264568</ele>        <time></time>      </trkpt>
      <trkpt lat="-27.4511234442212" lon="152.921273621249">        <ele>90.2904797685897</ele>        <time></time>      </trkpt>
      <trkpt lat="-27.4506734129192" lon="152.921279195621">        <ele>93.0679651671104</ele>        <time></time>      </trkpt>
      <trkpt lat="-27.4502701038914" lon="152.921085596156">        <ele>98.260378297533</ele>        <time></time>      </trkpt>
      <trkpt lat="-27.4501350384872" lon="152.920615960772">        <ele>103.670221304265</ele>        <time></time>      </trkpt>
      <trkpt lat="-27.4499057701095" lon="152.920212411451">        <ele>103.3178740699</ele>        <time></time>      </trkpt>
      <trkpt lat="-27.4495508531953" lon="152.919898446948">        <ele>95.6771920138089</ele>        <time></time>      </trkpt>
      <trkpt lat="-27.4493761840953" lon="152.919439472072">        <ele>99.4141968998503</ele>        <time></time>      </trkpt>
      <trkpt lat="-27.4492272787473" lon="152.918968721255">        <ele>103.936026316422</ele>        <time></time>      </trkpt>
      <trkpt lat="-27.4490240224736" lon="152.918516741464">        <ele>102.520289389207</ele>        <time></time>      </trkpt>
      <trkpt lat="-27.4490155563188" lon="152.918033735829">        <ele>93.9383240258036</ele>        <time></time>      </trkpt>
      <trkpt lat="-27.4493810656854" lon="152.917789811938">        <ele>93.1124643277863</ele>        <time></time>      </trkpt>
      <trkpt lat="-27.4496782794934" lon="152.9174876333">        <ele>97.0312116131321</ele>        <time></time>      </trkpt>
      <trkpt lat="-27.4494201577792" lon="152.917106325909">        <ele>92.6613337332285</ele>        <time></time>      </trkpt>
      <trkpt lat="-27.4490048220004" lon="152.91690607472">        <ele>87.4178285439927</ele>        <time></time>      </trkpt>
      <trkpt lat="-27.4485682383064" lon="152.91695943374">        <ele>88.0345069964089</ele>        <time></time>      </trkpt>
      <trkpt lat="-27.4481324330851" lon="152.916828957901">        <ele>94.278790188745</ele>        <time></time>      </trkpt>
      <trkpt lat="-27.4477563457525" lon="152.916557246899">        <ele>98.9526608156665</ele>        <time></time>      </trkpt>
      <trkpt lat="-27.4473914815033" lon="152.916293799235">        <ele>97.0651454818542</ele>        <time></time>      </trkpt>
      <trkpt lat="-27.44711054783" lon="152.915918087991">        <ele>92.2824744919279</ele>        <time></time>      </trkpt>
      <trkpt lat="-27.4471632880094" lon="152.915420958651">        <ele>88.9606856040839</ele>        <time></time>      </trkpt>
      <trkpt lat="-27.4473396087598" lon="152.914954910763">        <ele>88.069175576197</ele>        <time></time>      </trkpt>
      <trkpt lat="-27.4475718627802" lon="152.914520383224">        <ele>91.7692683118538</ele>        <time></time>      </trkpt>
      <trkpt lat="-27.4477782861021" lon="152.914069682495">        <ele>92.9485443071847</ele>        <time></time>      </trkpt>
      <trkpt lat="-27.4479691266626" lon="152.913610251002">        <ele>92.4637579761275</ele>        <time></time>      </trkpt>
      <trkpt lat="-27.4482181068162" lon="152.913194165301">        <ele>94.8057238655822</ele>        <time></time>      </trkpt>
      <trkpt lat="-27.4483537067545" lon="152.912713561977">        <ele>98.2609003813019</ele>        <time></time>      </trkpt>
      <trkpt lat="-27.4486386524274" lon="152.912339179171">        <ele>103.358565079758</ele>        <time></time>      </trkpt>
      <trkpt lat="-27.4489314967042" lon="152.912009821222">        <ele>102.864305431906</ele>        <time></time>      </trkpt>
      <trkpt lat="-27.4491563580705" lon="152.911572766499">        <ele>97.8683406639733</ele>        <time></time>      </trkpt>
      <trkpt lat="-27.4494671375794" lon="152.911223300055">        <ele>94.5293254406824</ele>        <time></time>      </trkpt>
      <trkpt lat="-27.4498375972246" lon="152.910970706703">        <ele>89.0425902933262</ele>        <time></time>      </trkpt>
      <trkpt lat="-27.4500369464154" lon="152.910528657701">        <ele>83.5757256004765</ele>        <time></time>      </trkpt>
      <trkpt lat="-27.4503790383228" lon="152.910203217157">        <ele>88.7969164892614</ele>        <time></time>      </trkpt>
      <trkpt lat="-27.4506190652773" lon="152.909778555436">        <ele>89.8003829780716</ele>        <time></time>      </trkpt>
      <trkpt lat="-27.4507501662784" lon="152.909296175668">        <ele>92.3914969764392</ele>        <time></time>      </trkpt>
      <trkpt lat="-27.4508338885555" lon="152.908802154078">        <ele>91.1052321449775</ele>        <time></time>      </trkpt>
      <trkpt lat="-27.4507177327404" lon="152.908363770889">        <ele>87.648036896951</ele>        <time></time>      </trkpt>
      <trkpt lat="-27.4502801777137" lon="152.908325171576">        <ele>81.1095344413902</ele>        <time></time>      </trkpt>
      <trkpt lat="-27.4498470329768" lon="152.908192956189">        <ele>84.1046158843801</ele>        <time></time>      </trkpt>
      <trkpt lat="-27.4493996642864" lon="152.908119617009">        <ele>89.1947995246482</ele>        <time></time>      </trkpt>
      <trkpt lat="-27.4489519094366" lon="152.908132696937">        <ele>90.998004293622</ele>        <time></time>      </trkpt>
      <trkpt lat="-27.4485189308223" lon="152.90827857064">        <ele>91.0023253200658</ele>        <time></time>      </trkpt>
      <trkpt lat="-27.4480801553503" lon="152.90829">        <ele>92.0684433481929</ele>        <time></time>      </trkpt>
      <trkpt lat="-27.4476323595196" lon="152.90835458351">        <ele>95.5785856401591</ele>        <time></time>      </trkpt>
      <trkpt lat="-27.4474715118272" lon="152.908017088026">        <ele>101.491933665836</ele>        <time></time>      </trkpt>
      <trkpt lat="-27.4476127696177" lon="152.907572478297">        <ele>108.452962363827</ele>        <time></time>      </trkpt>
      <trkpt lat="-27.4478868969466" lon="152.907209305187">        <ele>112.431474364454</ele>        <time></time>      </trkpt>
      <trkpt lat="-27.4480093146104" lon="152.906731557708">        <ele>114.997800927318</ele>        <time></time>      </trkpt>
      <trkpt lat="-27.4481222590684" lon="152.90624087225">        <ele>117.613134480474</ele>        <time></time>      </trkpt>
      <trkpt lat="-27.4481500001755" lon="152.905738016658">        <ele>117.02130349992</ele>        <time></time>      </trkpt>
      <trkpt lat="-27.4480398230578" lon="152.9052519241">        <ele>116.957846628813</ele>        <time></time>      </trkpt>
      <trkpt lat="-27.4478615850777" lon="152.904786939713">        <ele>119.176230293815</ele>        <time></time>      </trkpt>
      <trkpt lat="-27.4477310066522" lon="152.904311139394">        <ele>122.986334207664</ele>        <time></time>      </trkpt>
      <trkpt lat="-27.4478311322643" lon="152.9038382078">        <ele>127.569338698185</ele>        <time></time>      </trkpt>
      <trkpt lat="-27.4477198826668" lon="152.903352002499">        <ele>131.562194105633</ele>        <time></time>      </trkpt>
      <trkpt lat="-27.4478588344916" lon="152.902882797233">        <ele>132.803692732038</ele>        <time></time>      </trkpt>
      <trkpt lat="-27.4479283317272" lon="152.902382154725">        <ele>132.722998855502</ele>        <time></time>      </trkpt>
      <trkpt lat="-27.4480151229622" lon="152.901884800023">        <ele>136.175683257968</ele>        <time></time>      </trkpt>
      <trkpt lat="-27.4481923915521" lon="152.901421086895">        <ele>142.863257207369</ele>        <time></time>      </trkpt>
      <trkpt lat="-27.4484138678611" lon="152.900979651255">        <ele>146.174570994935</ele>        <time></time>      </trkpt>
      <trkpt lat="-27.4486523032495" lon="152.900549237913">        <ele>150.877242814472</ele>        <time></time>      </trkpt>
      <trkpt lat="-27.4489503104846" lon="152.900177032912">        <ele>158.859588134918</ele>        <time></time>      </trkpt>
      <trkpt lat="-27.4493183746223" lon="152.899882744731">        <ele>165.118226176216</ele>        <time></time>      </trkpt>
      <trkpt lat="-27.4497143484362" lon="152.899644766854">        <ele>178.942342915098</ele>        <time></time>      </trkpt>
      <trkpt lat="-27.4501409823368" lon="152.899480449717">        <ele>190.327367082433</ele>        <time></time>      </trkpt>
      <trkpt lat="-27.4505872087361" lon="152.89941">        <ele>197.012823319177</ele>        <time></time>      </trkpt>
      <trkpt lat="-27.4510099154462" lon="152.899500672304">        <ele>204.827149674995</ele>        <time></time>      </trkpt>
      <trkpt lat="-27.4514273602327" lon="152.89931815997">        <ele>207.903237323737</ele>        <time></time>      </trkpt>
      <trkpt lat="-27.45175444354" lon="152.898991113269">        <ele>209.240144800906</ele>        <time></time>      </trkpt>
      <trkpt lat="-27.4519782273876" lon="152.898551414925">        <ele>207.832177559817</ele>        <time></time>      </trkpt>
      <trkpt lat="-27.4523175026534" lon="152.898219658971">        <ele>203.47525915141</ele>        <time></time>      </trkpt>
      <trkpt lat="-27.4527152702957" lon="152.898040853938">        <ele>203.026021560277</ele>        <time></time>      </trkpt>
      <trkpt lat="-27.4530065116631" lon="152.897657803629">        <ele>207.917185599243</ele>        <time></time>      </trkpt>
      <trkpt lat="-27.4532431216551" lon="152.897230161523">        <ele>206.90607037009</ele>        <time></time>      </trkpt>
      <trkpt lat="-27.4535300117923" lon="152.896838446681">        <ele>208.752163639836</ele>        <time></time>      </trkpt>
      <trkpt lat="-27.4537778759265" lon="152.896418618525">        <ele>212.980960942611</ele>        <time></time>      </trkpt>
      <trkpt lat="-27.4539717826612" lon="152.895960901336">        <ele>215.758927836791</ele>        <time></time>      </trkpt>
      <trkpt lat="-27.4541281988789" lon="152.895487774264">        <ele>217.534849995679</ele>        <time></time>      </trkpt>
      <trkpt lat="-27.4541745329875" lon="152.894985232695">        <ele>221.278840729736</ele>        <time></time>      </trkpt>
      <trkpt lat="-27.4541643795415" lon="152.894479766299">        <ele>221.597978435334</ele>        <time></time>      </trkpt>
      <trkpt lat="-27.4541223009208" lon="152.893983893777">        <ele>226.305812647601</ele>        <time></time>      </trkpt>
      <trkpt lat="-27.4541600000286" lon="152.893480715084">        <ele>238.682244989949</ele>        <time></time>      </trkpt>
      <trkpt lat="-27.4540867124983" lon="152.892981324928">        <ele>252.303586435903</ele>        <time></time>      </trkpt>
      <trkpt lat="-27.4541805485918" lon="152.892515008973">        <ele>260.58933917551</ele>        <time></time>      </trkpt>
      <trkpt lat="-27.4544821969079" lon="152.892138045697">        <ele>266.519195664957</ele>        <time></time>      </trkpt>
      <trkpt lat="-27.4547212056018" lon="152.891707830375">        <ele>265.363481729326</ele>        <time></time>      </trkpt>
      <trkpt lat="-27.4544272401323" lon="152.891500051564">        <ele>262.450730081812</ele>        <time></time>      </trkpt>
      <trkpt lat="-27.4540560649026" lon="152.891210660078">        <ele>260.512457072714</ele>        <time></time>      </trkpt>
      <trkpt lat="-27.4536783315003" lon="152.890932542582">        <ele>256.519852695144</ele>        <time></time>      </trkpt>
      <trkpt lat="-27.4532419922747" lon="152.890803886611">        <ele>257.036184530329</ele>        <time></time>      </trkpt>
      <trkpt lat="-27.4527961573511" lon="152.890772252033">        <ele>258.054978166534</ele>        <time></time>      </trkpt>
      <trkpt lat="-27.452372548843" lon="152.890938674605">        <ele>258.852424171797</ele>        <time></time>      </trkpt>
      <trkpt lat="-27.4521052461436" lon="152.891322513975">        <ele>254.131341480138</ele>        <time></time>      </trkpt>
      <trkpt lat="-27.4519438693978" lon="152.891792553668">        <ele>245.532313654604</ele>        <time></time>      </trkpt>
      <trkpt lat="-27.4515540282934" lon="152.891923927467">        <ele>242.825186509329</ele>        <time></time>      </trkpt>
      <trkpt lat="-27.4511340364671" lon="152.891736271585">        <ele>239.955141076934</ele>        <time></time>      </trkpt>
      <trkpt lat="-27.4507359534654" lon="152.89149623236">        <ele>234.659112553973</ele>        <time></time>      </trkpt>
      <trkpt lat="-27.4506294471349" lon="152.891071382725">        <ele>233.945034462729</ele>        <time></time>      </trkpt>
      <trkpt lat="-27.4508109291973" lon="152.890607920577">        <ele>237.303698776104</ele>        <time></time>      </trkpt>
      <trkpt lat="-27.4507698947098" lon="152.890110990964">        <ele>234.822686555994</ele>        <time></time>      </trkpt>
      <trkpt lat="-27.4506900001918" lon="152.889616089908">        <ele>233.751194208959</ele>        <time></time>      </trkpt>
      <trkpt lat="-27.450657501898" lon="152.88911313019">        <ele>232.045619072557</ele>        <time></time>      </trkpt>
      <trkpt lat="-27.4505019990492" lon="152.888637996177">        <ele>227.71500893211</ele>        <time></time>      </trkpt>
      <trkpt lat="-27.4505600000253" lon="152.888137565265">        <ele>227.665691700081</ele>        <time></time>      </trkpt>
      <trkpt lat="-27.4503960333413" lon="152.887670081856">        <ele>226.447478268687</ele>        <time></time>      </trkpt>
      <trkpt lat="-27.4502714676" lon="152.887191613787">        <ele>227.212421184094</ele>        <time></time>      </trkpt>
      <trkpt lat="-27.4503775247615" lon="152.886700827764">        <ele>225.288313941471</ele>        <time></time>      </trkpt>
      <trkpt lat="-27.4505629737923" lon="152.886238800314">        <ele>228.783802350659</ele>        <time></time>      </trkpt>
      <trkpt lat="-27.4507528779588" lon="152.885779163422">        <ele>236.211940790655</ele>        <time></time>      </trkpt>
      <trkpt lat="-27.4509199788614" lon="152.885308244064">        <ele>237.069165594322</ele>        <time></time>      </trkpt>
      <trkpt lat="-27.4510770038444" lon="152.884833371159">        <ele>239.969694721617</ele>        <time></time>      </trkpt>
      <trkpt lat="-27.4512275642409" lon="152.88435730737">        <ele>241.965344429246</ele>        <time></time>      </trkpt>
      <trkpt lat="-27.4513763818603" lon="152.883880436423">        <ele>242.924050821516</ele>        <time></time>      </trkpt>
      <trkpt lat="-27.4513861288897" lon="152.883375639594">        <ele>245.235352184809</ele>        <time></time>      </trkpt>
      <trkpt lat="-27.4512987929085" lon="152.882880056312">        <ele>249.422763672389</ele>        <time></time>      </trkpt>
      <trkpt lat="-27.4512113799187" lon="152.882384838286">        <ele>261.169358253948</ele>        <time></time>      </trkpt>
      <trkpt lat="-27.4510679531691" lon="152.881915932324">        <ele>266.717359325394</ele>        <time></time>      </trkpt>
      <trkpt lat="-27.4507721271596" lon="152.881532734908">        <ele>269.057959500477</ele>        <time></time>      </trkpt>
      <trkpt lat="-27.4505096726403" lon="152.88112144019">        <ele>269.037331328945</ele>        <time></time>      </trkpt>
      <trkpt lat="-27.4501216236797" lon="152.880891222521">        <ele>264.678076788325</ele>        <time></time>      </trkpt>
      <trkpt lat="-27.4496943229957" lon="152.8810205751">        <ele>251.085999992761</ele>        <time></time>      </trkpt>
      <trkpt lat="-27.4494536418805" lon="152.881348467408">        <ele>244.574269818242</ele>        <time></time>      </trkpt>
      <trkpt lat="-27.4492224497553" lon="152.881783714819">        <ele>236.559755528592</ele>        <time></time>      </trkpt>
      <trkpt lat="-27.4490481688437" lon="152.882249138201">        <ele>233.218825452386</ele>        <time></time>      </trkpt>
      <trkpt lat="-27.4488484989693" lon="152.882696951491">        <ele>237.286172285429</ele>        <time></time>      </trkpt>
      <trkpt lat="-27.4485292208049" lon="152.883052787212">        <ele>239.560064204408</ele>        <time></time>      </trkpt>
      <trkpt lat="-27.4481084548336" lon="152.883233289172">        <ele>237.613002598078</ele>        <time></time>      </trkpt>
      <trkpt lat="-27.4476816043666" lon="152.883393368961">        <ele>239.918542058594</ele>        <time></time>      </trkpt>
      <trkpt lat="-27.4474400000179" lon="152.883784159439">        <ele>244.614939686435</ele>        <time></time>      </trkpt>
      <trkpt lat="-27.4475170262628" lon="152.884279622794">        <ele>243.425746540632</ele>        <time></time>      </trkpt>
      <trkpt lat="-27.4476073911232" lon="152.884768697866">        <ele>241.068205916138</ele>        <time></time>      </trkpt>
      <trkpt lat="-27.4475477776733" lon="152.885270914155">        <ele>234.59320373868</ele>        <time></time>      </trkpt>
      <trkpt lat="-27.4474801620475" lon="152.885771944539">        <ele>231.925442342578</ele>        <time></time>      </trkpt>
      <trkpt lat="-27.447462770885" lon="152.886265257544">        <ele>223.870340567109</ele>        <time></time>      </trkpt>
      <trkpt lat="-27.4470382183361" lon="152.886341643647">        <ele>224.894167287871</ele>        <time></time>      </trkpt>
      <trkpt lat="-27.446605930638" lon="152.886422381015">        <ele>223.417975201064</ele>        <time></time>      </trkpt>
      <trkpt lat="-27.446235535462" lon="152.886712259396">        <ele>212.690656339897</ele>        <time></time>      </trkpt>
      <trkpt lat="-27.4458944360953" lon="152.887041491437">        <ele>206.572522460038</ele>        <time></time>      </trkpt>
      <trkpt lat="-27.4455092498288" lon="152.887290150035">        <ele>201.773482737254</ele>        <time></time>      </trkpt>
      <trkpt lat="-27.4450618484253" lon="152.88735">        <ele>193.612587767695</ele>        <time></time>      </trkpt>
      <trkpt lat="-27.4446374702366" lon="152.887479246718">        <ele>188.233474595645</ele>        <time></time>      </trkpt>
      <trkpt lat="-27.4443506643593" lon="152.887865877634">        <ele>182.700570960738</ele>        <time></time>      </trkpt>
      <trkpt lat="-27.4441031788265" lon="152.888287101561">        <ele>174.762099749236</ele>        <time></time>      </trkpt>
      <trkpt lat="-27.4438062083617" lon="152.888667763692">        <ele>165.539431352547</ele>        <time></time>      </trkpt>
      <trkpt lat="-27.4435823325125" lon="152.889103585609">        <ele>158.412571291067</ele>        <time></time>      </trkpt>
      <trkpt lat="-27.4432138114693" lon="152.889379164978">        <ele>152.110958609533</ele>        <time></time>      </trkpt>
      <trkpt lat="-27.4430835729953" lon="152.889856320967">        <ele>148.878152066894</ele>        <time></time>      </trkpt>
      <trkpt lat="-27.4429844048859" lon="152.890349854277">        <ele>142.688601946302</ele>        <time></time>      </trkpt>
      <trkpt lat="-27.442798440874" lon="152.89081174889">        <ele>136.209457454018</ele>        <time></time>      </trkpt>
      <trkpt lat="-27.4426094474955" lon="152.891272117067">        <ele>132.907961130153</ele>        <time></time>      </trkpt>
      <trkpt lat="-27.4423457681702" lon="152.891666057963">        <ele>128.837136185806</ele>        <time></time>      </trkpt>
      <trkpt lat="-27.4419463781089" lon="152.89149698134">        <ele>122.926216209578</ele>        <time></time>      </trkpt>
      <trkpt lat="-27.4415756790621" lon="152.891207654171">        <ele>116.558762717135</ele>        <time></time>      </trkpt>
      <trkpt lat="-27.4412030020607" lon="152.89092177084">        <ele>114.109563864325</ele>        <time></time>      </trkpt>
      <trkpt lat="-27.4407837908031" lon="152.890778912332">        <ele>111.749415784359</ele>        <time></time>      </trkpt>
      <trkpt lat="-27.4403465756541" lon="152.890670083234">        <ele>111.918774477374</ele>        <time></time>      </trkpt>
      <trkpt lat="-27.4399742119937" lon="152.890389028258">        <ele>118.735388797741</ele>        <time></time>      </trkpt>
      <trkpt lat="-27.4395414762262" lon="152.890308391372">        <ele>135.642135452739</ele>        <time></time>      </trkpt>
      <trkpt lat="-27.4392997776375" lon="152.890567979603">        <ele>145.017078593986</ele>        <time></time>      </trkpt>
      <trkpt lat="-27.4396155925823" lon="152.890908721773">        <ele>139.644975081015</ele>        <time></time>      </trkpt>
      <trkpt lat="-27.4394597743788" lon="152.891354089063">        <ele>151.566271627393</ele>        <time></time>      </trkpt>
      <trkpt lat="-27.43912623998" lon="152.891681583169">        <ele>160.915627149217</ele>        <time></time>      </trkpt>
      <trkpt lat="-27.4390686179385" lon="152.891927723578">        <ele>166.129938738442</ele>        <time></time>      </trkpt>
      <trkpt lat="-27.4394973319795" lon="152.892085295309">        <ele>162.210186622203</ele>        <time></time>      </trkpt>
      <trkpt lat="-27.4397541166458" lon="152.89245178433">        <ele>163.911192362468</ele>        <time></time>      </trkpt>
      <trkpt lat="-27.4398951836747" lon="152.892901391506">        <ele>167.74593540945</ele>        <time></time>      </trkpt>
      <trkpt lat="-27.4400214780842" lon="152.893265130331">        <ele>166.988741559757</ele>        <time></time>      </trkpt>
      <trkpt lat="-27.4396618609027" lon="152.892966391481">        <ele>175.224095173596</ele>        <time></time>      </trkpt>
      <trkpt lat="-27.4393167563117" lon="152.892649351261">        <ele>179.183518795052</ele>        <time></time>      </trkpt>
      <trkpt lat="-27.438873490151" lon="152.892688797834">        <ele>186.167576956788</ele>        <time></time>      </trkpt>
      <trkpt lat="-27.4384352326497" lon="152.89281335551">        <ele>195.907049504845</ele>        <time></time>      </trkpt>
      <trkpt lat="-27.4379953221302" lon="152.892927462845">        <ele>203.209527691772</ele>        <time></time>      </trkpt>
      <trkpt lat="-27.4375588900472" lon="152.892863492828">        <ele>207.044787149218</ele>        <time></time>      </trkpt>
      <trkpt lat="-27.4372060221041" lon="152.892549764453">        <ele>210.310183741984</ele>        <time></time>      </trkpt>
      <trkpt lat="-27.4368503835442" lon="152.892238306595">        <ele>212.831533928955</ele>        <time></time>      </trkpt>
      <trkpt lat="-27.4365258260059" lon="152.891888811466">        <ele>215.86211253815</ele>        <time></time>      </trkpt>
      <trkpt lat="-27.4362219945574" lon="152.891513571907">        <ele>226.875389359138</ele>        <time></time>      </trkpt>
      <trkpt lat="-27.4359376415263" lon="152.891120068013">        <ele>234.844341182486</ele>        <time></time>      </trkpt>
      <trkpt lat="-27.4356336678546" lon="152.890744951015">        <ele>236.987590953123</ele>        <time></time>      </trkpt>
      <trkpt lat="-27.4353109872047" lon="152.890390987035">        <ele>245.682575964304</ele>        <time></time>      </trkpt>
      <trkpt lat="-27.4349494359229" lon="152.890087548713">        <ele>259.72128027933</ele>        <time></time>      </trkpt>
      <trkpt lat="-27.4345147278582" lon="152.890093842412">        <ele>262.149613539203</ele>        <time></time>      </trkpt>
      <trkpt lat="-27.4340678715094" lon="152.890041246891">        <ele>273.984649811443</ele>        <time></time>      </trkpt>
      <trkpt lat="-27.4336230642495" lon="152.889988133693">        <ele>278.096360482195</ele>        <time></time>      </trkpt>
      <trkpt lat="-27.4332608050076" lon="152.89026919508">        <ele>277.1146619873</ele>        <time></time>      </trkpt>
      <trkpt lat="-27.432890000006" lon="152.890278977528">        <ele>283.122370467446</ele>        <time></time>      </trkpt>
      <trkpt lat="-27.4331077859801" lon="152.889848732888">        <ele>287.858685401539</ele>        <time></time>      </trkpt>
      <trkpt lat="-27.4332402727761" lon="152.889385409147">        <ele>288.744753541138</ele>        <time></time>      </trkpt>
      <trkpt lat="-27.4328958436536" lon="152.889065080142">        <ele>291.038811639601</ele>        <time></time>      </trkpt>
      <trkpt lat="-27.4325153406047" lon="152.888791385023">        <ele>291.845957493619</ele>        <time></time>      </trkpt>
      <trkpt lat="-27.4321583801782" lon="152.888481332651">        <ele>291.423902705649</ele>        <time></time>      </trkpt>
      <trkpt lat="-27.4318082260782" lon="152.888160769748">        <ele>290.924351779308</ele>        <time></time>      </trkpt>
      <trkpt lat="-27.4314534174686" lon="152.887846739478">        <ele>286.652608030321</ele>        <time></time>      </trkpt>
      <trkpt lat="-27.431103441957" lon="152.887526787973">        <ele>283.042181202028</ele>        <time></time>      </trkpt>
      <trkpt lat="-27.4308411915689" lon="152.887119234515">        <ele>278.754452259934</ele>        <time></time>      </trkpt>
      <trkpt lat="-27.430582858224" lon="152.886703380731">        <ele>278.544449014296</ele>        <time></time>      </trkpt>
      <trkpt lat="-27.4303498703309" lon="152.886269740312">        <ele>280.706387156818</ele>        <time></time>      </trkpt>
      <trkpt lat="-27.4302350093806" lon="152.885789764028">        <ele>283.010227995185</ele>        <time></time>      </trkpt>
      <trkpt lat="-27.4302544801374" lon="152.885283524982">        <ele>287.67815210384</ele>        <time></time>      </trkpt>
      <trkpt lat="-27.4303686370582" lon="152.884816355377">        <ele>290.452272079126</ele>        <time></time>      </trkpt>
      <trkpt lat="-27.4301996640409" lon="152.884348432175">        <ele>295.821416184309</ele>        <time></time>      </trkpt>
      <trkpt lat="-27.4300940856171" lon="152.883855732273">        <ele>296.449461229644</ele>        <time></time>      </trkpt>
      <trkpt lat="-27.4300006404924" lon="152.883361332018">        <ele>290.273370663172</ele>        <time></time>      </trkpt>
      <trkpt lat="-27.4300073072617" lon="152.882854679115">        <ele>288.881315027176</ele>        <time></time>      </trkpt>
      <trkpt lat="-27.4300271535274" lon="152.882348605808">        <ele>283.794655470384</ele>        <time></time>      </trkpt>
      <trkpt lat="-27.4300559323222" lon="152.881842925177">        <ele>284.984059287779</ele>        <time></time>      </trkpt>
      <trkpt lat="-27.4300800002341" lon="152.881337076167">        <ele>288.840679148734</ele>        <time></time>      </trkpt>
      <trkpt lat="-27.430080000593" lon="152.880830367857">        <ele>290.032743130271</ele>        <time></time>      </trkpt>
      <trkpt lat="-27.4300480725983" lon="152.88032650579">        <ele>295.144818064973</ele>        <time></time>      </trkpt>
      <trkpt lat="-27.4300120234503" lon="152.879828236266">        <ele>301.7248677697</ele>        <time></time>      </trkpt>
      <trkpt lat="-27.4300897876931" lon="152.879339150666">        <ele>308.254979681921</ele>        <time></time>      </trkpt>
      <trkpt lat="-27.4299822496833" lon="152.878847387244">        <ele>314.232701776806</ele>        <time></time>      </trkpt>
      <trkpt lat="-27.4296798400653" lon="152.878540955778">        <ele>320.07679616218</ele>        <time></time>      </trkpt>
      <trkpt lat="-27.4294868636992" lon="152.878146953822">        <ele>318.984937142362</ele>        <time></time>      </trkpt>
      <trkpt lat="-27.4293439872311" lon="152.877671357903">        <ele>322.220528828489</ele>        <time></time>      </trkpt>
      <trkpt lat="-27.4294015714125" lon="152.877220612342">        <ele>315.973264108728</ele>        <time></time>      </trkpt>
      <trkpt lat="-27.4296539006289" lon="152.876800342457">        <ele>306.474850603525</ele>        <time></time>      </trkpt>
      <trkpt lat="-27.4295801849751" lon="152.876303851855">        <ele>296.29874133063</ele>        <time></time>      </trkpt>
      <trkpt lat="-27.4295789200957" lon="152.8758018791">        <ele>282.11455874186</ele>        <time></time>      </trkpt>
      <trkpt lat="-27.4297682640803" lon="152.875342513521">        <ele>272.858020949119</ele>        <time></time>      </trkpt>
      <trkpt lat="-27.4296878775013" lon="152.874991698003">        <ele>266.713416264818</ele>        <time></time>      </trkpt>
      <trkpt lat="-27.4293071604406" lon="152.875263486751">        <ele>267.191306921323</ele>        <time></time>      </trkpt>
      <trkpt lat="-27.4288762349665" lon="152.875281948424">        <ele>265.493625775814</ele>        <time></time>      </trkpt>
      <trkpt lat="-27.4287012877733" lon="152.874821905321">        <ele>258.240976209072</ele>        <time></time>      </trkpt>
      <trkpt lat="-27.4283906557108" lon="152.874529781444">        <ele>250.09679060944</ele>        <time></time>      </trkpt>
      <trkpt lat="-27.4279704744988" lon="152.874705766437">        <ele>259.309558753773</ele>        <time></time>      </trkpt>
      <trkpt lat="-27.4276411589272" lon="152.874387066547">        <ele>255.171966980832</ele>        <time></time>      </trkpt>
      <trkpt lat="-27.4276747512908" lon="152.873891402817">        <ele>238.953261513352</ele>        <time></time>      </trkpt>
      <trkpt lat="-27.4278612393748" lon="152.873440415974">        <ele>228.222315959989</ele>        <time></time>      </trkpt>
      <trkpt lat="-27.4282087407255" lon="152.873118477445">        <ele>223.541052623904</ele>        <time></time>      </trkpt>
      <trkpt lat="-27.4285902007753" lon="152.872859732486">        <ele>213.649343193909</ele>        <time></time>      </trkpt>
      <trkpt lat="-27.4288548331175" lon="152.872450598676">        <ele>208.082559462833</ele>        <time></time>      </trkpt>
      <trkpt lat="-27.4291547327016" lon="152.872074675994">        <ele>201.760911294505</ele>        <time></time>      </trkpt>
      <trkpt lat="-27.4295477560762" lon="152.871838029918">        <ele>193.762276377433</ele>        <time></time>      </trkpt>
      <trkpt lat="-27.4299297137713" lon="152.871572588888">        <ele>180.750764152915</ele>        <time></time>      </trkpt>
      <trkpt lat="-27.4303385435575" lon="152.871419791924">        <ele>175.965735614121</ele>        <time></time>      </trkpt>
      <trkpt lat="-27.4307735305211" lon="152.871542839342">        <ele>175.707393125683</ele>        <time></time>      </trkpt>
      <trkpt lat="-27.4312193372893" lon="152.871618470916">        <ele>171.999509808653</ele>        <time></time>      </trkpt>
      <trkpt lat="-27.4316467658627" lon="152.871767309076">        <ele>170.935017201233</ele>        <time></time>      </trkpt>
      <trkpt lat="-27.4320649856016" lon="152.871959824058">        <ele>167.821303636421</ele>        <time></time>      </trkpt>
      <trkpt lat="-27.4324857553807" lon="152.872145247886">        <ele>163.175555953993</ele>        <time></time>      </trkpt>
      <trkpt lat="-27.4329005615568" lon="152.872072678197">        <ele>158.571830569787</ele>        <time></time>      </trkpt>
      <trkpt lat="-27.4333395367019" lon="152.872090922607">        <ele>154.030385752187</ele>        <time></time>      </trkpt>
      <trkpt lat="-27.4337884230536" lon="152.872139904427">        <ele>152.058636826386</ele>        <time></time>      </trkpt>
      <trkpt lat="-27.4342344496216" lon="152.872213384069">        <ele>151.302611597882</ele>        <time></time>      </trkpt>
      <trkpt lat="-27.4346731074766" lon="152.872320273528">        <ele>148.768067399603</ele>        <time></time>      </trkpt>
      <trkpt lat="-27.4350550244934" lon="152.872122798545">        <ele>153.177505167277</ele>        <time></time>      </trkpt>
      <trkpt lat="-27.4353899815039" lon="152.871782439068">        <ele>160.750567878773</ele>        <time></time>      </trkpt>
      <trkpt lat="-27.4357034250668" lon="152.871418508758">        <ele>166.996316401189</ele>        <time></time>      </trkpt>
      <trkpt lat="-27.4357518016859" lon="152.870916742164">        <ele>171.326336066435</ele>        <time></time>      </trkpt>
      <trkpt lat="-27.4357400514263" lon="152.870411054208">        <ele>174.08167217877</ele>        <time></time>      </trkpt>
      <trkpt lat="-27.4357120079572" lon="152.869918665784">        <ele>177.492139516465</ele>        <time></time>      </trkpt>
      <trkpt lat="-27.4361047748739" lon="152.869695075047">        <ele>175.595544644014</ele>        <time></time>      </trkpt>
      <trkpt lat="-27.4362317788874" lon="152.869343780128">        <ele>178.786636511376</ele>        <time></time>      </trkpt>
      <trkpt lat="-27.4364577129832" lon="152.868970784725">        <ele>180.100535432934</ele>        <time></time>      </trkpt>
      <trkpt lat="-27.4365304227486" lon="152.868702376728">        <ele>179.055224685393</ele>        <time></time>      </trkpt>
      <trkpt lat="-27.4369204862469" lon="152.868833326516">        <ele>170.714914783881</ele>        <time></time>      </trkpt>
      <trkpt lat="-27.4373459868314" lon="152.868910412153">        <ele>162.382793391917</ele>        <time></time>      </trkpt>
      <trkpt lat="-27.4377575103194" lon="152.868720674231">        <ele>159.464121011945</ele>        <time></time>      </trkpt>
      <trkpt lat="-27.4380611331537" lon="152.868362475225">        <ele>156.026173296006</ele>        <time></time>      </trkpt>
      <trkpt lat="-27.4382219786466" lon="152.867903347371">        <ele>152.0947181804</ele>        <time></time>      </trkpt>
      <trkpt lat="-27.4383554039096" lon="152.867429223689">        <ele>157.356561201157</ele>        <time></time>      </trkpt>
      <trkpt lat="-27.438619343979" lon="152.867017787591">        <ele>169.065347742584</ele>        <time></time>      </trkpt>
      <trkpt lat="-27.4386077222017" lon="152.866525260481">        <ele>175.939894312594</ele>        <time></time>      </trkpt>
      <trkpt lat="-27.4384974902215" lon="152.866033805416">        <ele>185.73970559181</ele>        <time></time>      </trkpt>
      <trkpt lat="-27.4383872565099" lon="152.865542351335">        <ele>194.593526770136</ele>        <time></time>      </trkpt>
      <trkpt lat="-27.4384192780682" lon="152.865038663361">        <ele>198.764842040988</ele>        <time></time>      </trkpt>
      <trkpt lat="-27.4387257803614" lon="152.864668623895">        <ele>197.50943720613</ele>        <time></time>      </trkpt>
      <trkpt lat="-27.4390647416028" lon="152.864335752369">        <ele>203.467542740027</ele>        <time></time>      </trkpt>
      <trkpt lat="-27.4394444891966" lon="152.864073363679">        <ele>217.591368381093</ele>        <time></time>      </trkpt>
      <trkpt lat="-27.4398792448775" lon="152.863934241975">        <ele>229.387947338799</ele>        <time></time>      </trkpt>
      <trkpt lat="-27.4403232467539" lon="152.863862024725">        <ele>234.390453825916</ele>        <time></time>      </trkpt>
      <trkpt lat="-27.4407695422647" lon="152.863884273927">        <ele>241.121940757174</ele>        <time></time>      </trkpt>
      <trkpt lat="-27.4411915585358" lon="152.864066117192">        <ele>251.591359437073</ele>        <time></time>      </trkpt>
      <trkpt lat="-27.4416135745491" lon="152.864247961834">        <ele>260.325346530555</ele>        <time></time>      </trkpt>
      <trkpt lat="-27.4420438100898" lon="152.864377052162">        <ele>267.201839845674</ele>        <time></time>      </trkpt>
      <trkpt lat="-27.442495835845" lon="152.864366289659">        <ele>268.533577189605</ele>        <time></time>      </trkpt>
      <trkpt lat="-27.4429366409799" lon="152.864288179455">        <ele>266.098229470027</ele>        <time></time>      </trkpt>
      <trkpt lat="-27.4433616679447" lon="152.864115366515">        <ele>267.12003996582</ele>        <time></time>      </trkpt>
      <trkpt lat="-27.4437203140945" lon="152.864114757696">        <ele>269.696434415145</ele>        <time></time>      </trkpt>
      <trkpt lat="-27.4440230392156" lon="152.864489985862">        <ele>270.214588112367</ele>        <time></time>      </trkpt>
      <trkpt lat="-27.4441690150746" lon="152.864969617896">        <ele>275.606702206429</ele>        <time></time>      </trkpt>
      <trkpt lat="-27.4443328501766" lon="152.865436772268">        <ele>280.085272108425</ele>        <time></time>      </trkpt>
      <trkpt lat="-27.4446527618259" lon="152.865794880944">        <ele>275.952767402544</ele>        <time></time>      </trkpt>
      <trkpt lat="-27.4449730459488" lon="152.866152503499">        <ele>273.458107952716</ele>        <time></time>      </trkpt>
      <trkpt lat="-27.4453376528882" lon="152.8664521792">        <ele>274.655768560352</ele>        <time></time>      </trkpt>
      <trkpt lat="-27.4457020684841" lon="152.866752117722">        <ele>270.813568230766</ele>        <time></time>      </trkpt>
      <trkpt lat="-27.4460358991862" lon="152.867093896415">        <ele>261.112899708606</ele>        <time></time>      </trkpt>
      <trkpt lat="-27.4462199207119" lon="152.86754206164">        <ele>250.475302268992</ele>        <time></time>      </trkpt>
      <trkpt lat="-27.4462004476834" lon="152.868048373165">        <ele>252.751396353256</ele>        <time></time>      </trkpt>
      <trkpt lat="-27.4462215375712" lon="152.868552227497">        <ele>251.55266134554</ele>        <time></time>      </trkpt>
      <trkpt lat="-27.4462895758033" lon="152.86905323845">        <ele>254.767932773693</ele>        <time></time>      </trkpt>
      <trkpt lat="-27.4463696868095" lon="152.869522223964">        <ele>257.861239959248</ele>        <time></time>      </trkpt>
      <trkpt lat="-27.4468100233815" lon="152.869560007771">        <ele>259.942580363295</ele>        <time></time>      </trkpt>
      <trkpt lat="-27.4472166712418" lon="152.869767454474">        <ele>258.172148152827</ele>        <time></time>      </trkpt>
      <trkpt lat="-27.4475415021911" lon="152.870119869945">        <ele>264.258353600745</ele>        <time></time>      </trkpt>
      <trkpt lat="-27.4479160805581" lon="152.870402819965">        <ele>269.572056057911</ele>        <time></time>      </trkpt>
      <trkpt lat="-27.448293693139" lon="152.870681534778">        <ele>272.180902818216</ele>        <time></time>      </trkpt>
      <trkpt lat="-27.4485663831663" lon="152.871070595214">        <ele>263.904220149275</ele>        <time></time>      </trkpt>
      <trkpt lat="-27.4487453779461" lon="152.871535981204">        <ele>260.303920604783</ele>        <time></time>      </trkpt>
      <trkpt lat="-27.4487732336505" lon="152.872018682245">        <ele>262.119871665279</ele>        <time></time>      </trkpt>
      <trkpt lat="-27.44851" lon="152.87243">        <ele>257.290699712833</ele>        <time></time>      </trkpt>
      <trkpt lat="-27.44851" lon="152.87243">        <ele>257.069897408064</ele>        <time></time>      </trkpt>
      <trkpt lat="-27.4483000699939" lon="152.872879018679">        <ele>246.729699878</ele>        <time></time>      </trkpt>
      <trkpt lat="-27.4481048636181" lon="152.873335409341">        <ele>240.838476973628</ele>        <time></time>      </trkpt>
      <trkpt lat="-27.4480433160816" lon="152.873820744095">        <ele>231.873569320941</ele>        <time></time>      </trkpt>
      <trkpt lat="-27.4481651851679" lon="152.874304629532">        <ele>223.594278059975</ele>        <time></time>      </trkpt>
      <trkpt lat="-27.4483931539531" lon="152.874736583346">        <ele>223.202544333595</ele>        <time></time>      </trkpt>
      <trkpt lat="-27.4485227288205" lon="152.875219865974">        <ele>225.627312147842</ele>        <time></time>      </trkpt>
      <trkpt lat="-27.4486305489048" lon="152.875710806009">        <ele>228.067069953264</ele>        <time></time>      </trkpt>
      <trkpt lat="-27.4488070086096" lon="152.876177569235">        <ele>233.725593724276</ele>        <time></time>      </trkpt>
      <trkpt lat="-27.4490245906283" lon="152.876617477839">        <ele>241.536446545363</ele>        <time></time>      </trkpt>
      <trkpt lat="-27.4492998217512" lon="152.877019739481">        <ele>247.910912696682</ele>        <time></time>      </trkpt>
      <trkpt lat="-27.4494751395109" lon="152.877487034259">        <ele>249.789791065113</ele>        <time></time>      </trkpt>
      <trkpt lat="-27.449650390955" lon="152.877954372663">        <ele>252.036051280543</ele>        <time></time>      </trkpt>
      <trkpt lat="-27.4497836764323" lon="152.878435526937">        <ele>254.42506900634</ele>        <time></time>      </trkpt>
      <trkpt lat="-27.4498512460577" lon="152.87893600063">        <ele>258.533237522208</ele>        <time></time>      </trkpt>
      <trkpt lat="-27.4498595551868" lon="152.879442862928">        <ele>261.70100196347</ele>        <time></time>      </trkpt>
      <trkpt lat="-27.449860000052" lon="152.87994980624">        <ele>266.273291115536</ele>        <time></time>      </trkpt>
      <trkpt lat="-27.4497263000792" lon="152.880431713835">        <ele>260.032496564134</ele>        <time></time>      </trkpt>
      <trkpt lat="-27.4495673468963" lon="152.880860195478">        <ele>250.814790762957</ele>        <time></time>      </trkpt>
      <trkpt lat="-27.4497409937409" lon="152.880392104671">        <ele>260.871286036803</ele>        <time></time>      </trkpt>
      <trkpt lat="-27.4498805527162" lon="152.880049365211">        <ele>267.954272463029</ele>        <time></time>      </trkpt>
      <trkpt lat="-27.4499785585422" lon="152.880533145602">        <ele>267.974233717027</ele>        <time></time>      </trkpt>
      <trkpt lat="-27.450320849158" lon="152.880854793764">        <ele>270.997031663863</ele>        <time></time>      </trkpt>
      <trkpt lat="-27.4505997807128" lon="152.881253393301">        <ele>268.560493553734</ele>        <time></time>      </trkpt>
      <trkpt lat="-27.4508702031995" lon="152.881658832338">        <ele>268.58265536309</ele>        <time></time>      </trkpt>
      <trkpt lat="-27.451150388341" lon="152.882053762061">        <ele>265.929418539777</ele>        <time></time>      </trkpt>
      <trkpt lat="-27.4512227379328" lon="152.882551733939">        <ele>257.279353352432</ele>        <time></time>      </trkpt>
      <trkpt lat="-27.4513345475882" lon="152.883042938243">        <ele>247.381066211308</ele>        <time></time>      </trkpt>
      <trkpt lat="-27.4513943064102" lon="152.883543278875">        <ele>244.149107060853</ele>        <time></time>      </trkpt>
      <trkpt lat="-27.4513352481149" lon="152.884040780725">        <ele>243</ele>        <time></time>      </trkpt>
      <trkpt lat="-27.451164757602" lon="152.884509356687">        <ele>241.355694817284</ele>        <time></time>      </trkpt>
      <trkpt lat="-27.451031575671" lon="152.884993741578">        <ele>239.566239717875</ele>        <time></time>      </trkpt>
      <trkpt lat="-27.4508644266284" lon="152.88546480056">        <ele>236.514895026134</ele>        <time></time>      </trkpt>
      <trkpt lat="-27.4506949404563" lon="152.885934702637">        <ele>233.747928194918</ele>        <time></time>      </trkpt>
      <trkpt lat="-27.4504971071626" lon="152.886390579384">        <ele>227.414347060187</ele>        <time></time>      </trkpt>
      <trkpt lat="-27.4503294887869" lon="152.886860064526">        <ele>224.944119658325</ele>        <time></time>      </trkpt>
      <trkpt lat="-27.4502789014323" lon="152.887360225575">        <ele>227.209818414316</ele>        <time></time>      </trkpt>
      <trkpt lat="-27.4504578012612" lon="152.887824501723">        <ele>226.04918699433</ele>        <time></time>      </trkpt>
      <trkpt lat="-27.4505525098957" lon="152.888306189329">        <ele>228.806021174848</ele>        <time></time>      </trkpt>
      <trkpt lat="-27.4505439299603" lon="152.888800807345">        <ele>228.518644375808</ele>        <time></time>      </trkpt>
      <trkpt lat="-27.4506880900073" lon="152.88927917667">        <ele>233.229151779293</ele>        <time></time>      </trkpt>
      <trkpt lat="-27.4506913790945" lon="152.889785713335">        <ele>233.244718988715</ele>        <time></time>      </trkpt>
      <trkpt lat="-27.4508094996955" lon="152.89027506945">        <ele>235.688943572965</ele>        <time></time>      </trkpt>
      <trkpt lat="-27.4507523305299" lon="152.890764174414">        <ele>236.717643087444</ele>        <time></time>      </trkpt>
      <trkpt lat="-27.4505900000007" lon="152.891232199913">        <ele>233.052977635606</ele>        <time></time>      </trkpt>
      <trkpt lat="-27.4508695647711" lon="152.891577560833">        <ele>236.293281708723</ele>        <time></time>      </trkpt>
      <trkpt lat="-27.4512753936039" lon="152.891799430971">        <ele>241.933788994225</ele>        <time></time>      </trkpt>
      <trkpt lat="-27.4517028823967" lon="152.891954110294">        <ele>242.687039420028</ele>        <time></time>      </trkpt>
      <trkpt lat="-27.4520097226442" lon="152.891640925249">        <ele>247.942401971067</ele>        <time></time>      </trkpt>
      <trkpt lat="-27.4521538772699" lon="152.891160409274">        <ele>257.213536652183</ele>        <time></time>      </trkpt>
      <trkpt lat="-27.4525110749497" lon="152.890866641107">        <ele>259.394233312735</ele>        <time></time>      </trkpt>
      <trkpt lat="-27.4529469615175" lon="152.890754269222">        <ele>257.584840204105</ele>        <time></time>      </trkpt>
      <trkpt lat="-27.4533904731842" lon="152.890845131252">        <ele>256.651711720992</ele>        <time></time>      </trkpt>
      <trkpt lat="-27.453809015768" lon="152.891021958112">        <ele>257.567505219327</ele>        <time></time>      </trkpt>
      <trkpt lat="-27.4541818662673" lon="152.891308742441">        <ele>261.445736454627</ele>        <time></time>      </trkpt>
      <trkpt lat="-27.4545721113216" lon="152.891554037025">        <ele>263.309288756191</ele>        <time></time>      </trkpt>
      <trkpt lat="-27.4550152730533" lon="152.89163816837">        <ele>265.819445103083</ele>        <time></time>      </trkpt>
      <trkpt lat="-27.4552746898076" lon="152.891286551568">        <ele>263.548060851108</ele>        <time></time>      </trkpt>
      <trkpt lat="-27.4554472717492" lon="152.890826364986">        <ele>259.370717888653</ele>        <time></time>      </trkpt>
      <trkpt lat="-27.4557589455473" lon="152.890459256931">        <ele>253.66681666661</ele>        <time></time>      </trkpt>
      <trkpt lat="-27.456098368782" lon="152.890125673883">        <ele>251.078039475314</ele>        <time></time>      </trkpt>
      <trkpt lat="-27.4565150119191" lon="152.889996252972">        <ele>249.449096612014</ele>        <time></time>      </trkpt>
      <trkpt lat="-27.4568463193009" lon="152.89032311793">        <ele>244.815582051794</ele>        <time></time>      </trkpt>
      <trkpt lat="-27.4571269560812" lon="152.890720687176">        <ele>241.368221175144</ele>        <time></time>      </trkpt>
      <trkpt lat="-27.4574167299319" lon="152.891109868237">        <ele>241.458512553233</ele>        <time></time>      </trkpt>
      <trkpt lat="-27.4576165430192" lon="152.891555949095">        <ele>239.08453975397</ele>        <time></time>      </trkpt>
      <trkpt lat="-27.4576604204532" lon="152.892059120937">        <ele>239.895565847786</ele>        <time></time>      </trkpt>
      <trkpt lat="-27.4576774971791" lon="152.892565743178">        <ele>237.96062342221</ele>        <time></time>      </trkpt>
      <trkpt lat="-27.4576042400236" lon="152.89306425712">        <ele>228.115604645374</ele>        <time></time>      </trkpt>
      <trkpt lat="-27.4574811438193" lon="152.893551491922">        <ele>223.622374240652</ele>        <time></time>      </trkpt>
      <trkpt lat="-27.4573451532616" lon="152.894035012226">        <ele>212.838445606624</ele>        <time></time>      </trkpt>
      <trkpt lat="-27.4572003505622" lon="152.894515266513">        <ele>209.708321080404</ele>        <time></time>      </trkpt>
      <trkpt lat="-27.4570559369409" lon="152.894995394256">        <ele>212.149289165594</ele>        <time></time>      </trkpt>
      <trkpt lat="-27.4570292020646" lon="152.895498511522">        <ele>214.870266793531</ele>        <time></time>      </trkpt>
      <trkpt lat="-27.4569819331498" lon="152.896002715624">        <ele>215.038186432218</ele>        <time></time>      </trkpt>
      <trkpt lat="-27.4570155118308" lon="152.896500393534">        <ele>219.973236389788</ele>        <time></time>      </trkpt>
      <trkpt lat="-27.4571994246364" lon="152.896963559949">        <ele>220.08894332175</ele>        <time></time>      </trkpt>
      <trkpt lat="-27.4573844660248" lon="152.897426164934">        <ele>218.712575044076</ele>        <time></time>      </trkpt>
      <trkpt lat="-27.4576070897972" lon="152.897865634611">        <ele>223.394567362298</ele>        <time></time>      </trkpt>
      <trkpt lat="-27.4579272864511" lon="152.898221916233">        <ele>224.994873664258</ele>        <time></time>      </trkpt>
      <trkpt lat="-27.4582066389338" lon="152.898618473772">        <ele>222.428553011367</ele>        <time></time>      </trkpt>
      <trkpt lat="-27.4584233466704" lon="152.899063180978">        <ele>217.97517859102</ele>        <time></time>      </trkpt>
      <trkpt lat="-27.4586503579729" lon="152.899500091131">        <ele>215.755791205159</ele>        <time></time>      </trkpt>
      <trkpt lat="-27.4587694514924" lon="152.899985109366">        <ele>217.441717184632</ele>        <time></time>      </trkpt>
      <trkpt lat="-27.4587615311203" lon="152.900492020506">        <ele>219.19763676698</ele>        <time></time>      </trkpt>
      <trkpt lat="-27.4587009366892" lon="152.900993599357">        <ele>218.276025430564</ele>        <time></time>      </trkpt>
      <trkpt lat="-27.4585723952947" lon="152.901476466056">        <ele>211.465016353355</ele>        <time></time>      </trkpt>
      <trkpt lat="-27.4588598916206" lon="152.901842042134">        <ele>213.405763072958</ele>        <time></time>      </trkpt>
      <trkpt lat="-27.4590542372783" lon="152.902292957953">        <ele>209.864800385823</ele>        <time></time>      </trkpt>
      <trkpt lat="-27.4591056275779" lon="152.902792872037">        <ele>205.864347027855</ele>        <time></time>      </trkpt>
      <trkpt lat="-27.4590458011691" lon="152.903293218733">        <ele>202.181048874737</ele>        <time></time>      </trkpt>
      <trkpt lat="-27.4589282757465" lon="152.903782365917">        <ele>193.942296735281</ele>        <time></time>      </trkpt>
      <trkpt lat="-27.4587319359772" lon="152.904235591422">        <ele>187.564476878659</ele>        <time></time>      </trkpt>
      <trkpt lat="-27.4585019152465" lon="152.904672076505">        <ele>184.914169491106</ele>        <time></time>      </trkpt>
      <trkpt lat="-27.4582260621236" lon="152.905063222013">        <ele>189.864428061406</ele>        <time></time>      </trkpt>
      <trkpt lat="-27.4578468081929" lon="152.905336789597">        <ele>192.956011850001</ele>        <time></time>      </trkpt>
      <trkpt lat="-27.4574938718344" lon="152.905632042755">        <ele>198.685359502538</ele>        <time></time>      </trkpt>
      <trkpt lat="-27.4570692785392" lon="152.905522590184">        <ele>196.620924533081</ele>        <time></time>      </trkpt>
      <trkpt lat="-27.4567696069414" lon="152.905854950325">        <ele>198.041337904907</ele>        <time></time>      </trkpt>
      <trkpt lat="-27.4568374774161" lon="152.906302474938">        <ele>197.714979898418</ele>        <time></time>      </trkpt>
      <trkpt lat="-27.4570426132744" lon="152.906731009438">        <ele>199.01759711268</ele>        <time></time>      </trkpt>
      <trkpt lat="-27.4569659817118" lon="152.907221390299">        <ele>191.091215633364</ele>        <time></time>      </trkpt>
      <trkpt lat="-27.4567221410953" lon="152.907647759022">        <ele>176.889996669927</ele>        <time></time>      </trkpt>
      <trkpt lat="-27.4564947008438" lon="152.908085319561">        <ele>170.153113650713</ele>        <time></time>      </trkpt>
      <trkpt lat="-27.4562838905395" lon="152.908533852449">        <ele>168.973772960313</ele>        <time></time>      </trkpt>
      <trkpt lat="-27.4561222907772" lon="152.908998980397">        <ele>165.885746465821</ele>        <time></time>      </trkpt>
      <trkpt lat="-27.456182925333" lon="152.909501380389">        <ele>162.55453429361</ele>        <time></time>      </trkpt>
      <trkpt lat="-27.4562314354142" lon="152.910005408323">        <ele>161.610516023199</ele>        <time></time>      </trkpt>
      <trkpt lat="-27.4562783423719" lon="152.91050965166">        <ele>159.111318883196</ele>        <time></time>      </trkpt>
      <trkpt lat="-27.4563252475051" lon="152.911013895429">        <ele>160.708467987303</ele>        <time></time>      </trkpt>
      <trkpt lat="-27.4563424047134" lon="152.911519279216">        <ele>163.06134343377</ele>        <time></time>      </trkpt>
      <trkpt lat="-27.4563263208587" lon="152.912025936422">        <ele>160.607629274172</ele>        <time></time>      </trkpt>
      <trkpt lat="-27.4563102351608" lon="152.912532593487">        <ele>156.490861289544</ele>        <time></time>      </trkpt>
      <trkpt lat="-27.4563177454671" lon="152.913039491162">        <ele>155.143987480309</ele>        <time></time>      </trkpt>
      <trkpt lat="-27.4563256040093" lon="152.913546392485">        <ele>157</ele>        <time></time>      </trkpt>
      <trkpt lat="-27.4563981788899" lon="152.914036813055">        <ele>158.320262985432</ele>        <time></time>      </trkpt>
      <trkpt lat="-27.4560209244414" lon="152.91404">        <ele>158.767009593649</ele>        <time></time>      </trkpt>
      <trkpt lat="-27.4555727007197" lon="152.913972483077">        <ele>154.202840273481</ele>        <time></time>      </trkpt>
      <trkpt lat="-27.4551216069092" lon="152.913940264622">        <ele>149.176082780174</ele>        <time></time>      </trkpt>
      <trkpt lat="-27.4546733809866" lon="152.913885163015">        <ele>147.926727277624</ele>        <time></time>      </trkpt>
      <trkpt lat="-27.4543118425349" lon="152.913583830623">        <ele>147.70470761809</ele>        <time></time>      </trkpt>
      <trkpt lat="-27.4539503101438" lon="152.913286382186">        <ele>148.589961072985</ele>        <time></time>      </trkpt>
      <trkpt lat="-27.4535410794533" lon="152.913074431519">        <ele>144.46040893722</ele>        <time></time>      </trkpt>
      <trkpt lat="-27.4531114426687" lon="152.912922520986">        <ele>143.907557021714</ele>        <time></time>      </trkpt>
      <trkpt lat="-27.4526613085178" lon="152.912873415459">        <ele>141.722485687454</ele>        <time></time>      </trkpt>
      <trkpt lat="-27.4522091956271" lon="152.912870000001">        <ele>137.782700667942</ele>        <time></time>      </trkpt>
      <trkpt lat="-27.4517572024435" lon="152.912883795019">        <ele>132.591043664091</ele>        <time></time>      </trkpt>
      <trkpt lat="-27.4513051616936" lon="152.912899023289">        <ele>132.89422960524</ele>        <time></time>      </trkpt>
      <trkpt lat="-27.4508610324798" lon="152.912808190896">        <ele>130.956015368965</ele>        <time></time>      </trkpt>
      <trkpt lat="-27.4504713366783" lon="152.912568890226">        <ele>125.776941275906</ele>        <time></time>      </trkpt>
      <trkpt lat="-27.4500494704899" lon="152.912386236909">        <ele>122.265228415004</ele>        <time></time>      </trkpt>
      <trkpt lat="-27.4496531200952" lon="152.912143434157">        <ele>116.243621141572</ele>        <time></time>      </trkpt>
      <trkpt lat="-27.4492222904372" lon="152.9121662403">        <ele>110.371201145233</ele>        <time></time>      </trkpt>
      <trkpt lat="-27.4487966018656" lon="152.912257811258">        <ele>105.579617716691</ele>        <time></time>      </trkpt>
      <trkpt lat="-27.448447895027" lon="152.912549972108">        <ele>99.5872258774684</ele>        <time></time>      </trkpt>
      <trkpt lat="-27.4482843226022" lon="152.913015548637">        <ele>96.9659598002576</ele>        <time></time>      </trkpt>
      <trkpt lat="-27.4480763885932" lon="152.913460320914">        <ele>93.3192391843225</ele>        <time></time>      </trkpt>
      <trkpt lat="-27.4478514348684" lon="152.913893584036">        <ele>93.265422281061</ele>        <time></time>      </trkpt>
      <trkpt lat="-27.4476535476186" lon="152.914349234058">        <ele>91.8900146230014</ele>        <time></time>      </trkpt>
      <trkpt lat="-27.447431461828" lon="152.914790542315">        <ele>89.6159185987073</ele>        <time></time>      </trkpt>
      <trkpt lat="-27.4472285487406" lon="152.915241491953">        <ele>89.704553198745</ele>        <time></time>      </trkpt>
      <trkpt lat="-27.4471153873614" lon="152.91572451126">        <ele>89.9392889986228</ele>        <time></time>      </trkpt>
      <trkpt lat="-27.4472655978046" lon="152.916173396449">        <ele>95.4073805742906</ele>        <time></time>      </trkpt>
      <trkpt lat="-27.4476502732309" lon="152.916404767733">        <ele>99.4761745821828</ele>        <time></time>      </trkpt>
      <trkpt lat="-27.4479820912944" lon="152.916734457184">        <ele>97.2339531050241</ele>        <time></time>      </trkpt>
      <trkpt lat="-27.4484026768615" lon="152.916906217506">        <ele>91.1187039501239</ele>        <time></time>      </trkpt>
      <trkpt lat="-27.4488415229919" lon="152.916892119308">        <ele>87.1813488786852</ele>        <time></time>      </trkpt>
      <trkpt lat="-27.4492621840209" lon="152.917030159792">        <ele>89.3843590528666</ele>        <time></time>      </trkpt>
      <trkpt lat="-27.4496214441468" lon="152.917315258731">        <ele>96.4747143363086</ele>        <time></time>      </trkpt>
      <trkpt lat="-27.4495504208118" lon="152.917759392162">        <ele>95.7279556803306</ele>        <time></time>      </trkpt>
      <trkpt lat="-27.4491158282139" lon="152.917892260092">        <ele>92.1557216331467</ele>        <time></time>      </trkpt>
      <trkpt lat="-27.4489764632124" lon="152.918332863483">        <ele>99.2609907815492</ele>        <time></time>      </trkpt>
      <trkpt lat="-27.4491474748012" lon="152.918798816145">        <ele>104.205051235375</ele>        <time></time>      </trkpt>
      <trkpt lat="-27.4493524328238" lon="152.919249462416">        <ele>101.764103067526</ele>        <time></time>      </trkpt>
      <trkpt lat="-27.4494679563792" lon="152.919733753992">        <ele>95.5765736768741</ele>        <time></time>      </trkpt>
      <trkpt lat="-27.4497716129776" lon="152.92009373385">        <ele>100.838913362997</ele>        <time></time>      </trkpt>
      <trkpt lat="-27.4501000931128" lon="152.920433924526">        <ele>104.024064577273</ele>        <time></time>      </trkpt>
      <trkpt lat="-27.4501843511404" lon="152.920924796212">        <ele>101.066104536739</ele>        <time></time>      </trkpt>
      <trkpt lat="-27.4505084798803" lon="152.921243209484">        <ele>94.8534391338114</ele>        <time></time>      </trkpt>
      <trkpt lat="-27.4509543210848" lon="152.921296683494">        <ele>91.0804263036745</ele>        <time></time>      </trkpt>
      <trkpt lat="-27.4513872090482" lon="152.921166321561">        <ele>90.3687619495212</ele>        <time></time>      </trkpt>
      <trkpt lat="-27.4517930980158" lon="152.921028027977">        <ele>92.4878117834849</ele>        <time></time>      </trkpt>
      <trkpt lat="-27.4522398511187" lon="152.92108405705">        <ele>92.831620684599</ele>        <time></time>      </trkpt>
      <trkpt lat="-27.4526719653029" lon="152.921193050199">        <ele>96.9930307746397</ele>        <time></time>      </trkpt>
      <trkpt lat="-27.4526270117438" lon="152.921606091808">        <ele>93.7668832002447</ele>        <time></time>      </trkpt>
      <trkpt lat="-27.4522679564849" lon="152.921908777237">        <ele>91.4645071568481</ele>        <time></time>      </trkpt>
      <trkpt lat="-27.4519356383143" lon="152.922224202398">        <ele>94.6367582627965</ele>        <time></time>      </trkpt>
      <trkpt lat="-27.4518900000137" lon="152.922725674432">        <ele>105.387733018225</ele>        <time></time>      </trkpt>
      <trkpt lat="-27.4515400059617" lon="152.923037328973">        <ele>111.746164734667</ele>        <time></time>      </trkpt>
      <trkpt lat="-27.4511269920845" lon="152.923088495946">        <ele>110.3147532866</ele>        <time></time>      </trkpt>
      <trkpt lat="-27.4507044337838" lon="152.922909267963">        <ele>102.24110093884</ele>        <time></time>      </trkpt>
      <trkpt lat="-27.4503282871161" lon="152.92314145492">        <ele>95.7553706727411</ele>        <time></time>      </trkpt>
      <trkpt lat="-27.4500646220361" lon="152.923547831842">        <ele>90.5144148123514</ele>        <time></time>      </trkpt>
      <trkpt lat="-27.4499134345175" lon="152.924023558709">        <ele>84.4255584294529</ele>        <time></time>      </trkpt>
      <trkpt lat="-27.4497785807563" lon="152.924507446324">        <ele>82.7637796940524</ele>        <time></time>      </trkpt>
      <trkpt lat="-27.4496346740781" lon="152.92498801391">        <ele>82.2518161623067</ele>        <time></time>      </trkpt>
      <trkpt lat="-27.4495031882606" lon="152.925472815603">        <ele>84.2882726472447</ele>        <time></time>      </trkpt>
      <trkpt lat="-27.4494848753385" lon="152.925969002367">        <ele>83.4697131922223</ele>        <time></time>      </trkpt>
      <trkpt lat="-27.4495531558526" lon="152.926470134869">        <ele>87.9652853936597</ele>        <time></time>      </trkpt>
      <trkpt lat="-27.4492441103999" lon="152.92679095546">        <ele>87.8900430317447</ele>        <time></time>      </trkpt>
      <trkpt lat="-27.4488300489589" lon="152.926989967386">        <ele>85.3811422955401</ele>        <time></time>      </trkpt>
      <trkpt lat="-27.4488810913565" lon="152.927401091326">        <ele>92.221374913692</ele>        <time></time>      </trkpt>
      <trkpt lat="-27.449089897506" lon="152.927716978288">        <ele>98.5478266630256</ele>        <time></time>      </trkpt>
      <trkpt lat="-27.4487682863481" lon="152.928037136634">        <ele>92.1579575163921</ele>        <time></time>      </trkpt>
      <trkpt lat="-27.4487562964685" lon="152.928542036498">        <ele>87.8979260363224</ele>        <time></time>      </trkpt>
      <trkpt lat="-27.4484342146797" lon="152.928840919514">        <ele>79.4948918395315</ele>        <time></time>      </trkpt>
      <trkpt lat="-27.4480086361524" lon="152.92901231416">        <ele>73.7525717980304</ele>        <time></time>      </trkpt>
      <trkpt lat="-27.44758" lon="152.92917">        <ele>72.9693384405114</ele>        <time></time>      </trkpt>
    </trkseg>
  </trk>
</gpx>
