<?xml version="1.0" encoding="UTF-8" standalone="no"?>
<gpx xmlns="http://www.topografix.com/GPX/1/1" xmlns:xsi="http://www.w3.org/2001/XMLSchema-instance" xsi:schemaLocation="http://www.topografix.com/GPX/1/1 http://www.topografix.com/GPX/1/1/gpx.xsd" version="1.1" creator="Metric Trails">
  <metadata>
    <name>Metric Trails Generated GPX</name>
    <desc>This track was generated by Metric Trails technology for GNSS trajectory processing.</desc>
    <author>
      <name>Metric Trails</name>
      <link href="https://www.metrictrails.com"/>
    </author>
    <time>2025-10-28T11:42:58Z</time>
  </metadata>
  <trk>
    <name>Metric Trails. Track standarized to 49.9-meter spatial resolution</name>
    <trkseg>
      <trkpt lat="-27.48755" lon="152.743648">        <ele>35.4986209510924</ele>        <time></time>      </trkpt>
      <trkpt lat="-27.4878812127342" lon="152.743997897086">        <ele>34.9916315374759</ele>        <time></time>      </trkpt>
      <trkpt lat="-27.4879497644043" lon="152.744499429361">        <ele>34.2719051331876</ele>        <time></time>      </trkpt>
      <trkpt lat="-27.4881752082715" lon="152.744923038958">        <ele>33.9287704715418</ele>        <time></time>      </trkpt>
      <trkpt lat="-27.4884510245385" lon="152.745329294711">        <ele>35.6040375842165</ele>        <time></time>      </trkpt>
      <trkpt lat="-27.4887531928206" lon="152.74571504606">        <ele>32.7155732161045</ele>        <time></time>      </trkpt>
      <trkpt lat="-27.4889894007238" lon="152.746156179302">        <ele>34.9241025239704</ele>        <time></time>      </trkpt>
      <trkpt lat="-27.4891549828461" lon="152.746613441177">        <ele>37.0329943218208</ele>        <time></time>      </trkpt>
      <trkpt lat="-27.4894604042917" lon="152.746245674422">        <ele>41.5962305457072</ele>        <time></time>      </trkpt>
      <trkpt lat="-27.4897648021266" lon="152.745883295678">        <ele>48.9740976501823</ele>        <time></time>      </trkpt>
      <trkpt lat="-27.4895803199006" lon="152.746298530226">        <ele>41.5079675686108</ele>        <time></time>      </trkpt>
      <trkpt lat="-27.4892916357676" lon="152.74669422622">        <ele>38.3822317322244</ele>        <time></time>      </trkpt>
      <trkpt lat="-27.4889980156906" lon="152.747089434912">        <ele>31.4747512124435</ele>        <time></time>      </trkpt>
      <trkpt lat="-27.4887259958503" lon="152.747501894654">        <ele>31.1730987191286</ele>        <time></time>      </trkpt>
      <trkpt lat="-27.4884462533704" lon="152.7478993669">        <ele>37.6739057487956</ele>        <time></time>      </trkpt>
      <trkpt lat="-27.4882079600246" lon="152.74832739101">        <ele>41.6557903442102</ele>        <time></time>      </trkpt>
      <trkpt lat="-27.4881087109504" lon="152.748827375829">        <ele>41.0351160141618</ele>        <time></time>      </trkpt>
      <trkpt lat="-27.4879844737263" lon="152.749319105095">        <ele>44.6627275405742</ele>        <time></time>      </trkpt>
      <trkpt lat="-27.4878017672925" lon="152.749781983969">        <ele>49.6368374588437</ele>        <time></time>      </trkpt>
      <trkpt lat="-27.4875685127725" lon="152.750225077107">        <ele>54.2748021830416</ele>        <time></time>      </trkpt>
      <trkpt lat="-27.4873103258371" lon="152.750644032912">        <ele>65.5158261475434</ele>        <time></time>      </trkpt>
      <trkpt lat="-27.4871218285747" lon="152.75110346122">        <ele>70.9036124219933</ele>        <time></time>      </trkpt>
      <trkpt lat="-27.4869348447555" lon="152.751573843759">        <ele>66.7737003955512</ele>        <time></time>      </trkpt>
      <trkpt lat="-27.4866036340517" lon="152.751922787227">        <ele>70.0197507734277</ele>        <time></time>      </trkpt>
      <trkpt lat="-27.4862002630714" lon="152.752154783474">        <ele>72.1006361956227</ele>        <time></time>      </trkpt>
      <trkpt lat="-27.4857601024553" lon="152.752028220491">        <ele>73.0471415204728</ele>        <time></time>      </trkpt>
      <trkpt lat="-27.4853987327322" lon="152.752234930632">        <ele>72.5945657760529</ele>        <time></time>      </trkpt>
      <trkpt lat="-27.4849989722868" lon="152.752485810306">        <ele>70.2588001002916</ele>        <time></time>      </trkpt>
      <trkpt lat="-27.4848287345205" lon="152.752913278831">        <ele>64.8193831389129</ele>        <time></time>      </trkpt>
      <trkpt lat="-27.4845438343945" lon="152.753275499365">        <ele>65.7586658735887</ele>        <time></time>      </trkpt>
      <trkpt lat="-27.4841242972866" lon="152.753480455407">        <ele>63.0437818730282</ele>        <time></time>      </trkpt>
      <trkpt lat="-27.4836669804153" lon="152.753468250483">        <ele>58.0260565245499</ele>        <time></time>      </trkpt>
      <trkpt lat="-27.4835003307803" lon="152.753064443168">        <ele>58.014648036442</ele>        <time></time>      </trkpt>
      <trkpt lat="-27.4836996964134" lon="152.752627851603">        <ele>65.2476795424571</ele>        <time></time>      </trkpt>
      <trkpt lat="-27.483371" lon="152.752545">        <ele>62.4167812541802</ele>        <time></time>      </trkpt>
      <trkpt lat="-27.483371" lon="152.752545">        <ele>62.4439768599183</ele>        <time></time>      </trkpt>
      <trkpt lat="-27.4829284202715" lon="152.752603341852">        <ele>57.5916058981431</ele>        <time></time>      </trkpt>
      <trkpt lat="-27.4826606646551" lon="152.752230461651">        <ele>61.4305258424</ele>        <time></time>      </trkpt>
      <trkpt lat="-27.4825320800758" lon="152.751807226361">        <ele>62.6990307182823</ele>        <time></time>      </trkpt>
      <trkpt lat="-27.4823855734609" lon="152.751331814771">        <ele>64.0581931903316</ele>        <time></time>      </trkpt>
      <trkpt lat="-27.4822618617479" lon="152.750852299412">        <ele>69.5082972181668</ele>        <time></time>      </trkpt>
      <trkpt lat="-27.482040161797" lon="152.750632851461">        <ele>73.4669943541712</ele>        <time></time>      </trkpt>
      <trkpt lat="-27.4817038136297" lon="152.750960841757">        <ele>73.4236572758251</ele>        <time></time>      </trkpt>
      <trkpt lat="-27.4813065715437" lon="152.751116762058">        <ele>73.8358503256189</ele>        <time></time>      </trkpt>
      <trkpt lat="-27.4809699700925" lon="152.750771009704">        <ele>73.1523812514026</ele>        <time></time>      </trkpt>
      <trkpt lat="-27.4805629763341" lon="152.750680566481">        <ele>69.0237406052017</ele>        <time></time>      </trkpt>
      <trkpt lat="-27.4801263466769" lon="152.750669503122">        <ele>67.5433488990607</ele>        <time></time>      </trkpt>
      <trkpt lat="-27.4797901392909" lon="152.750481219563">        <ele>70.4992931767329</ele>        <time></time>      </trkpt>
      <trkpt lat="-27.4794479168448" lon="152.75081707356">        <ele>67.779641587399</ele>        <time></time>      </trkpt>
      <trkpt lat="-27.4791258227294" lon="152.750661468188">        <ele>70.8523410742222</ele>        <time></time>      </trkpt>
      <trkpt lat="-27.4789109829536" lon="152.750215692369">        <ele>79.1361907517507</ele>        <time></time>      </trkpt>
      <trkpt lat="-27.4785408735895" lon="152.749934494691">        <ele>88.2142712236153</ele>        <time></time>      </trkpt>
      <trkpt lat="-27.4781354232774" lon="152.750010012354">        <ele>91.6944540581115</ele>        <time></time>      </trkpt>
      <trkpt lat="-27.4778148682737" lon="152.750350134613">        <ele>89.6283449845927</ele>        <time></time>      </trkpt>
      <trkpt lat="-27.4773993793663" lon="152.750537847852">        <ele>84.3618897705275</ele>        <time></time>      </trkpt>
      <trkpt lat="-27.477000160968" lon="152.750759674751">        <ele>83.9759838874949</ele>        <time></time>      </trkpt>
      <trkpt lat="-27.4765865207378" lon="152.750555360703">        <ele>78.2249955890175</ele>        <time></time>      </trkpt>
      <trkpt lat="-27.4762771210532" lon="152.75018043421">        <ele>73.4865334157761</ele>        <time></time>      </trkpt>
      <trkpt lat="-27.4759960209168" lon="152.750280874509">        <ele>75.5670409253513</ele>        <time></time>      </trkpt>
      <trkpt lat="-27.4758864718003" lon="152.750775039727">        <ele>74.9812360454287</ele>        <time></time>      </trkpt>
      <trkpt lat="-27.475563631234" lon="152.751082774409">        <ele>74.9980885344872</ele>        <time></time>      </trkpt>
      <trkpt lat="-27.4751879588006" lon="152.751347183244">        <ele>82.5516760267021</ele>        <time></time>      </trkpt>
      <trkpt lat="-27.4747573083783" lon="152.751436788547">        <ele>87.5094492799281</ele>        <time></time>      </trkpt>
      <trkpt lat="-27.474305302815" lon="152.751366937731">        <ele>94.2654279465289</ele>        <time></time>      </trkpt>
      <trkpt lat="-27.4739435942385" lon="152.751562217289">        <ele>96.7698086659911</ele>        <time></time>      </trkpt>
      <trkpt lat="-27.4739327072523" lon="152.752062444941">        <ele>95.1427911587214</ele>        <time></time>      </trkpt>
      <trkpt lat="-27.4740039049987" lon="152.752562889992">        <ele>93.3035083074775</ele>        <time></time>      </trkpt>
      <trkpt lat="-27.47427" lon="152.752969">        <ele>98.1602100941406</ele>        <time></time>      </trkpt>
      <trkpt lat="-27.47427" lon="152.752969">        <ele>98.0942090312067</ele>        <time></time>      </trkpt>
      <trkpt lat="-27.4744291883868" lon="152.753425174203">        <ele>98.8782017208147</ele>        <time></time>      </trkpt>
      <trkpt lat="-27.4740461556414" lon="152.753659465171">        <ele>93.7712419679065</ele>        <time></time>      </trkpt>
      <trkpt lat="-27.4736454985005" lon="152.753889167713">        <ele>89.7356629056505</ele>        <time></time>      </trkpt>
      <trkpt lat="-27.473272979551" lon="152.75417202045">        <ele>86.7986716253263</ele>        <time></time>      </trkpt>
      <trkpt lat="-27.472917969044" lon="152.754465606191">        <ele>80.2044975534853</ele>        <time></time>      </trkpt>
      <trkpt lat="-27.472468210836" lon="152.754475602615">        <ele>73.9076786315303</ele>        <time></time>      </trkpt>
      <trkpt lat="-27.4722295789107" lon="152.754669869905">        <ele>72.1996013881373</ele>        <time></time>      </trkpt>
      <trkpt lat="-27.4722569138151" lon="152.755143161597">        <ele>73.7716487970803</ele>        <time></time>      </trkpt>
      <trkpt lat="-27.4718768677102" lon="152.755192905507">        <ele>78.3024108172711</ele>        <time></time>      </trkpt>
      <trkpt lat="-27.4714553367109" lon="152.755028067342">        <ele>86.0954337073899</ele>        <time></time>      </trkpt>
      <trkpt lat="-27.4710217197121" lon="152.755036509583">        <ele>89.6549988107011</ele>        <time></time>      </trkpt>
      <trkpt lat="-27.4707120157744" lon="152.755401820189">        <ele>84.8590789439212</ele>        <time></time>      </trkpt>
      <trkpt lat="-27.4703932515667" lon="152.755747061325">        <ele>75.4262950823071</ele>        <time></time>      </trkpt>
      <trkpt lat="-27.4701120718812" lon="152.75610555605">        <ele>67.1319225774364</ele>        <time></time>      </trkpt>
      <trkpt lat="-27.4702383638432" lon="152.756574954785">        <ele>66.3546284702531</ele>        <time></time>      </trkpt>
      <trkpt lat="-27.4701772184642" lon="152.756841230903">        <ele>66.6032779815225</ele>        <time></time>      </trkpt>
      <trkpt lat="-27.4697500719319" lon="152.756711706628">        <ele>74.5861631268675</ele>        <time></time>      </trkpt>
      <trkpt lat="-27.4693078975" lon="152.756625254655">        <ele>82.8468964029414</ele>        <time></time>      </trkpt>
      <trkpt lat="-27.4688721848783" lon="152.756508394959">        <ele>90.5598321585348</ele>        <time></time>      </trkpt>
      <trkpt lat="-27.4684498307302" lon="152.756547161576">        <ele>93.7998297399268</ele>        <time></time>      </trkpt>
      <trkpt lat="-27.4680728067611" lon="152.75682213391">        <ele>90.0787294203112</ele>        <time></time>      </trkpt>
      <trkpt lat="-27.4677267222406" lon="152.75714121178">        <ele>82.9312775393727</ele>        <time></time>      </trkpt>
      <trkpt lat="-27.4675150846699" lon="152.757575745993">        <ele>78.8868626191006</ele>        <time></time>      </trkpt>
      <trkpt lat="-27.467367755567" lon="152.758046525897">        <ele>73.5534577512269</ele>        <time></time>      </trkpt>
      <trkpt lat="-27.4670769756173" lon="152.758416837157">        <ele>66.6184459846578</ele>        <time></time>      </trkpt>
      <trkpt lat="-27.4666365196036" lon="152.758435759801">        <ele>61.366722450251</ele>        <time></time>      </trkpt>
      <trkpt lat="-27.4662161370269" lon="152.758277106414">        <ele>66.3457089481503</ele>        <time></time>      </trkpt>
      <trkpt lat="-27.4658545859887" lon="152.758577340892">        <ele>66.1066977361555</ele>        <time></time>      </trkpt>
      <trkpt lat="-27.4655108448544" lon="152.758905561353">        <ele>66.0975444477836</ele>        <time></time>      </trkpt>
      <trkpt lat="-27.4651811546485" lon="152.759249743123">        <ele>64.3293376055293</ele>        <time></time>      </trkpt>
      <trkpt lat="-27.4647478569199" lon="152.759334438792">        <ele>67.5080288213308</ele>        <time></time>      </trkpt>
      <trkpt lat="-27.4642978674817" lon="152.759368986748">        <ele>66.3118911548398</ele>        <time></time>      </trkpt>
      <trkpt lat="-27.463862" lon="152.75924">        <ele>71.2595454136484</ele>        <time></time>      </trkpt>
      <trkpt lat="-27.463862" lon="152.75924">        <ele>71.3262178553086</ele>        <time></time>      </trkpt>
      <trkpt lat="-27.4634293971827" lon="152.759137136972">        <ele>71.0060032934359</ele>        <time></time>      </trkpt>
      <trkpt lat="-27.4629904194582" lon="152.759229067678">        <ele>68.431639471517</ele>        <time></time>      </trkpt>
      <trkpt lat="-27.4628034760569" lon="152.759658926762">        <ele>70.1909805570369</ele>        <time></time>      </trkpt>
      <trkpt lat="-27.4628649086553" lon="152.760162950727">        <ele>65.0378094980026</ele>        <time></time>      </trkpt>
      <trkpt lat="-27.4627728130857" lon="152.760621390187">        <ele>63.9493089627656</ele>        <time></time>      </trkpt>
      <trkpt lat="-27.4624058862324" lon="152.760921612849">        <ele>65.8536984688207</ele>        <time></time>      </trkpt>
      <trkpt lat="-27.4619760682361" lon="152.761089437919">        <ele>67.4908893916142</ele>        <time></time>      </trkpt>
      <trkpt lat="-27.4616049655095" lon="152.761382755974">        <ele>68.8142304979644</ele>        <time></time>      </trkpt>
      <trkpt lat="-27.4612288091654" lon="152.761670311703">        <ele>70.1156776899009</ele>        <time></time>      </trkpt>
      <trkpt lat="-27.4608215220007" lon="152.761894908357">        <ele>71.8945396012323</ele>        <time></time>      </trkpt>
      <trkpt lat="-27.4604166706282" lon="152.762117070554">        <ele>73.6727846433078</ele>        <time></time>      </trkpt>
      <trkpt lat="-27.4600237059182" lon="152.762370791154">        <ele>75.354102977698</ele>        <time></time>      </trkpt>
      <trkpt lat="-27.4597255135324" lon="152.762749729703">        <ele>77.8668262814737</ele>        <time></time>      </trkpt>
      <trkpt lat="-27.4593757261446" lon="152.763070700341">        <ele>80.832003003197</ele>        <time></time>      </trkpt>
      <trkpt lat="-27.4591553872458" lon="152.763496431425">        <ele>77.6514707813265</ele>        <time></time>      </trkpt>
      <trkpt lat="-27.4589520350593" lon="152.763952265442">        <ele>74.7608391483778</ele>        <time></time>      </trkpt>
      <trkpt lat="-27.458817936262" lon="152.764439118978">        <ele>72.1488333997803</ele>        <time></time>      </trkpt>
      <trkpt lat="-27.4585511645928" lon="152.764847620943">        <ele>72.1047712226324</ele>        <time></time>      </trkpt>
      <trkpt lat="-27.4582908755727" lon="152.765262670151">        <ele>72.6883242086588</ele>        <time></time>      </trkpt>
      <trkpt lat="-27.4580147130484" lon="152.765667934521">        <ele>74.454340664783</ele>        <time></time>      </trkpt>
      <trkpt lat="-27.4576046195905" lon="152.765770387558">        <ele>73.6916044358111</ele>        <time></time>      </trkpt>
      <trkpt lat="-27.4571503025719" lon="152.765754914479">        <ele>72.0031269204554</ele>        <time></time>      </trkpt>
      <trkpt lat="-27.4567069992218" lon="152.765648935257">        <ele>72.2084455437524</ele>        <time></time>      </trkpt>
      <trkpt lat="-27.4562552730781" lon="152.765622533024">        <ele>73.9763705293038</ele>        <time></time>      </trkpt>
      <trkpt lat="-27.4558357820553" lon="152.765596532889">        <ele>73.33852777557</ele>        <time></time>      </trkpt>
      <trkpt lat="-27.4557298573603" lon="152.765946757815">        <ele>78.2430830184417</ele>        <time></time>      </trkpt>
      <trkpt lat="-27.4559872038858" lon="152.766323438714">        <ele>83.4074849071296</ele>        <time></time>      </trkpt>
      <trkpt lat="-27.4564220222144" lon="152.766428518773">        <ele>78.9070476796968</ele>        <time></time>      </trkpt>
      <trkpt lat="-27.4568744312912" lon="152.766482699132">        <ele>73.8308064735216</ele>        <time></time>      </trkpt>
      <trkpt lat="-27.4572081036724" lon="152.766403311017">        <ele>73.273815756252</ele>        <time></time>      </trkpt>
      <trkpt lat="-27.4575788439312" lon="152.766642460602">        <ele>74</ele>        <time></time>      </trkpt>
      <trkpt lat="-27.457921" lon="152.766954">        <ele>77.4559505823319</ele>        <time></time>      </trkpt>
      <trkpt lat="-27.457921" lon="152.766954">        <ele>77.4281014036767</ele>        <time></time>      </trkpt>
      <trkpt lat="-27.4579472152274" lon="152.767468404936">        <ele>81.6096773509052</ele>        <time></time>      </trkpt>
      <trkpt lat="-27.4579436118562" lon="152.767989762883">        <ele>90.1828749184977</ele>        <time></time>      </trkpt>
      <trkpt lat="-27.4579811467521" lon="152.768498999048">        <ele>95.5225049050874</ele>        <time></time>      </trkpt>
      <trkpt lat="-27.4583008552643" lon="152.768875926534">        <ele>102.708741506923</ele>        <time></time>      </trkpt>
      <trkpt lat="-27.4586818324939" lon="152.769174912167">        <ele>111.439303814808</ele>        <time></time>      </trkpt>
      <trkpt lat="-27.4589505901083" lon="152.769598827743">        <ele>116.47830400883</ele>        <time></time>      </trkpt>
      <trkpt lat="-27.4593202352433" lon="152.76990414376">        <ele>119.003285436465</ele>        <time></time>      </trkpt>
      <trkpt lat="-27.4597294625438" lon="152.77015628909">        <ele>119.964089567827</ele>        <time></time>      </trkpt>
      <trkpt lat="-27.4600594558061" lon="152.770511130675">        <ele>125.147862715858</ele>        <time></time>      </trkpt>
      <trkpt lat="-27.460140945017" lon="152.771020816722">        <ele>131.164225325071</ele>        <time></time>      </trkpt>
      <trkpt lat="-27.4603329719218" lon="152.771497372209">        <ele>140.86987646008</ele>        <time></time>      </trkpt>
      <trkpt lat="-27.4605695139527" lon="152.77194861528">        <ele>145.779085653561</ele>        <time></time>      </trkpt>
      <trkpt lat="-27.4608184256713" lon="152.772385936477">        <ele>147.307545638107</ele>        <time></time>      </trkpt>
      <trkpt lat="-27.4610258705769" lon="152.772853887766">        <ele>151.799503560145</ele>        <time></time>      </trkpt>
      <trkpt lat="-27.461309060638" lon="152.773267479188">        <ele>158.729778198371</ele>        <time></time>      </trkpt>
      <trkpt lat="-27.4615148107807" lon="152.773716642583">        <ele>167.317156232322</ele>        <time></time>      </trkpt>
      <trkpt lat="-27.4616600000004" lon="152.774204717725">        <ele>171.871091887152</ele>        <time></time>      </trkpt>
      <trkpt lat="-27.4615804610806" lon="152.7747170479">        <ele>181.989944267026</ele>        <time></time>      </trkpt>
      <trkpt lat="-27.4613739632427" lon="152.775045599278">        <ele>186.450796061858</ele>        <time></time>      </trkpt>
      <trkpt lat="-27.4610992192069" lon="152.774632609603">        <ele>183.972196245422</ele>        <time></time>      </trkpt>
      <trkpt lat="-27.4606411356529" lon="152.774666053978">        <ele>177.247164548074</ele>        <time></time>      </trkpt>
      <trkpt lat="-27.4601991946749" lon="152.774829875408">        <ele>176.760248856884</ele>        <time></time>      </trkpt>
      <trkpt lat="-27.4598027180904" lon="152.775106915651">        <ele>184.651394855359</ele>        <time></time>      </trkpt>
      <trkpt lat="-27.4594176295163" lon="152.775396026224">        <ele>191.724309884356</ele>        <time></time>      </trkpt>
      <trkpt lat="-27.4592781407598" lon="152.775845851899">        <ele>203.960501204138</ele>        <time></time>      </trkpt>
      <trkpt lat="-27.459577" lon="152.776234">        <ele>201.246002285815</ele>        <time></time>      </trkpt>
      <trkpt lat="-27.459577" lon="152.776234">        <ele>201.03494807677</ele>        <time></time>      </trkpt>
      <trkpt lat="-27.4596626563548" lon="152.776729188958">        <ele>206.186152720019</ele>        <time></time>      </trkpt>
      <trkpt lat="-27.4595587776053" lon="152.777198088958">        <ele>204.746174970888</ele>        <time></time>      </trkpt>
      <trkpt lat="-27.4592354645334" lon="152.776893696799">        <ele>213.074049986086</ele>        <time></time>      </trkpt>
      <trkpt lat="-27.4588722432039" lon="152.776597791129">        <ele>221.539787085619</ele>        <time></time>      </trkpt>
      <trkpt lat="-27.4584359906776" lon="152.77648206211">        <ele>229.889181295541</ele>        <time></time>      </trkpt>
      <trkpt lat="-27.4579869714758" lon="152.776468">        <ele>236.265379975553</ele>        <time></time>      </trkpt>
      <trkpt lat="-27.457543840175" lon="152.77637326484">        <ele>242.541258212902</ele>        <time></time>      </trkpt>
      <trkpt lat="-27.457098591073" lon="152.776301537623">        <ele>254.35234210846</ele>        <time></time>      </trkpt>
      <trkpt lat="-27.4566608280973" lon="152.776397143107">        <ele>261.249892372254</ele>        <time></time>      </trkpt>
      <trkpt lat="-27.4564248537295" lon="152.776681988052">        <ele>261.345630583096</ele>        <time></time>      </trkpt>
      <trkpt lat="-27.4566245653395" lon="152.777134539388">        <ele>252.443069664984</ele>        <time></time>      </trkpt>
      <trkpt lat="-27.4569014967639" lon="152.777529101364">        <ele>247.457203443764</ele>        <time></time>      </trkpt>
      <trkpt lat="-27.4571329175937" lon="152.777962143192">        <ele>238.094341886923</ele>        <time></time>      </trkpt>
      <trkpt lat="-27.4574640630406" lon="152.778301125415">        <ele>236.926992261877</ele>        <time></time>      </trkpt>
      <trkpt lat="-27.4578035593128" lon="152.778625922764">        <ele>230.780703502588</ele>        <time></time>      </trkpt>
      <trkpt lat="-27.4582127337703" lon="152.778807638756">        <ele>224.374159007794</ele>        <time></time>      </trkpt>
      <trkpt lat="-27.4586437170988" lon="152.778946616142">        <ele>213.830541831604</ele>        <time></time>      </trkpt>
      <trkpt lat="-27.4590217678235" lon="152.779182089783">        <ele>207.243136840063</ele>        <time></time>      </trkpt>
      <trkpt lat="-27.4592940954407" lon="152.779425312376">        <ele>194.97349512175</ele>        <time></time>      </trkpt>
      <trkpt lat="-27.4590608234232" lon="152.779845573574">        <ele>189.226038604182</ele>        <time></time>      </trkpt>
      <trkpt lat="-27.4586514224719" lon="152.780035007535">        <ele>188.504339123825</ele>        <time></time>      </trkpt>
      <trkpt lat="-27.4582697587043" lon="152.780284655151">        <ele>179.70421706211</ele>        <time></time>      </trkpt>
      <trkpt lat="-27.457826759998" lon="152.780222733333">        <ele>179.433815979264</ele>        <time></time>      </trkpt>
      <trkpt lat="-27.4574557145863" lon="152.780425426376">        <ele>169.084212721831</ele>        <time></time>      </trkpt>
      <trkpt lat="-27.4573854969211" lon="152.780909006159">        <ele>146.639660887004</ele>        <time></time>      </trkpt>
      <trkpt lat="-27.4571613114465" lon="152.781344721384">        <ele>138.55913303031</ele>        <time></time>      </trkpt>
      <trkpt lat="-27.4571514132587" lon="152.781839653033">        <ele>131.83846343961</ele>        <time></time>      </trkpt>
      <trkpt lat="-27.4573847567453" lon="152.782265591466">        <ele>125.285220442434</ele>        <time></time>      </trkpt>
      <trkpt lat="-27.4576476051143" lon="152.782649371096">        <ele>120.876566231387</ele>        <time></time>      </trkpt>
      <trkpt lat="-27.457881" lon="152.783071">        <ele>114.096173572509</ele>        <time></time>      </trkpt>
      <trkpt lat="-27.457881" lon="152.783071">        <ele>114.094210511173</ele>        <time></time>      </trkpt>
      <trkpt lat="-27.4582874895217" lon="152.783293591617">        <ele>112.518959691268</ele>        <time></time>      </trkpt>
      <trkpt lat="-27.4586632137201" lon="152.783575889181">        <ele>108.23216112886</ele>        <time></time>      </trkpt>
      <trkpt lat="-27.4590998662421" lon="152.783706483712">        <ele>105.041141129006</ele>        <time></time>      </trkpt>
      <trkpt lat="-27.4595192848294" lon="152.783875219814">        <ele>103.027316051193</ele>        <time></time>      </trkpt>
      <trkpt lat="-27.4598749965644" lon="152.784156768966">        <ele>102.291714234423</ele>        <time></time>      </trkpt>
      <trkpt lat="-27.4603189642087" lon="152.784191622161">        <ele>98.489006360791</ele>        <time></time>      </trkpt>
      <trkpt lat="-27.4607371629388" lon="152.784377794831">        <ele>98.0761999184904</ele>        <time></time>      </trkpt>
      <trkpt lat="-27.4610790747582" lon="152.784702589419">        <ele>98.368699858776</ele>        <time></time>      </trkpt>
      <trkpt lat="-27.461155397511" lon="152.785194149034">        <ele>99.6791659171354</ele>        <time></time>      </trkpt>
      <trkpt lat="-27.4613231441019" lon="152.785664945841">        <ele>99.6148554447325</ele>        <time></time>      </trkpt>
      <trkpt lat="-27.4613959148557" lon="152.786160891287">        <ele>96.3627489491818</ele>        <time></time>      </trkpt>
      <trkpt lat="-27.4613366331477" lon="152.786662148982">        <ele>95.9256316464519</ele>        <time></time>      </trkpt>
      <trkpt lat="-27.4610736458346" lon="152.787068604173">        <ele>93.4277675817598</ele>        <time></time>      </trkpt>
      <trkpt lat="-27.460973764376" lon="152.787557523135">        <ele>88.0619756070564</ele>        <time></time>      </trkpt>
      <trkpt lat="-27.4610638220463" lon="152.788049644091">        <ele>89.0800785090883</ele>        <time></time>      </trkpt>
      <trkpt lat="-27.4614346179609" lon="152.788329831556">        <ele>89.9558646560594</ele>        <time></time>      </trkpt>
      <trkpt lat="-27.4617430327676" lon="152.788698853588">        <ele>88.9564522900483</ele>        <time></time>      </trkpt>
      <trkpt lat="-27.46188018533" lon="152.789179741317">        <ele>88.0453484948101</ele>        <time></time>      </trkpt>
      <trkpt lat="-27.4621571200581" lon="152.789575885063">        <ele>88.9153107578222</ele>        <time></time>      </trkpt>
      <trkpt lat="-27.4624903724537" lon="152.789899913267">        <ele>91.8545969336816</ele>        <time></time>      </trkpt>
      <trkpt lat="-27.4628892929836" lon="152.790129538549">        <ele>94.4820685412414</ele>        <time></time>      </trkpt>
      <trkpt lat="-27.4633403316486" lon="152.790115333671">        <ele>95.5674052740789</ele>        <time></time>      </trkpt>
      <trkpt lat="-27.4637885575906" lon="152.79004430415">        <ele>94.5968876959335</ele>        <time></time>      </trkpt>
      <trkpt lat="-27.4642337014851" lon="152.789979">        <ele>91.5179773555236</ele>        <time></time>      </trkpt>
      <trkpt lat="-27.4646816116141" lon="152.789930582531">        <ele>89.7243406358851</ele>        <time></time>      </trkpt>
      <trkpt lat="-27.4651146672049" lon="152.789783648044">        <ele>88.0892687818658</ele>        <time></time>      </trkpt>
      <trkpt lat="-27.4655518026679" lon="152.789848455757">        <ele>88.8388652605195</ele>        <time></time>      </trkpt>
      <trkpt lat="-27.4659356909732" lon="152.790114039553">        <ele>92.0290374814379</ele>        <time></time>      </trkpt>
      <trkpt lat="-27.4662077149311" lon="152.790457923091">        <ele>91.1706778528675</ele>        <time></time>      </trkpt>
      <trkpt lat="-27.4663868774479" lon="152.790907755539">        <ele>89.3750022364764</ele>        <time></time>      </trkpt>
      <trkpt lat="-27.4666669244357" lon="152.791302075381">        <ele>94.9006504834193</ele>        <time></time>      </trkpt>
      <trkpt lat="-27.4670264864444" lon="152.791609444655">        <ele>94.8173421790778</ele>        <time></time>      </trkpt>
      <trkpt lat="-27.4674294000588" lon="152.791828308918">        <ele>90.9828424431344</ele>        <time></time>      </trkpt>
      <trkpt lat="-27.4678786941738" lon="152.791788141492">        <ele>87.0236685764859</ele>        <time></time>      </trkpt>
      <trkpt lat="-27.4683259354849" lon="152.791841596774">        <ele>79.9642984455642</ele>        <time></time>      </trkpt>
      <trkpt lat="-27.4687600932316" lon="152.791920822051">        <ele>80.298047247588</ele>        <time></time>      </trkpt>
      <trkpt lat="-27.4691178918331" lon="152.792087975875">        <ele>84.4760961283563</ele>        <time></time>      </trkpt>
      <trkpt lat="-27.4694759673352" lon="152.792228554116">        <ele>86.5033945096587</ele>        <time></time>      </trkpt>
      <trkpt lat="-27.4697964770252" lon="152.792586085583">        <ele>86.1789351182849</ele>        <time></time>      </trkpt>
      <trkpt lat="-27.470228150678" lon="152.792678">        <ele>87.500249853651</ele>        <time></time>      </trkpt>
      <trkpt lat="-27.4706736656476" lon="152.792756142529">        <ele>86.7663010438011</ele>        <time></time>      </trkpt>
      <trkpt lat="-27.4711241115994" lon="152.792762054185">        <ele>85.1530695177637</ele>        <time></time>      </trkpt>
      <trkpt lat="-27.47157" lon="152.792698">        <ele>83.6099784637133</ele>        <time></time>      </trkpt>
      <trkpt lat="-27.47157" lon="152.792698">        <ele>83.5774922673576</ele>        <time></time>      </trkpt>
      <trkpt lat="-27.471771965785" lon="152.792274640051">        <ele>82.2796970534332</ele>        <time></time>      </trkpt>
      <trkpt lat="-27.4718106006341" lon="152.791766808117">        <ele>84.9879758910619</ele>        <time></time>      </trkpt>
      <trkpt lat="-27.4718419245395" lon="152.791256458915">        <ele>83.2021569538497</ele>        <time></time>      </trkpt>
      <trkpt lat="-27.4719289728659" lon="152.790754279745">        <ele>79.3363948606927</ele>        <time></time>      </trkpt>
      <trkpt lat="-27.4719696235942" lon="152.790245845113">        <ele>81.4505880550646</ele>        <time></time>      </trkpt>
      <trkpt lat="-27.4721142823196" lon="152.789769552221">        <ele>80.0277424042243</ele>        <time></time>      </trkpt>
      <trkpt lat="-27.4722989941521" lon="152.789308040137">        <ele>81.6133827315267</ele>        <time></time>      </trkpt>
      <trkpt lat="-27.4724756897943" lon="152.788860457317">        <ele>86.233448911415</ele>        <time></time>      </trkpt>
      <trkpt lat="-27.472653208292" lon="152.78843198964">        <ele>92.9096031945389</ele>        <time></time>      </trkpt>
      <trkpt lat="-27.4730968067632" lon="152.788404406487">        <ele>91.8884609126974</ele>        <time></time>      </trkpt>
      <trkpt lat="-27.4735517461144" lon="152.788418212607">        <ele>88.8615976085575</ele>        <time></time>      </trkpt>
      <trkpt lat="-27.4739454436339" lon="152.78866006417">        <ele>91.6316714656837</ele>        <time></time>      </trkpt>
      <trkpt lat="-27.4742532640715" lon="152.789014321236">        <ele>91.1071163448895</ele>        <time></time>      </trkpt>
      <trkpt lat="-27.4743297463216" lon="152.788519399312">        <ele>86.054355987653</ele>        <time></time>      </trkpt>
      <trkpt lat="-27.4742981012965" lon="152.788017963225">        <ele>77.733928926018</ele>        <time></time>      </trkpt>
      <trkpt lat="-27.4739758799235" lon="152.787657559874">        <ele>73.6770691400746</ele>        <time></time>      </trkpt>
      <trkpt lat="-27.473751315086" lon="152.787213557082">        <ele>72.8060939460966</ele>        <time></time>      </trkpt>
      <trkpt lat="-27.4734624731801" lon="152.786819341231">        <ele>72.2057132816831</ele>        <time></time>      </trkpt>
      <trkpt lat="-27.4731565837133" lon="152.786455578787">        <ele>72.0492420963443</ele>        <time></time>      </trkpt>
      <trkpt lat="-27.4733675944353" lon="152.7860049781">        <ele>69.4982998670209</ele>        <time></time>      </trkpt>
      <trkpt lat="-27.4736100670424" lon="152.785583969015">        <ele>69.8744259606773</ele>        <time></time>      </trkpt>
      <trkpt lat="-27.4738532128416" lon="152.785155997046">        <ele>74.470626028203</ele>        <time></time>      </trkpt>
      <trkpt lat="-27.4738961656698" lon="152.784653182082">        <ele>78.9390870619856</ele>        <time></time>      </trkpt>
      <trkpt lat="-27.4737576089474" lon="152.784173399849">        <ele>79.9831610423486</ele>        <time></time>      </trkpt>
      <trkpt lat="-27.4733969378644" lon="152.783862731649">        <ele>79.5818710391965</ele>        <time></time>      </trkpt>
      <trkpt lat="-27.4732106010876" lon="152.783408027176">        <ele>86.1799149188111</ele>        <time></time>      </trkpt>
      <trkpt lat="-27.4732110081923" lon="152.782901594206">        <ele>90.0076460057112</ele>        <time></time>      </trkpt>
      <trkpt lat="-27.4732347529425" lon="152.782394912947">        <ele>94.4198038546277</ele>        <time></time>      </trkpt>
      <trkpt lat="-27.4730348070764" lon="152.781938402646">        <ele>102.051602740072</ele>        <time></time>      </trkpt>
      <trkpt lat="-27.4729416919834" lon="152.781464355274">        <ele>108.305804154402</ele>        <time></time>      </trkpt>
      <trkpt lat="-27.4730917295301" lon="152.780983493031">        <ele>112.279067714839</ele>        <time></time>      </trkpt>
      <trkpt lat="-27.4732307744029" lon="152.780500730301">        <ele>119.44077339803</ele>        <time></time>      </trkpt>
      <trkpt lat="-27.4732743452063" lon="152.779993617222">        <ele>126.21375779161</ele>        <time></time>      </trkpt>
      <trkpt lat="-27.4731552348738" lon="152.779510411122">        <ele>127.247323610338</ele>        <time></time>      </trkpt>
      <trkpt lat="-27.4729056077921" lon="152.779081903202">        <ele>128.821025011935</ele>        <time></time>      </trkpt>
      <trkpt lat="-27.4725114903344" lon="152.778839592808">        <ele>127.921355179627</ele>        <time></time>      </trkpt>
      <trkpt lat="-27.4720798445754" lon="152.778673863298">        <ele>130.139053771778</ele>        <time></time>      </trkpt>
      <trkpt lat="-27.4717054995995" lon="152.778389537844">        <ele>137.254202551299</ele>        <time></time>      </trkpt>
      <trkpt lat="-27.4714850575042" lon="152.777947699019">        <ele>141.313120196917</ele>        <time></time>      </trkpt>
      <trkpt lat="-27.4713973296534" lon="152.777451180125">        <ele>145</ele>        <time></time>      </trkpt>
      <trkpt lat="-27.471174" lon="152.77701">        <ele>146.505363099491</ele>        <time></time>      </trkpt>
      <trkpt lat="-27.471174" lon="152.77701">        <ele>146.427379938985</ele>        <time></time>      </trkpt>
      <trkpt lat="-27.4707712319144" lon="152.776776469574">        <ele>146.469366652784</ele>        <time></time>      </trkpt>
      <trkpt lat="-27.4703321205367" lon="152.776841672485">        <ele>144.718965538613</ele>        <time></time>      </trkpt>
      <trkpt lat="-27.4699078445652" lon="152.777033050562">        <ele>143.743972887008</ele>        <time></time>      </trkpt>
      <trkpt lat="-27.4694539345417" lon="152.776997847791">        <ele>139.979517104367</ele>        <time></time>      </trkpt>
      <trkpt lat="-27.4689973288279" lon="152.776995504337">        <ele>141.384003335175</ele>        <time></time>      </trkpt>
      <trkpt lat="-27.4686673463661" lon="152.77667300637">        <ele>139.55683325568</ele>        <time></time>      </trkpt>
      <trkpt lat="-27.4685938211106" lon="152.776167747773">        <ele>141.03908369396</ele>        <time></time>      </trkpt>
      <trkpt lat="-27.4683087456518" lon="152.775817055434">        <ele>145.924524010281</ele>        <time></time>      </trkpt>
      <trkpt lat="-27.4678776630184" lon="152.77567379562">        <ele>146.889481686779</ele>        <time></time>      </trkpt>
      <trkpt lat="-27.467466084485" lon="152.775491902024">        <ele>143.326652317057</ele>        <time></time>      </trkpt>
      <trkpt lat="-27.4670186083029" lon="152.775603492914">        <ele>136.317984594996</ele>        <time></time>      </trkpt>
      <trkpt lat="-27.4666123727517" lon="152.775841084834">        <ele>132.661814967288</ele>        <time></time>      </trkpt>
      <trkpt lat="-27.4662098830134" lon="152.776086050138">        <ele>130.982928820539</ele>        <time></time>      </trkpt>
      <trkpt lat="-27.4657724881142" lon="152.776240974084">        <ele>137.808975332922</ele>        <time></time>      </trkpt>
      <trkpt lat="-27.4653334067537" lon="152.776389173569">        <ele>140.831153960378</ele>        <time></time>      </trkpt>
      <trkpt lat="-27.4648872171737" lon="152.776500273008">        <ele>146.402804230653</ele>        <time></time>      </trkpt>
      <trkpt lat="-27.4644840429104" lon="152.776733809236">        <ele>152.30837091347</ele>        <time></time>      </trkpt>
      <trkpt lat="-27.4640357053893" lon="152.776790080349">        <ele>160.84763704331</ele>        <time></time>      </trkpt>
      <trkpt lat="-27.4636933070443" lon="152.777096904576">        <ele>173.936199871109</ele>        <time></time>      </trkpt>
      <trkpt lat="-27.4633871727264" lon="152.777042789088">        <ele>178.348550790323</ele>        <time></time>      </trkpt>
      <trkpt lat="-27.4630796354824" lon="152.776663839917">        <ele>179.303105458694</ele>        <time></time>      </trkpt>
      <trkpt lat="-27.4627455068151" lon="152.776313589012">        <ele>179.390973580509</ele>        <time></time>      </trkpt>
      <trkpt lat="-27.4623549797646" lon="152.776049708504">        <ele>179.010348691497</ele>        <time></time>      </trkpt>
      <trkpt lat="-27.4619314875163" lon="152.775862487516">        <ele>178.74629805196</ele>        <time></time>      </trkpt>
      <trkpt lat="-27.4616214902757" lon="152.775483102665">        <ele>180.64936557885</ele>        <time></time>      </trkpt>
      <trkpt lat="-27.4614609911306" lon="152.775021733918">        <ele>186.124381337736</ele>        <time></time>      </trkpt>
      <trkpt lat="-27.4615375002598" lon="152.774515398236">        <ele>180.722562843072</ele>        <time></time>      </trkpt>
      <trkpt lat="-27.4615711004419" lon="152.774020200881">        <ele>170.370007688198</ele>        <time></time>      </trkpt>
      <trkpt lat="-27.4613851040297" lon="152.773550011511">        <ele>165.391439176844</ele>        <time></time>      </trkpt>
      <trkpt lat="-27.4611677428714" lon="152.773111998316">        <ele>155.998799983361</ele>        <time></time>      </trkpt>
      <trkpt lat="-27.460894" lon="152.772703">        <ele>149.897519046591</ele>        <time></time>      </trkpt>
      <trkpt lat="-27.460894" lon="152.772703">        <ele>149.901608535533</ele>        <time></time>      </trkpt>
      <trkpt lat="-27.4606892475962" lon="152.772267141225">        <ele>147.276401774904</ele>        <time></time>      </trkpt>
      <trkpt lat="-27.4604746607262" lon="152.771818839308">        <ele>143.854905611625</ele>        <time></time>      </trkpt>
      <trkpt lat="-27.4602580812961" lon="152.771372157511">        <ele>137.81257227353</ele>        <time></time>      </trkpt>
      <trkpt lat="-27.4600753298295" lon="152.77090973751">        <ele>129.487264954629</ele>        <time></time>      </trkpt>
      <trkpt lat="-27.4600409340037" lon="152.770410280672">        <ele>123.414372165782</ele>        <time></time>      </trkpt>
      <trkpt lat="-27.4596723957818" lon="152.770135400148">        <ele>119.951566942779</ele>        <time></time>      </trkpt>
      <trkpt lat="-27.459276853696" lon="152.769886426847">        <ele>118.777659136979</ele>        <time></time>      </trkpt>
      <trkpt lat="-27.458895139074" lon="152.769620624608">        <ele>114.910165171721</ele>        <time></time>      </trkpt>
      <trkpt lat="-27.4586605416277" lon="152.769187722871">        <ele>110.987633304444</ele>        <time></time>      </trkpt>
      <trkpt lat="-27.4582848142904" lon="152.768906556551">        <ele>102.657103622375</ele>        <time></time>      </trkpt>
      <trkpt lat="-27.4579558142589" lon="152.768557098498">        <ele>95.7856970247701</ele>        <time></time>      </trkpt>
      <trkpt lat="-27.4578566939073" lon="152.768076735008">        <ele>90.512643908896</ele>        <time></time>      </trkpt>
      <trkpt lat="-27.457891233675" lon="152.767571439801">        <ele>83.2985782542789</ele>        <time></time>      </trkpt>
      <trkpt lat="-27.4579322716637" lon="152.767064496016">        <ele>78.160511625171</ele>        <time></time>      </trkpt>
      <trkpt lat="-27.4576497300168" lon="152.766721670407">        <ele>74.2913807228564</ele>        <time></time>      </trkpt>
      <trkpt lat="-27.4572546394371" lon="152.766481098591">        <ele>73.7202146332674</ele>        <time></time>      </trkpt>
      <trkpt lat="-27.4569757219214" lon="152.766508088715">        <ele>73.8239665108374</ele>        <time></time>      </trkpt>
      <trkpt lat="-27.4565483515309" lon="152.766541675765">        <ele>78.1916578262393</ele>        <time></time>      </trkpt>
      <trkpt lat="-27.4561022714712" lon="152.766449314298">        <ele>83.4927398865123</ele>        <time></time>      </trkpt>
      <trkpt lat="-27.4557994411193" lon="152.766099483037">        <ele>80.5381424019768</ele>        <time></time>      </trkpt>
      <trkpt lat="-27.4556453598633" lon="152.765630028495">        <ele>72.7072170569216</ele>        <time></time>      </trkpt>
      <trkpt lat="-27.4560502066266" lon="152.765546">        <ele>74.0002389037127</ele>        <time></time>      </trkpt>
      <trkpt lat="-27.4564853133889" lon="152.76562817035">        <ele>72.6377974811692</ele>        <time></time>      </trkpt>
      <trkpt lat="-27.4569321244399" lon="152.765720577123">        <ele>72.0029780799327</ele>        <time></time>      </trkpt>
      <trkpt lat="-27.4573819666625" lon="152.765795071999">        <ele>72.5516303422701</ele>        <time></time>      </trkpt>
      <trkpt lat="-27.4578286443637" lon="152.765839935839">        <ele>72.9933758491005</ele>        <time></time>      </trkpt>
      <trkpt lat="-27.4581411066501" lon="152.765481090817">        <ele>74.6343607923486</ele>        <time></time>      </trkpt>
      <trkpt lat="-27.4584019546416" lon="152.765066090719">        <ele>72.4684296335655</ele>        <time></time>      </trkpt>
      <trkpt lat="-27.458650355808" lon="152.764641110482">        <ele>72.3107799043281</ele>        <time></time>      </trkpt>
      <trkpt lat="-27.458873360141" lon="152.764197810553">        <ele>73.8852277092368</ele>        <time></time>      </trkpt>
      <trkpt lat="-27.4590201259779" lon="152.763726622067">        <ele>75.2944558042084</ele>        <time></time>      </trkpt>
      <trkpt lat="-27.4591639080843" lon="152.76324645626">        <ele>82.1128619884337</ele>        <time></time>      </trkpt>
      <trkpt lat="-27.4595160072271" lon="152.762926632486">        <ele>80.1627939155424</ele>        <time></time>      </trkpt>
      <trkpt lat="-27.459805369199" lon="152.76253501955">        <ele>77.5732214251917</ele>        <time></time>      </trkpt>
      <trkpt lat="-27.4601689068586" lon="152.762237684347">        <ele>74.3837653448811</ele>        <time></time>      </trkpt>
      <trkpt lat="-27.460583" lon="152.762027">        <ele>72.9865307272037</ele>        <time></time>      </trkpt>
      <trkpt lat="-27.460583" lon="152.762027">        <ele>72.9787447751259</ele>        <time></time>      </trkpt>
      <trkpt lat="-27.4610141042789" lon="152.761847351753">        <ele>69.3546049565729</ele>        <time></time>      </trkpt>
      <trkpt lat="-27.4613899268973" lon="152.761546650345">        <ele>69.569616216955</ele>        <time></time>      </trkpt>
      <trkpt lat="-27.4617671081168" lon="152.761246570564">        <ele>68.7931378100279</ele>        <time></time>      </trkpt>
      <trkpt lat="-27.4621848378375" lon="152.761031981361">        <ele>65.1851640951654</ele>        <time></time>      </trkpt>
      <trkpt lat="-27.4626010794161" lon="152.760809239115">        <ele>65.3032945368745</ele>        <time></time>      </trkpt>
      <trkpt lat="-27.4629083882619" lon="152.760440564339">        <ele>61.1621791799829</ele>        <time></time>      </trkpt>
      <trkpt lat="-27.4628092935522" lon="152.759936034286">        <ele>68.4560416703099</ele>        <time></time>      </trkpt>
      <trkpt lat="-27.4627783293618" lon="152.759422778981">        <ele>71.2420832047529</ele>        <time></time>      </trkpt>
      <trkpt lat="-27.4631274582479" lon="152.759135400566">        <ele>68.9292351021981</ele>        <time></time>      </trkpt>
      <trkpt lat="-27.4635877519528" lon="152.759090828003">        <ele>73.2642325602342</ele>        <time></time>      </trkpt>
      <trkpt lat="-27.4640139122149" lon="152.759273011026">        <ele>70.0261155389355</ele>        <time></time>      </trkpt>
      <trkpt lat="-27.4644662619116" lon="152.759335195578">        <ele>66.5999479373237</ele>        <time></time>      </trkpt>
      <trkpt lat="-27.4649293341762" lon="152.759322333228">        <ele>65.9175459026461</ele>        <time></time>      </trkpt>
      <trkpt lat="-27.4653253676674" lon="152.759077760035">        <ele>65.6623994821225</ele>        <time></time>      </trkpt>
      <trkpt lat="-27.4656683858167" lon="152.758730614185">        <ele>66.971096306404</ele>        <time></time>      </trkpt>
      <trkpt lat="-27.4660305573771" lon="152.75840706951">        <ele>66.5226505343153</ele>        <time></time>      </trkpt>
      <trkpt lat="-27.4664299252649" lon="152.758284962632">        <ele>64.1720360964691</ele>        <time></time>      </trkpt>
      <trkpt lat="-27.4668546837715" lon="152.758462243979">        <ele>63.739848722723</ele>        <time></time>      </trkpt>
      <trkpt lat="-27.4672497777786" lon="152.758236333333">        <ele>70.5401817253616</ele>        <time></time>      </trkpt>
      <trkpt lat="-27.4674041421267" lon="152.757752494095">        <ele>76.1915659105296</ele>        <time></time>      </trkpt>
      <trkpt lat="-27.4675995514072" lon="152.757285448593">        <ele>81.2730289787072</ele>        <time></time>      </trkpt>
      <trkpt lat="-27.4679170907839" lon="152.756911127374">        <ele>87.1821018810649</ele>        <time></time>      </trkpt>
      <trkpt lat="-27.4683047639205" lon="152.756629322728">        <ele>92.5741550820328</ele>        <time></time>      </trkpt>
      <trkpt lat="-27.4687011115537" lon="152.756476968411">        <ele>92.6261567940757</ele>        <time></time>      </trkpt>
      <trkpt lat="-27.4691498151956" lon="152.756586966399">        <ele>85.7379307197174</ele>        <time></time>      </trkpt>
      <trkpt lat="-27.4696067798531" lon="152.756664483093">        <ele>78.0526716117845</ele>        <time></time>      </trkpt>
      <trkpt lat="-27.4700480801535" lon="152.75680942949">        <ele>68.1441133810919</ele>        <time></time>      </trkpt>
      <trkpt lat="-27.4702297139514" lon="152.75658726478">        <ele>66.4886070109217</ele>        <time></time>      </trkpt>
      <trkpt lat="-27.4701120590509" lon="152.756092702822">        <ele>67.1470436775267</ele>        <time></time>      </trkpt>
      <trkpt lat="-27.4704097758338" lon="152.755711634343">        <ele>76.4455729313629</ele>        <time></time>      </trkpt>
      <trkpt lat="-27.470716" lon="152.755353">        <ele>85.583596228714</ele>        <time></time>      </trkpt>
      <trkpt lat="-27.470716" lon="152.755353">        <ele>85.667406242899</ele>        <time></time>      </trkpt>
      <trkpt lat="-27.4710240734145" lon="152.754978941268">        <ele>90.0086170634163</ele>        <time></time>      </trkpt>
      <trkpt lat="-27.4714634862738" lon="152.755015408866">        <ele>86.0428788911842</ele>        <time></time>      </trkpt>
      <trkpt lat="-27.4718941031325" lon="152.755183646664">        <ele>77.9870432492027</ele>        <time></time>      </trkpt>
      <trkpt lat="-27.4722603139539" lon="152.755128414149">        <ele>73.6814282750458</ele>        <time></time>      </trkpt>
      <trkpt lat="-27.4722118639339" lon="152.754639178937">        <ele>72.40986709233</ele>        <time></time>      </trkpt>
      <trkpt lat="-27.4724887106699" lon="152.75445023689">        <ele>74.4226793168512</ele>        <time></time>      </trkpt>
      <trkpt lat="-27.4729421945948" lon="152.754427420227">        <ele>80.5862703718185</ele>        <time></time>      </trkpt>
      <trkpt lat="-27.4732862125464" lon="152.754154840591">        <ele>87.3449275399567</ele>        <time></time>      </trkpt>
      <trkpt lat="-27.4736587688006" lon="152.753859549127">        <ele>90.0074716008817</ele>        <time></time>      </trkpt>
      <trkpt lat="-27.4740723018132" lon="152.753639648316">        <ele>94.0567125093647</ele>        <time></time>      </trkpt>
      <trkpt lat="-27.4743750935242" lon="152.753352201427">        <ele>98.6400410790236</ele>        <time></time>      </trkpt>
      <trkpt lat="-27.4741424247183" lon="152.752926693751">        <ele>96.0941137721717</ele>        <time></time>      </trkpt>
      <trkpt lat="-27.4739157441179" lon="152.752487793698">        <ele>92.987271397526</ele>        <time></time>      </trkpt>
      <trkpt lat="-27.4738192291261" lon="152.751990748756">        <ele>95.5356524081016</ele>        <time></time>      </trkpt>
      <trkpt lat="-27.4738688962759" lon="152.751490828195">        <ele>97</ele>        <time></time>      </trkpt>
      <trkpt lat="-27.4742618607531" lon="152.75137890273">        <ele>95.1698650462169</ele>        <time></time>      </trkpt>
      <trkpt lat="-27.4747193878175" lon="152.751415886022">        <ele>87.8562362818933</ele>        <time></time>      </trkpt>
      <trkpt lat="-27.4751450835955" lon="152.75133414453">        <ele>83.4904305564884</ele>        <time></time>      </trkpt>
      <trkpt lat="-27.4755187093927" lon="152.751076484641">        <ele>75.8897136586446</ele>        <time></time>      </trkpt>
      <trkpt lat="-27.4758018919683" lon="152.750700999816">        <ele>76.696102384014</ele>        <time></time>      </trkpt>
      <trkpt lat="-27.4760080690739" lon="152.750245827317">        <ele>75.6460038324577</ele>        <time></time>      </trkpt>
      <trkpt lat="-27.4763392531369" lon="152.750235762638">        <ele>73.0895060930244</ele>        <time></time>      </trkpt>
      <trkpt lat="-27.4766359774865" lon="152.750614977485">        <ele>79.8774374788632</ele>        <time></time>      </trkpt>
      <trkpt lat="-27.4770703610018" lon="152.750730428118">        <ele>83.8433532797555</ele>        <time></time>      </trkpt>
      <trkpt lat="-27.4774764766325" lon="152.750521">        <ele>85.2913955776064</ele>        <time></time>      </trkpt>
      <trkpt lat="-27.4778739071473" lon="152.750296979459">        <ele>90.3534483582616</ele>        <time></time>      </trkpt>
      <trkpt lat="-27.4781567316666" lon="152.749905897262">        <ele>92.1521727606403</ele>        <time></time>      </trkpt>
      <trkpt lat="-27.478589178673" lon="152.749919665225">        <ele>87.642427999166</ele>        <time></time>      </trkpt>
      <trkpt lat="-27.4789348362743" lon="152.75025377897">        <ele>78.2005083885972</ele>        <time></time>      </trkpt>
      <trkpt lat="-27.479194" lon="152.750677">        <ele>69.9375903812001</ele>        <time></time>      </trkpt>
      <trkpt lat="-27.479194" lon="152.750677">        <ele>69.9917876368087</ele>        <time></time>      </trkpt>
      <trkpt lat="-27.4795041675018" lon="152.750772374197">        <ele>67.4223734774006</ele>        <time></time>      </trkpt>
      <trkpt lat="-27.4798202698338" lon="152.75042095966">        <ele>71.3638636579734</ele>        <time></time>      </trkpt>
      <trkpt lat="-27.4801551951689" lon="152.750645954926">        <ele>67.8948771537854</ele>        <time></time>      </trkpt>
      <trkpt lat="-27.4805855054196" lon="152.750684475905">        <ele>69.1292587019016</ele>        <time></time>      </trkpt>
      <trkpt lat="-27.4810023650715" lon="152.750772365071">        <ele>73.6261418701108</ele>        <time></time>      </trkpt>
      <trkpt lat="-27.4813365305566" lon="152.751110502685">        <ele>73.8148882158194</ele>        <time></time>      </trkpt>
      <trkpt lat="-27.4817188292085" lon="152.750892512259">        <ele>73.9526272966149</ele>        <time></time>      </trkpt>
      <trkpt lat="-27.4820795722278" lon="152.750599713886">        <ele>73.661266147391</ele>        <time></time>      </trkpt>
      <trkpt lat="-27.4822682031224" lon="152.750868378871">        <ele>69.2513601840169</ele>        <time></time>      </trkpt>
      <trkpt lat="-27.4824014094205" lon="152.751336457473">        <ele>64.4954904557639</ele>        <time></time>      </trkpt>
      <trkpt lat="-27.4825663120388" lon="152.751800727302">        <ele>63.6481422975681</ele>        <time></time>      </trkpt>
      <trkpt lat="-27.4826668541323" lon="152.752214920435">        <ele>61.8730486871165</ele>        <time></time>      </trkpt>
      <trkpt lat="-27.4829474606807" lon="152.752580519553">        <ele>58.3354643194247</ele>        <time></time>      </trkpt>
      <trkpt lat="-27.4833684720847" lon="152.752500939747">        <ele>63.3023685706437</ele>        <time></time>      </trkpt>
      <trkpt lat="-27.4836777578436" lon="152.752601515685">        <ele>65.3465732691171</ele>        <time></time>      </trkpt>
      <trkpt lat="-27.4835237944723" lon="152.753047135367">        <ele>58.5261714176552</ele>        <time></time>      </trkpt>
      <trkpt lat="-27.4836372524666" lon="152.753469046799">        <ele>57.7699056769697</ele>        <time></time>      </trkpt>
      <trkpt lat="-27.4840805606989" lon="152.753494479768">        <ele>62.3952587111432</ele>        <time></time>      </trkpt>
      <trkpt lat="-27.4844944054656" lon="152.753291881551">        <ele>66.3968525817205</ele>        <time></time>      </trkpt>
      <trkpt lat="-27.4847744819838" lon="152.752917510523">        <ele>65.3926490451942</ele>        <time></time>      </trkpt>
      <trkpt lat="-27.4849618680292" lon="152.752518815019">        <ele>69.9771262570606</ele>        <time></time>      </trkpt>
      <trkpt lat="-27.4853486643109" lon="152.752264093159">        <ele>72.6995916170701</ele>        <time></time>      </trkpt>
      <trkpt lat="-27.4857039332858" lon="152.752054557132">        <ele>73.1116047187614</ele>        <time></time>      </trkpt>
      <trkpt lat="-27.4861325784096" lon="152.752203429108">        <ele>71.1103439291233</ele>        <time></time>      </trkpt>
      <trkpt lat="-27.4865281828711" lon="152.751986646389">        <ele>-351.74350576282</ele>        <time></time>      </trkpt>
      <trkpt lat="-27.4868533327962" lon="152.751642335216">        <ele>67.9349515349195</ele>        <time></time>      </trkpt>
      <trkpt lat="-27.4870336022362" lon="152.751177423781">        <ele>72.4861155850505</ele>        <time></time>      </trkpt>
      <trkpt lat="-27.4872344610167" lon="152.750723688736">        <ele>68.5795008665276</ele>        <time></time>      </trkpt>
      <trkpt lat="-27.487476445736" lon="152.750295785211">        <ele>57.1789801307137</ele>        <time></time>      </trkpt>
      <trkpt lat="-27.4877030031904" lon="152.749857699317">        <ele>51.1652148054824</ele>        <time></time>      </trkpt>
      <trkpt lat="-27.4879055192848" lon="152.74940826623">        <ele>47.7358162367972</ele>        <time></time>      </trkpt>
      <trkpt lat="-27.488029" lon="152.748923">        <ele>41.8983395643993</ele>        <time></time>      </trkpt>
      <trkpt lat="-27.488029" lon="152.748923">        <ele>41.8833254929475</ele>        <time></time>      </trkpt>
      <trkpt lat="-27.4881616343854" lon="152.748413789684">        <ele>41.8425382944568</ele>        <time></time>      </trkpt>
      <trkpt lat="-27.4883375316196" lon="152.747929527116">        <ele>39.7388384283655</ele>        <time></time>      </trkpt>
      <trkpt lat="-27.4886468913432" lon="152.747532492682">        <ele>31.8064922235842</ele>        <time></time>      </trkpt>
      <trkpt lat="-27.4889516091886" lon="152.747125986083">        <ele>30.8517688599072</ele>        <time></time>      </trkpt>
      <trkpt lat="-27.4892570342137" lon="152.746726514352">        <ele>37.7202195853789</ele>        <time></time>      </trkpt>
      <trkpt lat="-27.4895305481936" lon="152.746297281125">        <ele>41.2369938919817</ele>        <time></time>      </trkpt>
      <trkpt lat="-27.4897973504441" lon="152.745868614808">        <ele>49.0812735891567</ele>        <time></time>      </trkpt>
      <trkpt lat="-27.4895332777129" lon="152.746218309272">        <ele>42.8534715351145</ele>        <time></time>      </trkpt>
      <trkpt lat="-27.4891980603621" lon="152.746593473293">        <ele>37.663011232875</ele>        <time></time>      </trkpt>
      <trkpt lat="-27.488930432491" lon="152.746371580518">        <ele>33.4410657788932</ele>        <time></time>      </trkpt>
      <trkpt lat="-27.4887485656632" lon="152.745887064505">        <ele>31.4962685996386</ele>        <time></time>      </trkpt>
      <trkpt lat="-27.4884352668986" lon="152.745490115882">        <ele>34.1793700827678</ele>        <time></time>      </trkpt>
      <trkpt lat="-27.4881354964336" lon="152.74507853023">        <ele>33.4359015615408</ele>        <time></time>      </trkpt>
      <trkpt lat="-27.487886450898" lon="152.744635202394">        <ele>33.5813503435452</ele>        <time></time>      </trkpt>
      <trkpt lat="-27.4877931993432" lon="152.74411453085">        <ele>33.4525051286536</ele>        <time></time>      </trkpt>
      <trkpt lat="-27.487534" lon="152.743702">        <ele>34.882944020475</ele>        <time></time>      </trkpt>
    </trkseg>
  </trk>
</gpx>
