<?xml version="1.0" encoding="UTF-8" standalone="no"?>
<gpx xmlns="http://www.topografix.com/GPX/1/1" xmlns:xsi="http://www.w3.org/2001/XMLSchema-instance" xsi:schemaLocation="http://www.topografix.com/GPX/1/1 http://www.topografix.com/GPX/1/1/gpx.xsd" version="1.1" creator="Metric Trails">
  <metadata>
    <name>Metric Trails Generated GPX</name>
    <desc>This track was generated by Metric Trails technology for GNSS trajectory processing.</desc>
    <author>
      <name>Metric Trails</name>
      <link href="https://www.metrictrails.com"/>
    </author>
    <time>2025-10-30T14:38:14Z</time>
  </metadata>
  <trk>
    <name>Metric Trails. Track standarized to 49.4-meter spatial resolution</name>
    <trkseg>
      <trkpt lat="-33.428319005" lon="-70.533785323">        <ele>739.437714469736</ele>        <time></time>      </trkpt>
      <trkpt lat="-33.4286964053891" lon="-70.5335872034388">        <ele>742.017208230461</ele>        <time></time>      </trkpt>
      <trkpt lat="-33.4290316427652" lon="-70.5338898363136">        <ele>743.629828954379</ele>        <time></time>      </trkpt>
      <trkpt lat="-33.4294835908136" lon="-70.5339187171356">        <ele>747.314306558955</ele>        <time></time>      </trkpt>
      <trkpt lat="-33.4299319308816" lon="-70.5339371773119">        <ele>747.794234854146</ele>        <time></time>      </trkpt>
      <trkpt lat="-33.4303835805434" lon="-70.5339377367501">        <ele>744.859298594241</ele>        <time></time>      </trkpt>
      <trkpt lat="-33.4308355427419" lon="-70.5339423800669">        <ele>744.291783052194</ele>        <time></time>      </trkpt>
      <trkpt lat="-33.4312862370225" lon="-70.5339270393458">        <ele>744.253506127454</ele>        <time></time>      </trkpt>
      <trkpt lat="-33.4316932507442" lon="-70.5339166364567">        <ele>737.729833912741</ele>        <time></time>      </trkpt>
      <trkpt lat="-33.4320124368799" lon="-70.5342983697823">        <ele>733.659232321523</ele>        <time></time>      </trkpt>
      <trkpt lat="-33.4321665980195" lon="-70.5342585880759">        <ele>732.032849843882</ele>        <time></time>      </trkpt>
      <trkpt lat="-33.432008096928" lon="-70.5337591532125">        <ele>735.470070849785</ele>        <time></time>      </trkpt>
      <trkpt lat="-33.431843467044" lon="-70.5332721028757">        <ele>734.947269490695</ele>        <time></time>      </trkpt>
      <trkpt lat="-33.4316398663779" lon="-70.5328031515706">        <ele>740.212740685228</ele>        <time></time>      </trkpt>
      <trkpt lat="-33.4315056942197" lon="-70.5322913580204">        <ele>740.044925321541</ele>        <time></time>      </trkpt>
      <trkpt lat="-33.4312915556612" lon="-70.5318222220568">        <ele>746.971065996779</ele>        <time></time>      </trkpt>
      <trkpt lat="-33.430983957253" lon="-70.531434363297">        <ele>751.4677820316</ele>        <time></time>      </trkpt>
      <trkpt lat="-33.4308532574128" lon="-70.5309248017724">        <ele>751.533401103385</ele>        <time></time>      </trkpt>
      <trkpt lat="-33.4308252223228" lon="-70.5303928523042">        <ele>749.825480433605</ele>        <time></time>      </trkpt>
      <trkpt lat="-33.4306521206156" lon="-70.5299122745517">        <ele>753.245070505662</ele>        <time></time>      </trkpt>
      <trkpt lat="-33.4303905511012" lon="-70.529471553483">        <ele>759.128244514745</ele>        <time></time>      </trkpt>
      <trkpt lat="-33.4302634913734" lon="-70.5289620634725">        <ele>763.070182274203</ele>        <time></time>      </trkpt>
      <trkpt lat="-33.4301815406946" lon="-70.5284406437473">        <ele>765.376731724491</ele>        <time></time>      </trkpt>
      <trkpt lat="-33.4301195428662" lon="-70.5279076161698">        <ele>767.534550342035</ele>        <time></time>      </trkpt>
      <trkpt lat="-33.430014392289" lon="-70.5273958594053">        <ele>769.820193627976</ele>        <time></time>      </trkpt>
      <trkpt lat="-33.4300414937862" lon="-70.526856943101">        <ele>770.495548809739</ele>        <time></time>      </trkpt>
      <trkpt lat="-33.429932507822" lon="-70.5263412584598">        <ele>770.923878168672</ele>        <time></time>      </trkpt>
      <trkpt lat="-33.4299132900389" lon="-70.5258117865821">        <ele>775.196273565946</ele>        <time></time>      </trkpt>
      <trkpt lat="-33.429991477106" lon="-70.5252819314751">        <ele>775.799930392241</ele>        <time></time>      </trkpt>
      <trkpt lat="-33.4300604133476" lon="-70.5247501085216">        <ele>779.288490477166</ele>        <time></time>      </trkpt>
      <trkpt lat="-33.4301056265317" lon="-70.5242129697226">        <ele>784.075084582014</ele>        <time></time>      </trkpt>
      <trkpt lat="-33.4301465359075" lon="-70.5236756507452">        <ele>786.663638070443</ele>        <time></time>      </trkpt>
      <trkpt lat="-33.4301745625337" lon="-70.5231380374727">        <ele>789.170689572844</ele>        <time></time>      </trkpt>
      <trkpt lat="-33.4302166734576" lon="-70.5226012577661">        <ele>790.91893823394</ele>        <time></time>      </trkpt>
      <trkpt lat="-33.4303430415588" lon="-70.5220873458793">        <ele>792.853699278557</ele>        <time></time>      </trkpt>
      <trkpt lat="-33.4306401281495" lon="-70.5216974972449">        <ele>800.492197942895</ele>        <time></time>      </trkpt>
      <trkpt lat="-33.4310777846578" lon="-70.5215702895776">        <ele>803.030452173078</ele>        <time></time>      </trkpt>
      <trkpt lat="-33.4313736695936" lon="-70.521275900111">        <ele>807.511251553515</ele>        <time></time>      </trkpt>
      <trkpt lat="-33.4313468535089" lon="-70.520814100252">        <ele>818.141455203427</ele>        <time></time>      </trkpt>
      <trkpt lat="-33.4314748521321" lon="-70.5202975884346">        <ele>827.476885766859</ele>        <time></time>      </trkpt>
      <trkpt lat="-33.4316077006208" lon="-70.5197856327428">        <ele>839.878976580389</ele>        <time></time>      </trkpt>
      <trkpt lat="-33.4316618631752" lon="-70.5192641095725">        <ele>851.679527883671</ele>        <time></time>      </trkpt>
      <trkpt lat="-33.4316380968827" lon="-70.5187645326138">        <ele>860.120262877849</ele>        <time></time>      </trkpt>
      <trkpt lat="-33.4313737818156" lon="-70.5191599222717">        <ele>858.884889544989</ele>        <time></time>      </trkpt>
      <trkpt lat="-33.431043433166" lon="-70.5195069354328">        <ele>850.564895677552</ele>        <time></time>      </trkpt>
      <trkpt lat="-33.4306893104296" lon="-70.5198004573473">        <ele>851.693390066102</ele>        <time></time>      </trkpt>
      <trkpt lat="-33.4303566869503" lon="-70.5197705233598">        <ele>851.996386613051</ele>        <time></time>      </trkpt>
      <trkpt lat="-33.4299271965221" lon="-70.519676431336">        <ele>858.068441671733</ele>        <time></time>      </trkpt>
      <trkpt lat="-33.4301018763459" lon="-70.5193637734605">        <ele>862.702258542502</ele>        <time></time>      </trkpt>
      <trkpt lat="-33.4304947321617" lon="-70.5191180459142">        <ele>866.521182015472</ele>        <time></time>      </trkpt>
      <trkpt lat="-33.4304130169897" lon="-70.5187954737488">        <ele>873.457941784925</ele>        <time></time>      </trkpt>
      <trkpt lat="-33.4300459767704" lon="-70.5185007934985">        <ele>881.577025962797</ele>        <time></time>      </trkpt>
      <trkpt lat="-33.4296609235926" lon="-70.518241322994">        <ele>886.590396230774</ele>        <time></time>      </trkpt>
      <trkpt lat="-33.429980101236" lon="-70.5179451805043">        <ele>892.470917038461</ele>        <time></time>      </trkpt>
      <trkpt lat="-33.430213865847" lon="-70.5175111855805">        <ele>900.523959939664</ele>        <time></time>      </trkpt>
      <trkpt lat="-33.42983125" lon="-70.517415999">        <ele>908.273545832354</ele>        <time></time>      </trkpt>
      <trkpt lat="-33.42983125" lon="-70.517415999">        <ele>908.427576199293</ele>        <time></time>      </trkpt>
      <trkpt lat="-33.4293907728504" lon="-70.5173216196836">        <ele>914.077699222376</ele>        <time></time>      </trkpt>
      <trkpt lat="-33.428986507821" lon="-70.5172150381545">        <ele>922.774901946405</ele>        <time></time>      </trkpt>
      <trkpt lat="-33.4286700927236" lon="-70.5170479239673">        <ele>932.056222715629</ele>        <time></time>      </trkpt>
      <trkpt lat="-33.4290846135419" lon="-70.5168482332536">        <ele>934.558913171122</ele>        <time></time>      </trkpt>
      <trkpt lat="-33.4295034814716" lon="-70.5166731415366">        <ele>937.868798759728</ele>        <time></time>      </trkpt>
      <trkpt lat="-33.4291748295616" lon="-70.5165150706265">        <ele>945.229974654665</ele>        <time></time>      </trkpt>
      <trkpt lat="-33.429445490637" lon="-70.5161957526335">        <ele>957.316217653938</ele>        <time></time>      </trkpt>
      <trkpt lat="-33.4298085885565" lon="-70.515891878526">        <ele>959.521098226765</ele>        <time></time>      </trkpt>
      <trkpt lat="-33.4295733638696" lon="-70.5155711808128">        <ele>966.122421794439</ele>        <time></time>      </trkpt>
      <trkpt lat="-33.4291833657754" lon="-70.5153111974595">        <ele>976.142626643343</ele>        <time></time>      </trkpt>
      <trkpt lat="-33.4287926454174" lon="-70.5150469849916">        <ele>982.81345342826</ele>        <time></time>      </trkpt>
      <trkpt lat="-33.4287994856961" lon="-70.5147269237209">        <ele>991.257872416572</ele>        <time></time>      </trkpt>
      <trkpt lat="-33.4291859699194" lon="-70.5144916877648">        <ele>1000.7260089151</ele>        <time></time>      </trkpt>
      <trkpt lat="-33.429263240154" lon="-70.5141313210294">        <ele>1004.31686611033</ele>        <time></time>      </trkpt>
      <trkpt lat="-33.4289596211525" lon="-70.5138080017779">        <ele>1010.57619198371</ele>        <time></time>      </trkpt>
      <trkpt lat="-33.4288178273266" lon="-70.513291595773">        <ele>1017.70052637479</ele>        <time></time>      </trkpt>
      <trkpt lat="-33.4285651472782" lon="-70.5128378729201">        <ele>1022.26169113183</ele>        <time></time>      </trkpt>
      <trkpt lat="-33.4284929083674" lon="-70.51231331998">        <ele>1028.96388755004</ele>        <time></time>      </trkpt>
      <trkpt lat="-33.428499088956" lon="-70.5117674601411">        <ele>1032.11876629046</ele>        <time></time>      </trkpt>
      <trkpt lat="-33.4284520127927" lon="-70.5112265013686">        <ele>1032.60903564459</ele>        <time></time>      </trkpt>
      <trkpt lat="-33.4285987713001" lon="-70.5107243992008">        <ele>1033.71967960879</ele>        <time></time>      </trkpt>
      <trkpt lat="-33.4287754413876" lon="-70.5102288734609">        <ele>1031.38770416848</ele>        <time></time>      </trkpt>
      <trkpt lat="-33.4288421721302" lon="-70.5096886557196">        <ele>1028.20202459732</ele>        <time></time>      </trkpt>
      <trkpt lat="-33.4288927764979" lon="-70.5091463435058">        <ele>1024.06848688625</ele>        <time></time>      </trkpt>
      <trkpt lat="-33.4290204015612" lon="-70.5086318768475">        <ele>1017.33083087761</ele>        <time></time>      </trkpt>
      <trkpt lat="-33.429138564776" lon="-70.5081078094594">        <ele>1025.46219209732</ele>        <time></time>      </trkpt>
      <trkpt lat="-33.4291875284961" lon="-70.507565973485">        <ele>1028.93261495844</ele>        <time></time>      </trkpt>
      <trkpt lat="-33.4292485092082" lon="-70.5070323052535">        <ele>1030.82016256699</ele>        <time></time>      </trkpt>
      <trkpt lat="-33.4291415874757" lon="-70.5065022622508">        <ele>1029.49998707821</ele>        <time></time>      </trkpt>
      <trkpt lat="-33.4292630407618" lon="-70.5059833902703">        <ele>1030.3067612193</ele>        <time></time>      </trkpt>
      <trkpt lat="-33.4293087522318" lon="-70.5054459642575">        <ele>1037.05635412527</ele>        <time></time>      </trkpt>
      <trkpt lat="-33.429175659279" lon="-70.504939143023">        <ele>1039.4096494805</ele>        <time></time>      </trkpt>
      <trkpt lat="-33.4290036386934" lon="-70.5044353937069">        <ele>1042.48332485417</ele>        <time></time>      </trkpt>
      <trkpt lat="-33.428794604348" lon="-70.5039567730224">        <ele>1044.06607819753</ele>        <time></time>      </trkpt>
      <trkpt lat="-33.42869634" lon="-70.50342818">        <ele>1046.33676712025</ele>        <time></time>      </trkpt>
      <trkpt lat="-33.42869634" lon="-70.50342818">        <ele>1046.45115803495</ele>        <time></time>      </trkpt>
      <trkpt lat="-33.4282457673944" lon="-70.5033467776408">        <ele>1033.0778667909</ele>        <time></time>      </trkpt>
      <trkpt lat="-33.4278393713349" lon="-70.5031347465945">        <ele>1028.09787691153</ele>        <time></time>      </trkpt>
      <trkpt lat="-33.4274932399251" lon="-70.5033304475297">        <ele>1026.82671277106</ele>        <time></time>      </trkpt>
      <trkpt lat="-33.4270908382966" lon="-70.503474449094">        <ele>1029.00558566722</ele>        <time></time>      </trkpt>
      <trkpt lat="-33.426661530413" lon="-70.5033436975185">        <ele>1037.11254071821</ele>        <time></time>      </trkpt>
      <trkpt lat="-33.4262122946586" lon="-70.5032982652491">        <ele>1037.97492881805</ele>        <time></time>      </trkpt>
      <trkpt lat="-33.4258165534401" lon="-70.5035253308736">        <ele>1027.27973085327</ele>        <time></time>      </trkpt>
      <trkpt lat="-33.4254136547048" lon="-70.5037793308349">        <ele>1025.119441008</ele>        <time></time>      </trkpt>
      <trkpt lat="-33.425019442007" lon="-70.5039062424328">        <ele>1020.13792958264</ele>        <time></time>      </trkpt>
      <trkpt lat="-33.424751210862" lon="-70.5042709405008">        <ele>1016.2668752563</ele>        <time></time>      </trkpt>
      <trkpt lat="-33.4244179454779" lon="-70.5045639909096">        <ele>1006.00070234752</ele>        <time></time>      </trkpt>
      <trkpt lat="-33.4240992230859" lon="-70.5048973470305">        <ele>995.084829293068</ele>        <time></time>      </trkpt>
      <trkpt lat="-33.4237443972755" lon="-70.5052234124538">        <ele>988.221780094386</ele>        <time></time>      </trkpt>
      <trkpt lat="-33.4234026292908" lon="-70.5054545923467">        <ele>982.480509221128</ele>        <time></time>      </trkpt>
      <trkpt lat="-33.422970882887" lon="-70.5054251528437">        <ele>976.274173704103</ele>        <time></time>      </trkpt>
      <trkpt lat="-33.4225684993996" lon="-70.5052325513912">        <ele>982.037701729278</ele>        <time></time>      </trkpt>
      <trkpt lat="-33.4221941677259" lon="-70.5049229478046">        <ele>990.684605652377</ele>        <time></time>      </trkpt>
      <trkpt lat="-33.4217780561383" lon="-70.5047218897078">        <ele>989.25316839187</ele>        <time></time>      </trkpt>
      <trkpt lat="-33.4213620920417" lon="-70.5045590830785">        <ele>997.474697027198</ele>        <time></time>      </trkpt>
      <trkpt lat="-33.4209500122262" lon="-70.5043625530097">        <ele>1000.90891322869</ele>        <time></time>      </trkpt>
      <trkpt lat="-33.4205226157648" lon="-70.5041850343652">        <ele>994.753102981994</ele>        <time></time>      </trkpt>
      <trkpt lat="-33.4201265613345" lon="-70.5039438949334">        <ele>1000.25672985792</ele>        <time></time>      </trkpt>
      <trkpt lat="-33.419739112248" lon="-70.5036716390948">        <ele>1002.7486332343</ele>        <time></time>      </trkpt>
      <trkpt lat="-33.419308932042" lon="-70.5035016896205">        <ele>1006.69188223258</ele>        <time></time>      </trkpt>
      <trkpt lat="-33.4188876943992" lon="-70.5033106097438">        <ele>1001.1452861649</ele>        <time></time>      </trkpt>
      <trkpt lat="-33.4184800536839" lon="-70.5030831473494">        <ele>995.358147242901</ele>        <time></time>      </trkpt>
      <trkpt lat="-33.4180803511079" lon="-70.502834260456">        <ele>992.722431787849</ele>        <time></time>      </trkpt>
      <trkpt lat="-33.4176556773415" lon="-70.5026477236979">        <ele>991.926451140959</ele>        <time></time>      </trkpt>
      <trkpt lat="-33.4172704672212" lon="-70.5024588524001">        <ele>995.354778348103</ele>        <time></time>      </trkpt>
      <trkpt lat="-33.4170608830744" lon="-70.5028911796313">        <ele>995.542978503983</ele>        <time></time>      </trkpt>
      <trkpt lat="-33.4170012024077" lon="-70.5034301889313">        <ele>992.290393566009</ele>        <time></time>      </trkpt>
      <trkpt lat="-33.4168695885903" lon="-70.5039161819638">        <ele>994.801673373125</ele>        <time></time>      </trkpt>
      <trkpt lat="-33.4164701693381" lon="-70.5041410964527">        <ele>1000.50795959968</ele>        <time></time>      </trkpt>
      <trkpt lat="-33.416030219277" lon="-70.5042633473502">        <ele>1013.70063378636</ele>        <time></time>      </trkpt>
      <trkpt lat="-33.4159826044618" lon="-70.503856931288">        <ele>1030.64553921591</ele>        <time></time>      </trkpt>
      <trkpt lat="-33.4157095831547" lon="-70.5036947952949">        <ele>1046.38348976932</ele>        <time></time>      </trkpt>
      <trkpt lat="-33.415598171" lon="-70.503574893">        <ele>1059.28590090872</ele>        <time></time>      </trkpt>
      <trkpt lat="-33.415598171" lon="-70.503574893">        <ele>1059.29162753768</ele>        <time></time>      </trkpt>
      <trkpt lat="-33.4157603727559" lon="-70.5031009639019">        <ele>1071.09646759062</ele>        <time></time>      </trkpt>
      <trkpt lat="-33.4157006384531" lon="-70.5025594271225">        <ele>1083.15171418861</ele>        <time></time>      </trkpt>
      <trkpt lat="-33.4156343981826" lon="-70.5020306524932">        <ele>1089.91109818075</ele>        <time></time>      </trkpt>
      <trkpt lat="-33.4155211566082" lon="-70.5016988438555">        <ele>1098.52644669725</ele>        <time></time>      </trkpt>
      <trkpt lat="-33.4153479292769" lon="-70.5013025350689">        <ele>1105.41429182969</ele>        <time></time>      </trkpt>
      <trkpt lat="-33.4152125195697" lon="-70.5007772834883">        <ele>1113.07334868369</ele>        <time></time>      </trkpt>
      <trkpt lat="-33.4152352441314" lon="-70.5002386802108">        <ele>1127.33444477899</ele>        <time></time>      </trkpt>
      <trkpt lat="-33.4153207659565" lon="-70.4997709956554">        <ele>1132.43572150394</ele>        <time></time>      </trkpt>
      <trkpt lat="-33.4150903250397" lon="-70.5002452077378">        <ele>1136.39191079554</ele>        <time></time>      </trkpt>
      <trkpt lat="-33.4149380752461" lon="-70.500683165144">        <ele>1137.94820842443</ele>        <time></time>      </trkpt>
      <trkpt lat="-33.4148143243194" lon="-70.5011590753232">        <ele>1136.65743517393</ele>        <time></time>      </trkpt>
      <trkpt lat="-33.4146919217435" lon="-70.5016482169971">        <ele>1135.88629221678</ele>        <time></time>      </trkpt>
      <trkpt lat="-33.4144787988089" lon="-70.5015749764114">        <ele>1144.36301211191</ele>        <time></time>      </trkpt>
      <trkpt lat="-33.4143408155491" lon="-70.5010533044158">        <ele>1155.42142268066</ele>        <time></time>      </trkpt>
      <trkpt lat="-33.4141867944847" lon="-70.5005409393606">        <ele>1167.55779682922</ele>        <time></time>      </trkpt>
      <trkpt lat="-33.4141602581639" lon="-70.5000220715591">        <ele>1180.31959819073</ele>        <time></time>      </trkpt>
      <trkpt lat="-33.4141883745004" lon="-70.499517452586">        <ele>1197.04698225319</ele>        <time></time>      </trkpt>
      <trkpt lat="-33.4142311395199" lon="-70.4989746252738">        <ele>1214.89718366744</ele>        <time></time>      </trkpt>
      <trkpt lat="-33.4142439288349" lon="-70.4984378198003">        <ele>1231.04069338046</ele>        <time></time>      </trkpt>
      <trkpt lat="-33.4142542225829" lon="-70.497894131584">        <ele>1242.85210765814</ele>        <time></time>      </trkpt>
      <trkpt lat="-33.414392101429" lon="-70.4973992259412">        <ele>1255.20625299716</ele>        <time></time>      </trkpt>
      <trkpt lat="-33.4146183394936" lon="-70.4969352644692">        <ele>1267.01323887816</ele>        <time></time>      </trkpt>
      <trkpt lat="-33.4147975981004" lon="-70.4964566391594">        <ele>1283.9727317874</ele>        <time></time>      </trkpt>
      <trkpt lat="-33.4147586144365" lon="-70.4959412275113">        <ele>1306.87306293</ele>        <time></time>      </trkpt>
      <trkpt lat="-33.4145945613828" lon="-70.495434304998">        <ele>1331.3686391807</ele>        <time></time>      </trkpt>
      <trkpt lat="-33.4145289933481" lon="-70.4949475179841">        <ele>1346.6983669039</ele>        <time></time>      </trkpt>
      <trkpt lat="-33.4144108144711" lon="-70.4944605865599">        <ele>1357.5400030989</ele>        <time></time>      </trkpt>
      <trkpt lat="-33.4144201008102" lon="-70.4939729427284">        <ele>1362.34281335323</ele>        <time></time>      </trkpt>
      <trkpt lat="-33.4141177161315" lon="-70.4935916738423">        <ele>1370.1687296954</ele>        <time></time>      </trkpt>
      <trkpt lat="-33.4139033496495" lon="-70.4931507420764">        <ele>1376.01100643972</ele>        <time></time>      </trkpt>
      <trkpt lat="-33.4140240810758" lon="-70.4928184824243">        <ele>1374.95397734123</ele>        <time></time>      </trkpt>
      <trkpt lat="-33.4143943029444" lon="-70.4925393214105">        <ele>1372.9500028695</ele>        <time></time>      </trkpt>
      <trkpt lat="-33.414795178053" lon="-70.4923732128374">        <ele>1370.03960635793</ele>        <time></time>      </trkpt>
      <trkpt lat="-33.4151543731952" lon="-70.4920809465169">        <ele>1361.96781664375</ele>        <time></time>      </trkpt>
      <trkpt lat="-33.4155925938555" lon="-70.4919477819815">        <ele>1361.14248025655</ele>        <time></time>      </trkpt>
      <trkpt lat="-33.4160436435278" lon="-70.4919278622482">        <ele>1359.50820566834</ele>        <time></time>      </trkpt>
      <trkpt lat="-33.416462047" lon="-70.491814778">        <ele>1362.66532459552</ele>        <time></time>      </trkpt>
      <trkpt lat="-33.416462047" lon="-70.491814778">        <ele>1362.80712411088</ele>        <time></time>      </trkpt>
      <trkpt lat="-33.4168423945067" lon="-70.4916250091655">        <ele>1363.27095605554</ele>        <time></time>      </trkpt>
      <trkpt lat="-33.4172748159195" lon="-70.4914912661569">        <ele>1362.7647117486</ele>        <time></time>      </trkpt>
      <trkpt lat="-33.4173136454961" lon="-70.4911674118287">        <ele>1356.25044301218</ele>        <time></time>      </trkpt>
      <trkpt lat="-33.4172760175797" lon="-70.4909134368892">        <ele>1347.24722187302</ele>        <time></time>      </trkpt>
      <trkpt lat="-33.4174819897846" lon="-70.4906526987919">        <ele>1342.15107253349</ele>        <time></time>      </trkpt>
      <trkpt lat="-33.4176512594124" lon="-70.4902276010407">        <ele>1332.54176414773</ele>        <time></time>      </trkpt>
      <trkpt lat="-33.4176292728158" lon="-70.4897419694">        <ele>1317.9625114331</ele>        <time></time>      </trkpt>
      <trkpt lat="-33.4173284186953" lon="-70.4895042517156">        <ele>1303.90628109906</ele>        <time></time>      </trkpt>
      <trkpt lat="-33.4171036490787" lon="-70.4891005990124">        <ele>1289.59272677173</ele>        <time></time>      </trkpt>
      <trkpt lat="-33.4166958846622" lon="-70.4890662017616">        <ele>1279.67466856354</ele>        <time></time>      </trkpt>
      <trkpt lat="-33.4162581642969" lon="-70.4889175910151">        <ele>1276.87429942969</ele>        <time></time>      </trkpt>
      <trkpt lat="-33.4158199959419" lon="-70.488825837148">        <ele>1266.18900831924</ele>        <time></time>      </trkpt>
      <trkpt lat="-33.4153753797492" lon="-70.4887316041383">        <ele>1259.2184921708</ele>        <time></time>      </trkpt>
      <trkpt lat="-33.4149317839406" lon="-70.4887829506723">        <ele>1254.41740523187</ele>        <time></time>      </trkpt>
      <trkpt lat="-33.4144912581229" lon="-70.4888828626438">        <ele>1247.76539545697</ele>        <time></time>      </trkpt>
      <trkpt lat="-33.4140400883532" lon="-70.4888559437248">        <ele>1244.71528730146</ele>        <time></time>      </trkpt>
      <trkpt lat="-33.413596505565" lon="-70.4889117249062">        <ele>1238.00927482387</ele>        <time></time>      </trkpt>
      <trkpt lat="-33.4131635342608" lon="-70.4889654441897">        <ele>1230.7350673778</ele>        <time></time>      </trkpt>
      <trkpt lat="-33.4127493328588" lon="-70.4890406716931">        <ele>1222.04598382826</ele>        <time></time>      </trkpt>
      <trkpt lat="-33.4123195929311" lon="-70.4891264779454">        <ele>1210.18791415967</ele>        <time></time>      </trkpt>
      <trkpt lat="-33.4119785273263" lon="-70.4892958958564">        <ele>1203.96900770261</ele>        <time></time>      </trkpt>
      <trkpt lat="-33.411564037362" lon="-70.4893622733392">        <ele>1194.81465912612</ele>        <time></time>      </trkpt>
      <trkpt lat="-33.4111448190966" lon="-70.4893643846903">        <ele>1187.91573338052</ele>        <time></time>      </trkpt>
      <trkpt lat="-33.4107268528966" lon="-70.4893682910224">        <ele>1181.941652087</ele>        <time></time>      </trkpt>
      <trkpt lat="-33.4102966197752" lon="-70.4894004762643">        <ele>1171.0504976213</ele>        <time></time>      </trkpt>
      <trkpt lat="-33.4098490861648" lon="-70.4893142239382">        <ele>1163.30887696791</ele>        <time></time>      </trkpt>
      <trkpt lat="-33.4094417195121" lon="-70.4890848134099">        <ele>1157.31852782424</ele>        <time></time>      </trkpt>
      <trkpt lat="-33.4091515696836" lon="-70.4886726736142">        <ele>1154.76665778932</ele>        <time></time>      </trkpt>
      <trkpt lat="-33.4092509455972" lon="-70.4882810695964">        <ele>1157.62866888107</ele>        <time></time>      </trkpt>
      <trkpt lat="-33.4093316046935" lon="-70.4878236800234">        <ele>1161.76118790224</ele>        <time></time>      </trkpt>
      <trkpt lat="-33.409096957774" lon="-70.4874343441361">        <ele>1162.89110498051</ele>        <time></time>      </trkpt>
      <trkpt lat="-33.4087123463283" lon="-70.4872667567949">        <ele>1163.95404596255</ele>        <time></time>      </trkpt>
      <trkpt lat="-33.4085372710414" lon="-70.4868739361479">        <ele>1170.62842407497</ele>        <time></time>      </trkpt>
      <trkpt lat="-33.4084351808501" lon="-70.4863506951545">        <ele>1176.49694454169</ele>        <time></time>      </trkpt>
      <trkpt lat="-33.4086372782408" lon="-70.4858733037709">        <ele>1185.39301268781</ele>        <time></time>      </trkpt>
      <trkpt lat="-33.4087343230125" lon="-70.4853525548535">        <ele>1195.33603314218</ele>        <time></time>      </trkpt>
      <trkpt lat="-33.408698363" lon="-70.484819458">        <ele>1204.76155070426</ele>        <time></time>      </trkpt>
      <trkpt lat="-33.408698363" lon="-70.484819458">        <ele>1204.77070176041</ele>        <time></time>      </trkpt>
      <trkpt lat="-33.4086127158953" lon="-70.4842896716215">        <ele>1212.33377484911</ele>        <time></time>      </trkpt>
      <trkpt lat="-33.4085911150556" lon="-70.4837492121796">        <ele>1221.88163426161</ele>        <time></time>      </trkpt>
      <trkpt lat="-33.4084959232058" lon="-70.4832217612414">        <ele>1228.34468484775</ele>        <time></time>      </trkpt>
      <trkpt lat="-33.4083258141927" lon="-70.4827276675377">        <ele>1233.86495272071</ele>        <time></time>      </trkpt>
      <trkpt lat="-33.4080606815428" lon="-70.4823061430152">        <ele>1239.9088284956</ele>        <time></time>      </trkpt>
      <trkpt lat="-33.4081110548732" lon="-70.4817749707696">        <ele>1245.33918174209</ele>        <time></time>      </trkpt>
      <trkpt lat="-33.4080614037715" lon="-70.4812825635676">        <ele>1247.6365681408</ele>        <time></time>      </trkpt>
      <trkpt lat="-33.4076415094542" lon="-70.4812507929615">        <ele>1245.98906651806</ele>        <time></time>      </trkpt>
      <trkpt lat="-33.4072337298857" lon="-70.4811384444135">        <ele>1252.10972205186</ele>        <time></time>      </trkpt>
      <trkpt lat="-33.4069715155736" lon="-70.4807094034248">        <ele>1265.70782872319</ele>        <time></time>      </trkpt>
      <trkpt lat="-33.4070844319961" lon="-70.4802749562503">        <ele>1270.39334092897</ele>        <time></time>      </trkpt>
      <trkpt lat="-33.4074848060603" lon="-70.4801140711984">        <ele>1278.65409626775</ele>        <time></time>      </trkpt>
      <trkpt lat="-33.4078216467934" lon="-70.4798464595294">        <ele>1292.57717215542</ele>        <time></time>      </trkpt>
      <trkpt lat="-33.4079945644512" lon="-70.4793744168812">        <ele>1306.82270385309</ele>        <time></time>      </trkpt>
      <trkpt lat="-33.4082552542926" lon="-70.4790048679855">        <ele>1327.62384494794</ele>        <time></time>      </trkpt>
      <trkpt lat="-33.4085921101584" lon="-70.478710581527">        <ele>1339.32134970668</ele>        <time></time>      </trkpt>
      <trkpt lat="-33.408913398545" lon="-70.4783502252015">        <ele>1340.75080774025</ele>        <time></time>      </trkpt>
      <trkpt lat="-33.4089798311251" lon="-70.4778196904332">        <ele>1351.87652426866</ele>        <time></time>      </trkpt>
      <trkpt lat="-33.408945354691" lon="-70.4772791365885">        <ele>1358.65582362452</ele>        <time></time>      </trkpt>
      <trkpt lat="-33.4089114112544" lon="-70.4767382914175">        <ele>1357.89042615772</ele>        <time></time>      </trkpt>
      <trkpt lat="-33.4089904407683" lon="-70.4762136102935">        <ele>1358.95672857464</ele>        <time></time>      </trkpt>
      <trkpt lat="-33.4088946383776" lon="-70.4756945231516">        <ele>1357.34954016049</ele>        <time></time>      </trkpt>
      <trkpt lat="-33.4088091362321" lon="-70.4751737266793">        <ele>1356.54410457201</ele>        <time></time>      </trkpt>
      <trkpt lat="-33.4087753718695" lon="-70.4746419748571">        <ele>1356.62645730899</ele>        <time></time>      </trkpt>
      <trkpt lat="-33.4089175784626" lon="-70.4741782636732">        <ele>1357.4161455834</ele>        <time></time>      </trkpt>
      <trkpt lat="-33.4090321013838" lon="-70.473689336849">        <ele>1352.16305749037</ele>        <time></time>      </trkpt>
      <trkpt lat="-33.4091704298548" lon="-70.4731947929906">        <ele>1347.61640225659</ele>        <time></time>      </trkpt>
      <trkpt lat="-33.4093195957422" lon="-70.4726931976596">        <ele>1341.14680132553</ele>        <time></time>      </trkpt>
      <trkpt lat="-33.4093321323112" lon="-70.4722413082891">        <ele>1332.64275643142</ele>        <time></time>      </trkpt>
      <trkpt lat="-33.409758178" lon="-70.472073076">        <ele>1341.39171161067</ele>        <time></time>      </trkpt>
      <trkpt lat="-33.409758178" lon="-70.472073076">        <ele>1341.48606069225</ele>        <time></time>      </trkpt>
      <trkpt lat="-33.410185921396" lon="-70.4719320607024">        <ele>1354.6038524082</ele>        <time></time>      </trkpt>
      <trkpt lat="-33.410606218667" lon="-70.4718867228793">        <ele>1364.0817112122</ele>        <time></time>      </trkpt>
      <trkpt lat="-33.4110079571672" lon="-70.4716537333992">        <ele>1373.48595613931</ele>        <time></time>      </trkpt>
      <trkpt lat="-33.4114419084482" lon="-70.4717263208072">        <ele>1380.97935415241</ele>        <time></time>      </trkpt>
      <trkpt lat="-33.4118528577205" lon="-70.4718900318061">        <ele>1392.90562007657</ele>        <time></time>      </trkpt>
      <trkpt lat="-33.4121490923777" lon="-70.4715569457386">        <ele>1400.43357546389</ele>        <time></time>      </trkpt>
      <trkpt lat="-33.4124882493894" lon="-70.4712250052854">        <ele>1416.27737546646</ele>        <time></time>      </trkpt>
      <trkpt lat="-33.4128484488908" lon="-70.4709091258745">        <ele>1431.34981034802</ele>        <time></time>      </trkpt>
      <trkpt lat="-33.4132685275159" lon="-70.4708161197889">        <ele>1442.00077122163</ele>        <time></time>      </trkpt>
      <trkpt lat="-33.4137082883787" lon="-70.4708073567749">        <ele>1458.33260335581</ele>        <time></time>      </trkpt>
      <trkpt lat="-33.4139628833767" lon="-70.4704004069955">        <ele>1479.57431128113</ele>        <time></time>      </trkpt>
      <trkpt lat="-33.4142265762706" lon="-70.4700883970407">        <ele>1493.40398470101</ele>        <time></time>      </trkpt>
      <trkpt lat="-33.414134388" lon="-70.469601244">        <ele>1507.29145462843</ele>        <time></time>      </trkpt>
      <trkpt lat="-33.414134388" lon="-70.469601244">        <ele>1507.04966019521</ele>        <time></time>      </trkpt>
      <trkpt lat="-33.4140400850728" lon="-70.4691321482005">        <ele>1526.23308461324</ele>        <time></time>      </trkpt>
      <trkpt lat="-33.4140958159248" lon="-70.4686570894606">        <ele>1553.17052513016</ele>        <time></time>      </trkpt>
      <trkpt lat="-33.4140972993526" lon="-70.4682478426486">        <ele>1572.69615757483</ele>        <time></time>      </trkpt>
      <trkpt lat="-33.4145177779752" lon="-70.4681102481724">        <ele>1578.59870269211</ele>        <time></time>      </trkpt>
      <trkpt lat="-33.4149315205538" lon="-70.4681750442053">        <ele>1590.31423129464</ele>        <time></time>      </trkpt>
      <trkpt lat="-33.4153353993591" lon="-70.4683308388023">        <ele>1599.88697897682</ele>        <time></time>      </trkpt>
      <trkpt lat="-33.4156660107396" lon="-70.4685646826701">        <ele>1617.21601441282</ele>        <time></time>      </trkpt>
      <trkpt lat="-33.4158311533349" lon="-70.4690300528011">        <ele>1611.02060612709</ele>        <time></time>      </trkpt>
      <trkpt lat="-33.4161917971861" lon="-70.469297274282">        <ele>1619.21830724393</ele>        <time></time>      </trkpt>
      <trkpt lat="-33.4164928220176" lon="-70.4694927202188">        <ele>1638.70711192003</ele>        <time></time>      </trkpt>
      <trkpt lat="-33.4167161866867" lon="-70.4695787569953">        <ele>1651.40068759064</ele>        <time></time>      </trkpt>
      <trkpt lat="-33.4170717799593" lon="-70.4697972156945">        <ele>1672.61562833393</ele>        <time></time>      </trkpt>
      <trkpt lat="-33.417358809" lon="-70.469559009">        <ele>1686.45739518742</ele>        <time></time>      </trkpt>
      <trkpt lat="-33.417358809" lon="-70.469559009">        <ele>1686.65295124913</ele>        <time></time>      </trkpt>
      <trkpt lat="-33.4177304653262" lon="-70.4697162553454">        <ele>1693.73871624466</ele>        <time></time>      </trkpt>
      <trkpt lat="-33.4181390567892" lon="-70.4696307244459">        <ele>1687.40944484518</ele>        <time></time>      </trkpt>
      <trkpt lat="-33.4185036372249" lon="-70.4693308372768">        <ele>1675.18435819969</ele>        <time></time>      </trkpt>
      <trkpt lat="-33.4189082013884" lon="-70.4691010246812">        <ele>1654.64986513675</ele>        <time></time>      </trkpt>
      <trkpt lat="-33.4191666854664" lon="-70.4687104172255">        <ele>1642.00459552127</ele>        <time></time>      </trkpt>
      <trkpt lat="-33.4194508593637" lon="-70.4683342812565">        <ele>1625.70354067146</ele>        <time></time>      </trkpt>
      <trkpt lat="-33.4198500754667" lon="-70.4684739668766">        <ele>1608.80318033436</ele>        <time></time>      </trkpt>
      <trkpt lat="-33.4202494687887" lon="-70.4686627118595">        <ele>1600.16097374007</ele>        <time></time>      </trkpt>
      <trkpt lat="-33.4206657810384" lon="-70.4688083304971">        <ele>1586.54766083206</ele>        <time></time>      </trkpt>
      <trkpt lat="-33.4211036499357" lon="-70.4689005132434">        <ele>1573.26033133277</ele>        <time></time>      </trkpt>
      <trkpt lat="-33.421541230657" lon="-70.4690069052111">        <ele>1568.74351929816</ele>        <time></time>      </trkpt>
      <trkpt lat="-33.4219649792095" lon="-70.4691415612746">        <ele>1564.30073468303</ele>        <time></time>      </trkpt>
      <trkpt lat="-33.4223707338083" lon="-70.4693506113442">        <ele>1559.02876829629</ele>        <time></time>      </trkpt>
      <trkpt lat="-33.4228057886164" lon="-70.4694771473579">        <ele>1549.43532888242</ele>        <time></time>      </trkpt>
      <trkpt lat="-33.4232499615568" lon="-70.4695724353455">        <ele>1540.26125005479</ele>        <time></time>      </trkpt>
      <trkpt lat="-33.4236914548206" lon="-70.4696792579521">        <ele>1529.0557695042</ele>        <time></time>      </trkpt>
      <trkpt lat="-33.4241257188721" lon="-70.4697817309905">        <ele>1525.28657795376</ele>        <time></time>      </trkpt>
      <trkpt lat="-33.424576758279" lon="-70.4697970033136">        <ele>1517.64265468511</ele>        <time></time>      </trkpt>
      <trkpt lat="-33.425026357648" lon="-70.4697610234279">        <ele>1513.10373483106</ele>        <time></time>      </trkpt>
      <trkpt lat="-33.4254744372541" lon="-70.4696849366248">        <ele>1508.34484567906</ele>        <time></time>      </trkpt>
      <trkpt lat="-33.4258981771118" lon="-70.4697798689858">        <ele>1505.55668077298</ele>        <time></time>      </trkpt>
      <trkpt lat="-33.4263433000719" lon="-70.469856071878">        <ele>1502.50676791312</ele>        <time></time>      </trkpt>
      <trkpt lat="-33.4267887385366" lon="-70.4699238054035">        <ele>1492.27249895716</ele>        <time></time>      </trkpt>
      <trkpt lat="-33.4272372343202" lon="-70.4699919548923">        <ele>1492.02098884857</ele>        <time></time>      </trkpt>
      <trkpt lat="-33.4276852196803" lon="-70.4700205910622">        <ele>1488.92851664664</ele>        <time></time>      </trkpt>
      <trkpt lat="-33.4281373766306" lon="-70.4700116446093">        <ele>1483.18123922232</ele>        <time></time>      </trkpt>
      <trkpt lat="-33.4285869719192" lon="-70.4699975914787">        <ele>1473.64048907149</ele>        <time></time>      </trkpt>
      <trkpt lat="-33.428958892" lon="-70.470232628">        <ele>1467.81339481472</ele>        <time></time>      </trkpt>
      <trkpt lat="-33.428958892" lon="-70.470232628">        <ele>1467.80122482147</ele>        <time></time>      </trkpt>
      <trkpt lat="-33.4293054532428" lon="-70.4705651988927">        <ele>1461.67058358274</ele>        <time></time>      </trkpt>
      <trkpt lat="-33.4296574943905" lon="-70.4708785618441">        <ele>1460.33301668586</ele>        <time></time>      </trkpt>
      <trkpt lat="-33.4300463590429" lon="-70.4711366198704">        <ele>1456.39555391039</ele>        <time></time>      </trkpt>
      <trkpt lat="-33.4304235346318" lon="-70.4714162954354">        <ele>1452.20890805037</ele>        <time></time>      </trkpt>
      <trkpt lat="-33.4308199606631" lon="-70.4716544951061">        <ele>1449.79111991265</ele>        <time></time>      </trkpt>
      <trkpt lat="-33.4312505918564" lon="-70.4718128046204">        <ele>1447.62557472457</ele>        <time></time>      </trkpt>
      <trkpt lat="-33.4316855447374" lon="-70.4719597797422">        <ele>1446.67690226879</ele>        <time></time>      </trkpt>
      <trkpt lat="-33.4321231078816" lon="-70.472088981963">        <ele>1443.36675409906</ele>        <time></time>      </trkpt>
      <trkpt lat="-33.4325588131573" lon="-70.4719607794834">        <ele>1446.45830546953</ele>        <time></time>      </trkpt>
      <trkpt lat="-33.4327629638983" lon="-70.4715131109501">        <ele>1447.10897178737</ele>        <time></time>      </trkpt>
      <trkpt lat="-33.433114928752" lon="-70.4711968959769">        <ele>1445.42898077337</ele>        <time></time>      </trkpt>
      <trkpt lat="-33.4333980494625" lon="-70.47082370209">        <ele>1452.40872290145</ele>        <time></time>      </trkpt>
      <trkpt lat="-33.4337381063869" lon="-70.470530313323">        <ele>1458.2861712997</ele>        <time></time>      </trkpt>
      <trkpt lat="-33.4341651848069" lon="-70.4703520088971">        <ele>1457.51437822269</ele>        <time></time>      </trkpt>
      <trkpt lat="-33.4344898190677" lon="-70.4699818820113">        <ele>1455.86886249191</ele>        <time></time>      </trkpt>
      <trkpt lat="-33.4347570204445" lon="-70.4695821020498">        <ele>1463.81346099608</ele>        <time></time>      </trkpt>
      <trkpt lat="-33.4349879502662" lon="-70.4691361588117">        <ele>1465.35193663798</ele>        <time></time>      </trkpt>
      <trkpt lat="-33.4352482367813" lon="-70.4687473773206">        <ele>1470.10143165898</ele>        <time></time>      </trkpt>
      <trkpt lat="-33.4354327887994" lon="-70.4682819826293">        <ele>1479.39921541398</ele>        <time></time>      </trkpt>
      <trkpt lat="-33.4356781564279" lon="-70.4678437917865">        <ele>1497.67679945953</ele>        <time></time>      </trkpt>
      <trkpt lat="-33.4360637408742" lon="-70.4676585796907">        <ele>1509.23646878202</ele>        <time></time>      </trkpt>
      <trkpt lat="-33.4364632144942" lon="-70.4674030822095">        <ele>1512.90773217834</ele>        <time></time>      </trkpt>
      <trkpt lat="-33.4368475650628" lon="-70.4671272406704">        <ele>1517.24824205523</ele>        <time></time>      </trkpt>
      <trkpt lat="-33.4371986304855" lon="-70.466794144004">        <ele>1520.65155162496</ele>        <time></time>      </trkpt>
      <trkpt lat="-33.4375397904067" lon="-70.4664539245402">        <ele>1529.14476397981</ele>        <time></time>      </trkpt>
      <trkpt lat="-33.4379467333468" lon="-70.4662358165082">        <ele>1531.04348370258</ele>        <time></time>      </trkpt>
      <trkpt lat="-33.4383617588463" lon="-70.4660283207383">        <ele>1530.22460418818</ele>        <time></time>      </trkpt>
      <trkpt lat="-33.4386299444522" lon="-70.4656120913928">        <ele>1534.75763876202</ele>        <time></time>      </trkpt>
      <trkpt lat="-33.4389706826792" lon="-70.4652545847504">        <ele>1536.85397132252</ele>        <time></time>      </trkpt>
      <trkpt lat="-33.4393994545747" lon="-70.4650846826728">        <ele>1533.86014055315</ele>        <time></time>      </trkpt>
      <trkpt lat="-33.4397883342075" lon="-70.4648577467155">        <ele>1532.66827881041</ele>        <time></time>      </trkpt>
      <trkpt lat="-33.4401027987686" lon="-70.4644676608949">        <ele>1540.01843331663</ele>        <time></time>      </trkpt>
      <trkpt lat="-33.4403050055638" lon="-70.4640160679538">        <ele>1544.58833139814</ele>        <time></time>      </trkpt>
      <trkpt lat="-33.4403423950221" lon="-70.4636160139017">        <ele>1551.97792767951</ele>        <time></time>      </trkpt>
      <trkpt lat="-33.4404096130008" lon="-70.4632093616223">        <ele>1556.47573997825</ele>        <time></time>      </trkpt>
      <trkpt lat="-33.4404273291443" lon="-70.4628501440031">        <ele>1559.27262623443</ele>        <time></time>      </trkpt>
      <trkpt lat="-33.4406639769879" lon="-70.4623948522818">        <ele>1558.35949563409</ele>        <time></time>      </trkpt>
      <trkpt lat="-33.4410131367049" lon="-70.4620475257473">        <ele>1567.20026314115</ele>        <time></time>      </trkpt>
      <trkpt lat="-33.4413749491007" lon="-70.4617194993738">        <ele>1571.93347369914</ele>        <time></time>      </trkpt>
      <trkpt lat="-33.4416156488635" lon="-70.4617598570774">        <ele>1575.80716985104</ele>        <time></time>      </trkpt>
      <trkpt lat="-33.441732045141" lon="-70.4622375225844">        <ele>1567.60214546552</ele>        <time></time>      </trkpt>
      <trkpt lat="-33.4419222171201" lon="-70.4627158572764">        <ele>1560.87420465751</ele>        <time></time>      </trkpt>
      <trkpt lat="-33.4420967751724" lon="-70.4631910746872">        <ele>1558.77218472833</ele>        <time></time>      </trkpt>
      <trkpt lat="-33.4422309156415" lon="-70.4636922614486">        <ele>1559.72603657973</ele>        <time></time>      </trkpt>
      <trkpt lat="-33.442348163" lon="-70.464207753">        <ele>1564.94939167508</ele>        <time></time>      </trkpt>
      <trkpt lat="-33.442348163" lon="-70.464207753">        <ele>1565.0983886938</ele>        <time></time>      </trkpt>
      <trkpt lat="-33.4424821709341" lon="-70.4647098118784">        <ele>1569.86092979179</ele>        <time></time>      </trkpt>
      <trkpt lat="-33.4425972735862" lon="-70.465203083268">        <ele>1569.12506854652</ele>        <time></time>      </trkpt>
      <trkpt lat="-33.4426955137416" lon="-70.465706756565">        <ele>1565.02767396922</ele>        <time></time>      </trkpt>
      <trkpt lat="-33.4429508226942" lon="-70.4660429909058">        <ele>1566.13788880892</ele>        <time></time>      </trkpt>
      <trkpt lat="-33.4433432971355" lon="-70.4662260218188">        <ele>1564.88447250506</ele>        <time></time>      </trkpt>
      <trkpt lat="-33.4437880043774" lon="-70.4662717722683">        <ele>1558.82599358805</ele>        <time></time>      </trkpt>
      <trkpt lat="-33.4440283529179" lon="-70.4665613014068">        <ele>1553.01053076571</ele>        <time></time>      </trkpt>
      <trkpt lat="-33.4436527042839" lon="-70.4667829432142">        <ele>1552.38801680385</ele>        <time></time>      </trkpt>
      <trkpt lat="-33.4432152874154" lon="-70.4668510618514">        <ele>1546.92393526054</ele>        <time></time>      </trkpt>
      <trkpt lat="-33.442803158452" lon="-70.4670416586876">        <ele>1541.63658371395</ele>        <time></time>      </trkpt>
      <trkpt lat="-33.4423738060101" lon="-70.4671682213433">        <ele>1534.4416945057</ele>        <time></time>      </trkpt>
      <trkpt lat="-33.4420661930633" lon="-70.4675306750556">        <ele>1544.0987701829</ele>        <time></time>      </trkpt>
      <trkpt lat="-33.4416379997149" lon="-70.4676313879573">        <ele>1540.54845949986</ele>        <time></time>      </trkpt>
      <trkpt lat="-33.4415017961183" lon="-70.468112829843">        <ele>1546.67999132884</ele>        <time></time>      </trkpt>
      <trkpt lat="-33.441265674498" lon="-70.4685078323526">        <ele>1547.10558324921</ele>        <time></time>      </trkpt>
      <trkpt lat="-33.4408397268046" lon="-70.4686847245681">        <ele>1540.43708506362</ele>        <time></time>      </trkpt>
      <trkpt lat="-33.4404020627405" lon="-70.4688136377415">        <ele>1534.7116431224</ele>        <time></time>      </trkpt>
      <trkpt lat="-33.439958528973" lon="-70.4689107916107">        <ele>1525.93285569492</ele>        <time></time>      </trkpt>
      <trkpt lat="-33.4395131653343" lon="-70.4689894362466">        <ele>1518.41273597651</ele>        <time></time>      </trkpt>
      <trkpt lat="-33.4390704753833" lon="-70.4690867200167">        <ele>1514.13105326978</ele>        <time></time>      </trkpt>
      <trkpt lat="-33.4386508207232" lon="-70.4692829951543">        <ele>1513.00840451172</ele>        <time></time>      </trkpt>
      <trkpt lat="-33.4382472811238" lon="-70.4695246494254">        <ele>1506.1489610031</ele>        <time></time>      </trkpt>
      <trkpt lat="-33.437827557767" lon="-70.4697204597052">        <ele>1495.99549155503</ele>        <time></time>      </trkpt>
      <trkpt lat="-33.4373869332569" lon="-70.4698292359316">        <ele>1493.022099409</ele>        <time></time>      </trkpt>
      <trkpt lat="-33.4369725830639" lon="-70.4700331874712">        <ele>1490.5741658148</ele>        <time></time>      </trkpt>
      <trkpt lat="-33.436626754561" lon="-70.4703757184477">        <ele>1487.90153746484</ele>        <time></time>      </trkpt>
      <trkpt lat="-33.4362900744543" lon="-70.4707260851883">        <ele>1485.9219750994</ele>        <time></time>      </trkpt>
      <trkpt lat="-33.4359262147283" lon="-70.4710406241696">        <ele>1480.52518861267</ele>        <time></time>      </trkpt>
      <trkpt lat="-33.4355651359857" lon="-70.4713624358688">        <ele>1469.53144544005</ele>        <time></time>      </trkpt>
      <trkpt lat="-33.4352981001792" lon="-70.4717932984385">        <ele>1458.6875850927</ele>        <time></time>      </trkpt>
      <trkpt lat="-33.4350651328627" lon="-70.4722534165827">        <ele>1449.53934915971</ele>        <time></time>      </trkpt>
      <trkpt lat="-33.4349094801096" lon="-70.4727463902886">        <ele>1448.50362370012</ele>        <time></time>      </trkpt>
      <trkpt lat="-33.4345264510675" lon="-70.4730221695605">        <ele>1440.82681858956</ele>        <time></time>      </trkpt>
      <trkpt lat="-33.434435995" lon="-70.472838748">        <ele>1438.48427716253</ele>        <time></time>      </trkpt>
      <trkpt lat="-33.434435995" lon="-70.472838748">        <ele>1438.27975272095</ele>        <time></time>      </trkpt>
      <trkpt lat="-33.4343470599183" lon="-70.4725922697197">        <ele>1430.96785256769</ele>        <time></time>      </trkpt>
      <trkpt lat="-33.4339492320089" lon="-70.4728717730422">        <ele>1419.63117392253</ele>        <time></time>      </trkpt>
      <trkpt lat="-33.4341539700724" lon="-70.4723909588532">        <ele>1418.79279899196</ele>        <time></time>      </trkpt>
      <trkpt lat="-33.4343561322805" lon="-70.4718935194157">        <ele>1421.58761556664</ele>        <time></time>      </trkpt>
      <trkpt lat="-33.4344503424343" lon="-70.4714231669109">        <ele>1425.15340863367</ele>        <time></time>      </trkpt>
      <trkpt lat="-33.4342323779585" lon="-70.4710490569427">        <ele>1434.99897801991</ele>        <time></time>      </trkpt>
      <trkpt lat="-33.4337894021383" lon="-70.471121130912">        <ele>1436.67522517693</ele>        <time></time>      </trkpt>
      <trkpt lat="-33.4333717839473" lon="-70.4713623703622">        <ele>1438.11242878245</ele>        <time></time>      </trkpt>
      <trkpt lat="-33.4330366952066" lon="-70.4717462683963">        <ele>1442.53350508205</ele>        <time></time>      </trkpt>
      <trkpt lat="-33.4327232367842" lon="-70.4721492124869">        <ele>1443.85863865701</ele>        <time></time>      </trkpt>
      <trkpt lat="-33.4324726056704" lon="-70.4726169645993">        <ele>1442.133466938</ele>        <time></time>      </trkpt>
      <trkpt lat="-33.4321607406831" lon="-70.4730285773845">        <ele>1446.81396348804</ele>        <time></time>      </trkpt>
      <trkpt lat="-33.4320763255077" lon="-70.4735457868904">        <ele>1451.6252176954</ele>        <time></time>      </trkpt>
      <trkpt lat="-33.4320989781231" lon="-70.4740942733905">        <ele>1451.38194861816</ele>        <time></time>      </trkpt>
      <trkpt lat="-33.431942109165" lon="-70.4745987316021">        <ele>1449.37505399567</ele>        <time></time>      </trkpt>
      <trkpt lat="-33.4317920308262" lon="-70.4751247617518">        <ele>1446.2842520793</ele>        <time></time>      </trkpt>
      <trkpt lat="-33.4317123956103" lon="-70.4756696518229">        <ele>1450.79604362972</ele>        <time></time>      </trkpt>
      <trkpt lat="-33.4315121681828" lon="-70.4761696233472">        <ele>1455.75525637069</ele>        <time></time>      </trkpt>
      <trkpt lat="-33.4312369350243" lon="-70.4766152805739">        <ele>1464.90027469267</ele>        <time></time>      </trkpt>
      <trkpt lat="-33.4311110883187" lon="-70.4771307860715">        <ele>1467.07710604945</ele>        <time></time>      </trkpt>
      <trkpt lat="-33.4313868762425" lon="-70.4775328236291">        <ele>1482.31060018821</ele>        <time></time>      </trkpt>
      <trkpt lat="-33.4318138382334" lon="-70.477741712738">        <ele>1475.82630011869</ele>        <time></time>      </trkpt>
      <trkpt lat="-33.4322504163012" lon="-70.4779357926296">        <ele>1497.86027926691</ele>        <time></time>      </trkpt>
      <trkpt lat="-33.4326780046502" lon="-70.4781571470906">        <ele>1506.05675519331</ele>        <time></time>      </trkpt>
      <trkpt lat="-33.433063953" lon="-70.47844149">        <ele>1499.2287753606</ele>        <time></time>      </trkpt>
      <trkpt lat="-33.433063953" lon="-70.47844149">        <ele>1499.34852725363</ele>        <time></time>      </trkpt>
      <trkpt lat="-33.4327559925969" lon="-70.4788411908314">        <ele>1488.85660150682</ele>        <time></time>      </trkpt>
      <trkpt lat="-33.43231391453" lon="-70.4790034406489">        <ele>1493.70322951352</ele>        <time></time>      </trkpt>
      <trkpt lat="-33.4318992653965" lon="-70.479234401461">        <ele>1491.02213392197</ele>        <time></time>      </trkpt>
      <trkpt lat="-33.4315095118127" lon="-70.4795338893211">        <ele>1490.89916810491</ele>        <time></time>      </trkpt>
      <trkpt lat="-33.4312297545245" lon="-70.4799571435807">        <ele>1484.88697813853</ele>        <time></time>      </trkpt>
      <trkpt lat="-33.4309480061948" lon="-70.4803915628621">        <ele>1475.50628943918</ele>        <time></time>      </trkpt>
      <trkpt lat="-33.4306581655841" lon="-70.480819597259">        <ele>1468.21211487263</ele>        <time></time>      </trkpt>
      <trkpt lat="-33.4302458669406" lon="-70.4810598647962">        <ele>1458.96249133154</ele>        <time></time>      </trkpt>
      <trkpt lat="-33.4297920077242" lon="-70.4811705714071">        <ele>1470.07055687799</ele>        <time></time>      </trkpt>
      <trkpt lat="-33.4297911862304" lon="-70.4817053065308">        <ele>1462.24659211078</ele>        <time></time>      </trkpt>
      <trkpt lat="-33.4298268165809" lon="-70.4822338481567">        <ele>1455.78874317783</ele>        <time></time>      </trkpt>
      <trkpt lat="-33.4295321040387" lon="-70.4826434339094">        <ele>1460.54514837479</ele>        <time></time>      </trkpt>
      <trkpt lat="-33.4291610040154" lon="-70.4829637793512">        <ele>1461.01231583519</ele>        <time></time>      </trkpt>
      <trkpt lat="-33.4289075516535" lon="-70.4833147433673">        <ele>1462.0365811171</ele>        <time></time>      </trkpt>
      <trkpt lat="-33.4291685433006" lon="-70.4837572232133">        <ele>1452.44894166677</ele>        <time></time>      </trkpt>
      <trkpt lat="-33.4291290665833" lon="-70.4842991420867">        <ele>1463.92189049931</ele>        <time></time>      </trkpt>
      <trkpt lat="-33.4295316070235" lon="-70.4845097450526">        <ele>1464.65153541835</ele>        <time></time>      </trkpt>
      <trkpt lat="-33.4299764005121" lon="-70.4846677601807">        <ele>1470.16711075323</ele>        <time></time>      </trkpt>
      <trkpt lat="-33.4304012206101" lon="-70.4848674489216">        <ele>1478.27053545118</ele>        <time></time>      </trkpt>
      <trkpt lat="-33.4308532489183" lon="-70.4849950245821">        <ele>1468.15783576639</ele>        <time></time>      </trkpt>
      <trkpt lat="-33.4308201699625" lon="-70.4854575349076">        <ele>1469.74328465695</ele>        <time></time>      </trkpt>
      <trkpt lat="-33.4305109928734" lon="-70.4858636654024">        <ele>1468.91043565394</ele>        <time></time>      </trkpt>
      <trkpt lat="-33.430377006017" lon="-70.4863931795104">        <ele>1468.07699183044</ele>        <time></time>      </trkpt>
      <trkpt lat="-33.4304148825437" lon="-70.4869350870799">        <ele>1466.2248473893</ele>        <time></time>      </trkpt>
      <trkpt lat="-33.4307091493095" lon="-70.4873556375327">        <ele>1461.62611068408</ele>        <time></time>      </trkpt>
      <trkpt lat="-33.43096621867" lon="-70.4878178652287">        <ele>1461.73104744114</ele>        <time></time>      </trkpt>
      <trkpt lat="-33.431220849" lon="-70.488271365">        <ele>1453.69632506602</ele>        <time></time>      </trkpt>
      <trkpt lat="-33.431220849" lon="-70.488271365">        <ele>1453.78319154369</ele>        <time></time>      </trkpt>
      <trkpt lat="-33.4314405587293" lon="-70.4887211463492">        <ele>1453.24350831282</ele>        <time></time>      </trkpt>
      <trkpt lat="-33.431822180794" lon="-70.4889830099902">        <ele>1451.16378069299</ele>        <time></time>      </trkpt>
      <trkpt lat="-33.432161318447" lon="-70.4886649252965">        <ele>1448.68909065312</ele>        <time></time>      </trkpt>
      <trkpt lat="-33.4325796055692" lon="-70.4885884529528">        <ele>1446.54052080771</ele>        <time></time>      </trkpt>
      <trkpt lat="-33.4329690378754" lon="-70.4888439850892">        <ele>1439.81993357794</ele>        <time></time>      </trkpt>
      <trkpt lat="-33.4330525069697" lon="-70.4893337901408">        <ele>1427.63298593556</ele>        <time></time>      </trkpt>
      <trkpt lat="-33.4328578846272" lon="-70.4898178859724">        <ele>1420.54331783155</ele>        <time></time>      </trkpt>
      <trkpt lat="-33.4326442868132" lon="-70.4902517176838">        <ele>1412.28274737537</ele>        <time></time>      </trkpt>
      <trkpt lat="-33.4324512444762" lon="-70.4907310752461">        <ele>1403.54990332103</ele>        <time></time>      </trkpt>
      <trkpt lat="-33.4323483552743" lon="-70.4912510110564">        <ele>1392.34990427569</ele>        <time></time>      </trkpt>
      <trkpt lat="-33.4324590373436" lon="-70.4914371134538">        <ele>1382.28312645167</ele>        <time></time>      </trkpt>
      <trkpt lat="-33.432296469569" lon="-70.4918589305847">        <ele>1368.97767263624</ele>        <time></time>      </trkpt>
      <trkpt lat="-33.4323506025777" lon="-70.4921276765619">        <ele>1353.63286369357</ele>        <time></time>      </trkpt>
      <trkpt lat="-33.4321311905737" lon="-70.4925196575096">        <ele>1335.64838413119</ele>        <time></time>      </trkpt>
      <trkpt lat="-33.4319110519794" lon="-70.4929656911138">        <ele>1320.19270505031</ele>        <time></time>      </trkpt>
      <trkpt lat="-33.4317376755131" lon="-70.4934669869817">        <ele>1303.61779060374</ele>        <time></time>      </trkpt>
      <trkpt lat="-33.4315111376685" lon="-70.4939313126501">        <ele>1293.47048890312</ele>        <time></time>      </trkpt>
      <trkpt lat="-33.4312648051623" lon="-70.4943817633789">        <ele>1278.87866215259</ele>        <time></time>      </trkpt>
      <trkpt lat="-33.4313437816635" lon="-70.4948100783191">        <ele>1261.88090933099</ele>        <time></time>      </trkpt>
      <trkpt lat="-33.4317057378043" lon="-70.4944867391231">        <ele>1259.24862233097</ele>        <time></time>      </trkpt>
      <trkpt lat="-33.4319157185468" lon="-70.4945176786142">        <ele>1249.68361083755</ele>        <time></time>      </trkpt>
      <trkpt lat="-33.4317737342367" lon="-70.4950259924305">        <ele>1236.37415693693</ele>        <time></time>      </trkpt>
      <trkpt lat="-33.431649880444" lon="-70.4955449095702">        <ele>1225.63898781216</ele>        <time></time>      </trkpt>
      <trkpt lat="-33.4314954722641" lon="-70.4960543711222">        <ele>1212.62169216731</ele>        <time></time>      </trkpt>
      <trkpt lat="-33.4313981625352" lon="-70.4965829569094">        <ele>1198.70670232696</ele>        <time></time>      </trkpt>
      <trkpt lat="-33.4312727055656" lon="-70.4971065864541">        <ele>1195.66425566193</ele>        <time></time>      </trkpt>
      <trkpt lat="-33.4311850556701" lon="-70.4976274983935">        <ele>1186.00724455057</ele>        <time></time>      </trkpt>
      <trkpt lat="-33.4312380270005" lon="-70.4981410278374">        <ele>1182.95548310487</ele>        <time></time>      </trkpt>
      <trkpt lat="-33.4315913936945" lon="-70.4981971357201">        <ele>1170.10098233143</ele>        <time></time>      </trkpt>
      <trkpt lat="-33.4315885987355" lon="-70.4987048064395">        <ele>1159.82467042278</ele>        <time></time>      </trkpt>
      <trkpt lat="-33.431627076169" lon="-70.499234254983">        <ele>1151.56713644413</ele>        <time></time>      </trkpt>
      <trkpt lat="-33.4316669466613" lon="-70.499770489655">        <ele>1141.51893395032</ele>        <time></time>      </trkpt>
      <trkpt lat="-33.4315720112854" lon="-70.5002990432845">        <ele>1129.90547755516</ele>        <time></time>      </trkpt>
      <trkpt lat="-33.4313799459164" lon="-70.5007915269694">        <ele>1126.8470144792</ele>        <time></time>      </trkpt>
      <trkpt lat="-33.431221780061" lon="-70.5012894903838">        <ele>1119.42791309095</ele>        <time></time>      </trkpt>
      <trkpt lat="-33.431492633" lon="-70.501673571">        <ele>1097.74910856042</ele>        <time></time>      </trkpt>
      <trkpt lat="-33.431492633" lon="-70.501673571">        <ele>1097.74737149279</ele>        <time></time>      </trkpt>
      <trkpt lat="-33.4319077236365" lon="-70.5018296420478">        <ele>1087.36359580447</ele>        <time></time>      </trkpt>
      <trkpt lat="-33.4321955534145" lon="-70.5015165892745">        <ele>1084.87612293356</ele>        <time></time>      </trkpt>
      <trkpt lat="-33.4324599685197" lon="-70.5010815964134">        <ele>1078.26432775022</ele>        <time></time>      </trkpt>
      <trkpt lat="-33.4326976723986" lon="-70.5006804704135">        <ele>1070.58179073601</ele>        <time></time>      </trkpt>
      <trkpt lat="-33.4329105291227" lon="-70.5002059906317">        <ele>1064.30437072584</ele>        <time></time>      </trkpt>
      <trkpt lat="-33.4330652349318" lon="-70.4997128980487">        <ele>1061.19227731779</ele>        <time></time>      </trkpt>
      <trkpt lat="-33.4331234488163" lon="-70.5000761237754">        <ele>1050.40121904675</ele>        <time></time>      </trkpt>
      <trkpt lat="-33.4331883609341" lon="-70.5005929152495">        <ele>1050.96368290439</ele>        <time></time>      </trkpt>
      <trkpt lat="-33.4333004059036" lon="-70.5011059147978">        <ele>1045.58863545186</ele>        <time></time>      </trkpt>
      <trkpt lat="-33.4332575336517" lon="-70.5016477416943">        <ele>1038.89579989865</ele>        <time></time>      </trkpt>
      <trkpt lat="-33.4331666186922" lon="-70.5021828778086">        <ele>1037.34054764505</ele>        <time></time>      </trkpt>
      <trkpt lat="-33.4330895794247" lon="-70.5027236675853">        <ele>1034.91970225031</ele>        <time></time>      </trkpt>
      <trkpt lat="-33.4329628483043" lon="-70.5032497698031">        <ele>1033.29948314705</ele>        <time></time>      </trkpt>
      <trkpt lat="-33.4327954001658" lon="-70.5037475236815">        <ele>1035.64051826382</ele>        <time></time>      </trkpt>
      <trkpt lat="-33.4325002135243" lon="-70.5041616300546">        <ele>1037.17951363957</ele>        <time></time>      </trkpt>
      <trkpt lat="-33.4322596199288" lon="-70.504622846483">        <ele>1029.28488302134</ele>        <time></time>      </trkpt>
      <trkpt lat="-33.4320361800647" lon="-70.5050871895528">        <ele>1022.41311368934</ele>        <time></time>      </trkpt>
      <trkpt lat="-33.4318902976384" lon="-70.5055903965781">        <ele>1016.10232380195</ele>        <time></time>      </trkpt>
      <trkpt lat="-33.4318084059981" lon="-70.5061290415795">        <ele>1007.13885209778</ele>        <time></time>      </trkpt>
      <trkpt lat="-33.4316750027404" lon="-70.5066466771031">        <ele>1003.97380212891</ele>        <time></time>      </trkpt>
      <trkpt lat="-33.431371468892" lon="-70.507009956111">        <ele>1008.98709173018</ele>        <time></time>      </trkpt>
      <trkpt lat="-33.4311426371403" lon="-70.5073917039084">        <ele>1004.2103128105</ele>        <time></time>      </trkpt>
      <trkpt lat="-33.4313904014605" lon="-70.507845628784">        <ele>992.430509196026</ele>        <time></time>      </trkpt>
      <trkpt lat="-33.4316869847529" lon="-70.508254852842">        <ele>985.881570008489</ele>        <time></time>      </trkpt>
      <trkpt lat="-33.4317748962133" lon="-70.5087810424705">        <ele>977.247559856544</ele>        <time></time>      </trkpt>
      <trkpt lat="-33.4316947639354" lon="-70.5093136223237">        <ele>974.049096961559</ele>        <time></time>      </trkpt>
      <trkpt lat="-33.4315974985498" lon="-70.5098367081426">        <ele>966.626762745795</ele>        <time></time>      </trkpt>
      <trkpt lat="-33.4313969020941" lon="-70.5103003902999">        <ele>963.462940376886</ele>        <time></time>      </trkpt>
      <trkpt lat="-33.4314390820889" lon="-70.510843103648">        <ele>960.955113153564</ele>        <time></time>      </trkpt>
      <trkpt lat="-33.4314236438022" lon="-70.5113872601966">        <ele>962.176389339199</ele>        <time></time>      </trkpt>
      <trkpt lat="-33.4313752405954" lon="-70.5119211789937">        <ele>960.958387618974</ele>        <time></time>      </trkpt>
      <trkpt lat="-33.4313265816049" lon="-70.5124335152213">        <ele>956.616202782131</ele>        <time></time>      </trkpt>
      <trkpt lat="-33.4313578571722" lon="-70.5129661977086">        <ele>946.88848892999</ele>        <time></time>      </trkpt>
      <trkpt lat="-33.4313509548173" lon="-70.5135055367776">        <ele>938.338799163389</ele>        <time></time>      </trkpt>
      <trkpt lat="-33.4315195071977" lon="-70.5140032295388">        <ele>923.562207278792</ele>        <time></time>      </trkpt>
      <trkpt lat="-33.4314330241226" lon="-70.5145380588536">        <ele>917.090221269505</ele>        <time></time>      </trkpt>
      <trkpt lat="-33.4314631673509" lon="-70.5150830225514">        <ele>907.321632868369</ele>        <time></time>      </trkpt>
      <trkpt lat="-33.431577146" lon="-70.51560693">        <ele>897.714797205413</ele>        <time></time>      </trkpt>
      <trkpt lat="-33.431577146" lon="-70.51560693">        <ele>897.627236790775</ele>        <time></time>      </trkpt>
      <trkpt lat="-33.4315452971154" lon="-70.516146113058">        <ele>889.910581952108</ele>        <time></time>      </trkpt>
      <trkpt lat="-33.4315690140693" lon="-70.5166915685918">        <ele>879.977941061478</ele>        <time></time>      </trkpt>
      <trkpt lat="-33.4316698113802" lon="-70.5172182724437">        <ele>867.108736893054</ele>        <time></time>      </trkpt>
      <trkpt lat="-33.4317065994201" lon="-70.5177619445785">        <ele>860.11316499733</ele>        <time></time>      </trkpt>
      <trkpt lat="-33.4316849421495" lon="-70.5183040390652">        <ele>856.261511986756</ele>        <time></time>      </trkpt>
      <trkpt lat="-33.431673466257" lon="-70.5188511812464">        <ele>858.818681538415</ele>        <time></time>      </trkpt>
      <trkpt lat="-33.4316594235128" lon="-70.5193963016626">        <ele>847.709534941219</ele>        <time></time>      </trkpt>
      <trkpt lat="-33.4315587633418" lon="-70.5199250830501">        <ele>836.221154114677</ele>        <time></time>      </trkpt>
      <trkpt lat="-33.4314541982453" lon="-70.5204538380638">        <ele>824.254139419723</ele>        <time></time>      </trkpt>
      <trkpt lat="-33.4313268107572" lon="-70.5209747402641">        <ele>813.383018995054</ele>        <time></time>      </trkpt>
      <trkpt lat="-33.4313110477474" lon="-70.52144886912">        <ele>805.050865603994</ele>        <time></time>      </trkpt>
      <trkpt lat="-33.4309046190738" lon="-70.5215997858778">        <ele>802.348197586438</ele>        <time></time>      </trkpt>
      <trkpt lat="-33.4305819801171" lon="-70.5217994739261">        <ele>798.121385909304</ele>        <time></time>      </trkpt>
      <trkpt lat="-33.4303177147132" lon="-70.5221929851066">        <ele>791.766751242864</ele>        <time></time>      </trkpt>
      <trkpt lat="-33.4302371344542" lon="-70.522722148605">        <ele>790.934585490899</ele>        <time></time>      </trkpt>
      <trkpt lat="-33.430170560919" lon="-70.5231752291989">        <ele>789.042311944952</ele>        <time></time>      </trkpt>
      <trkpt lat="-33.4301687250183" lon="-70.5237224872922">        <ele>786.345886134708</ele>        <time></time>      </trkpt>
      <trkpt lat="-33.4301207278585" lon="-70.5242675050243">        <ele>783.868095414426</ele>        <time></time>      </trkpt>
      <trkpt lat="-33.4300871963344" lon="-70.5248140397189">        <ele>778.356898401303</ele>        <time></time>      </trkpt>
      <trkpt lat="-33.429999834807" lon="-70.5253502364806">        <ele>775.725847065368</ele>        <time></time>      </trkpt>
      <trkpt lat="-33.4299341462237" lon="-70.5258922875984">        <ele>774.684913725288</ele>        <time></time>      </trkpt>
      <trkpt lat="-33.4299222051779" lon="-70.526436490219">        <ele>770.469935719196</ele>        <time></time>      </trkpt>
      <trkpt lat="-33.4300539690832" lon="-70.5269259644531">        <ele>770.586189172816</ele>        <time></time>      </trkpt>
      <trkpt lat="-33.4300321757542" lon="-70.5274722698197">        <ele>769.386057252752</ele>        <time></time>      </trkpt>
      <trkpt lat="-33.4301146941972" lon="-70.5279850899435">        <ele>767.168952880379</ele>        <time></time>      </trkpt>
      <trkpt lat="-33.4302019828472" lon="-70.5285106221855">        <ele>765.251601313763</ele>        <time></time>      </trkpt>
      <trkpt lat="-33.4302890721023" lon="-70.529035388802">        <ele>762.132418317251</ele>        <time></time>      </trkpt>
      <trkpt lat="-33.4303361670269" lon="-70.5293687734148">        <ele>759.786716571794</ele>        <time></time>      </trkpt>
      <trkpt lat="-33.4304870868167" lon="-70.5296310887028">        <ele>757.825347510716</ele>        <time></time>      </trkpt>
      <trkpt lat="-33.4307353629579" lon="-70.5300098604946">        <ele>751.876854368423</ele>        <time></time>      </trkpt>
      <trkpt lat="-33.4308372868657" lon="-70.530527373111">        <ele>750.46628824918</ele>        <time></time>      </trkpt>
      <trkpt lat="-33.430847541751" lon="-70.531068217313">        <ele>751.475377279193</ele>        <time></time>      </trkpt>
      <trkpt lat="-33.431051019" lon="-70.531553387">        <ele>750.501279087742</ele>        <time></time>      </trkpt>
      <trkpt lat="-33.431051019" lon="-70.531553387">        <ele>750.53369053478</ele>        <time></time>      </trkpt>
      <trkpt lat="-33.4313678347684" lon="-70.5319330534042">        <ele>744.652838505761</ele>        <time></time>      </trkpt>
      <trkpt lat="-33.4315538617872" lon="-70.5324177424636">        <ele>739.888008961166</ele>        <time></time>      </trkpt>
      <trkpt lat="-33.4316851543251" lon="-70.5329349553012">        <ele>738.716087612682</ele>        <time></time>      </trkpt>
      <trkpt lat="-33.4319098814721" lon="-70.5333946121449">        <ele>734.252347855186</ele>        <time></time>      </trkpt>
      <trkpt lat="-33.4320474917979" lon="-70.5339010444323">        <ele>735.051435477788</ele>        <time></time>      </trkpt>
      <trkpt lat="-33.4322216210993" lon="-70.534397324328">        <ele>730.95693812047</ele>        <time></time>      </trkpt>
      <trkpt lat="-33.4319809906423" lon="-70.5342498321308">        <ele>733.747923644063</ele>        <time></time>      </trkpt>
      <trkpt lat="-33.4317742987237" lon="-70.5339761768536">        <ele>737.184106283483</ele>        <time></time>      </trkpt>
      <trkpt lat="-33.4315086980946" lon="-70.5339622437092">        <ele>741.01360080928</ele>        <time></time>      </trkpt>
      <trkpt lat="-33.4312880224676" lon="-70.5339839706645">        <ele>743.965796207876</ele>        <time></time>      </trkpt>
      <trkpt lat="-33.4308553729609" lon="-70.5339154813117">        <ele>744.392482762098</ele>        <time></time>      </trkpt>
      <trkpt lat="-33.4304011830995" lon="-70.5339097141755">        <ele>744.936665271084</ele>        <time></time>      </trkpt>
      <trkpt lat="-33.4299469936308" lon="-70.5339094905618">        <ele>747.806855580581</ele>        <time></time>      </trkpt>
      <trkpt lat="-33.4294928937074" lon="-70.5338996090982">        <ele>747.272686547091</ele>        <time></time>      </trkpt>
      <trkpt lat="-33.429038630066" lon="-70.5338891697026">        <ele>743.630007590383</ele>        <time></time>      </trkpt>
      <trkpt lat="-33.4286965829652" lon="-70.5336024093309">        <ele>741.966253967862</ele>        <time></time>      </trkpt>
      <trkpt lat="-33.428333821" lon="-70.533807764">        <ele>739.331599258532</ele>        <time></time>      </trkpt>
    </trkseg>
  </trk>
</gpx>
