<?xml version="1.0" encoding="UTF-8" standalone="no"?>
<gpx xmlns="http://www.topografix.com/GPX/1/1" xmlns:xsi="http://www.w3.org/2001/XMLSchema-instance" xsi:schemaLocation="http://www.topografix.com/GPX/1/1 http://www.topografix.com/GPX/1/1/gpx.xsd" version="1.1" creator="Metric Trails">
  <metadata>
    <name>Metric Trails Generated GPX</name>
    <desc>This track was generated by Metric Trails technology for GNSS trajectory processing.</desc>
    <author>
      <name>Metric Trails</name>
      <link href="https://www.metrictrails.com"/>
    </author>
    <time>2025-10-28T11:39:53Z</time>
  </metadata>
  <trk>
    <name>Metric Trails. Track standarized to 50.2-meter spatial resolution</name>
    <trkseg>
      <trkpt lat="-27.462789" lon="152.883126">        <ele>90.2342253598697</ele>        <time></time>      </trkpt>
      <trkpt lat="-27.4624394908437" lon="152.882819941585">        <ele>88.280438751634</ele>        <time></time>      </trkpt>
      <trkpt lat="-27.4620534837576" lon="152.88265815259">        <ele>86.5721280417374</ele>        <time></time>      </trkpt>
      <trkpt lat="-27.4619320000006" lon="152.882176949248">        <ele>89.7329010903357</ele>        <time></time>      </trkpt>
      <trkpt lat="-27.4622043294779" lon="152.881806621802">        <ele>98.6414292156786</ele>        <time></time>      </trkpt>
      <trkpt lat="-27.4620288059367" lon="152.881424671613">        <ele>106.419475311176</ele>        <time></time>      </trkpt>
      <trkpt lat="-27.4617578081498" lon="152.881072767401">        <ele>111.829523921178</ele>        <time></time>      </trkpt>
      <trkpt lat="-27.461850915257" lon="152.880571349565">        <ele>119.12380988164</ele>        <time></time>      </trkpt>
      <trkpt lat="-27.4621340703785" lon="152.880188826981">        <ele>121.786990097519</ele>        <time></time>      </trkpt>
      <trkpt lat="-27.4625472492386" lon="152.879982350152">        <ele>126.621606073994</ele>        <time></time>      </trkpt>
      <trkpt lat="-27.4629249769673" lon="152.879712003637">        <ele>132.291613834826</ele>        <time></time>      </trkpt>
      <trkpt lat="-27.4633823193594" lon="152.879745042504">        <ele>143.313079883012</ele>        <time></time>      </trkpt>
      <trkpt lat="-27.4638247893533" lon="152.879639634668">        <ele>153.381580927833</ele>        <time></time>      </trkpt>
      <trkpt lat="-27.4638891818449" lon="152.879202635731">        <ele>149.494292560775</ele>        <time></time>      </trkpt>
      <trkpt lat="-27.4639160000003" lon="152.878689699161">        <ele>158.500275063615</ele>        <time></time>      </trkpt>
      <trkpt lat="-27.4638500079295" lon="152.878192869603">        <ele>172.742297742071</ele>        <time></time>      </trkpt>
      <trkpt lat="-27.4635084374911" lon="152.877875609336">        <ele>168.861885502965</ele>        <time></time>      </trkpt>
      <trkpt lat="-27.4633719173998" lon="152.877384650265">        <ele>174.066239145224</ele>        <time></time>      </trkpt>
      <trkpt lat="-27.4632021828464" lon="152.876906327319">        <ele>176.820329472327</ele>        <time></time>      </trkpt>
      <trkpt lat="-27.4634063611627" lon="152.876672180581">        <ele>176.745207810866</ele>        <time></time>      </trkpt>
      <trkpt lat="-27.463812" lon="152.876881">        <ele>184.463490801584</ele>        <time></time>      </trkpt>
      <trkpt lat="-27.463812" lon="152.876881">        <ele>184.567237015754</ele>        <time></time>      </trkpt>
      <trkpt lat="-27.4642502814984" lon="152.877007070374">        <ele>188.744785416059</ele>        <time></time>      </trkpt>
      <trkpt lat="-27.4646988968624" lon="152.877084453605">        <ele>189.311042397063</ele>        <time></time>      </trkpt>
      <trkpt lat="-27.4651492239014" lon="152.877073388049">        <ele>201.743934718595</ele>        <time></time>      </trkpt>
      <trkpt lat="-27.4655032327631" lon="152.876770362057">        <ele>198.553955473401</ele>        <time></time>      </trkpt>
      <trkpt lat="-27.4656473483387" lon="152.876310585162">        <ele>191.658436860697</ele>        <time></time>      </trkpt>
      <trkpt lat="-27.4657129025399" lon="152.875801340429">        <ele>188.36402168657</ele>        <time></time>      </trkpt>
      <trkpt lat="-27.4655314737768" lon="152.875339439736">        <ele>194.638576762593</ele>        <time></time>      </trkpt>
      <trkpt lat="-27.465263494756" lon="152.874926319349">        <ele>198.930413040193</ele>        <time></time>      </trkpt>
      <trkpt lat="-27.4650298338003" lon="152.874496075111">        <ele>199.470526098829</ele>        <time></time>      </trkpt>
      <trkpt lat="-27.4647336876374" lon="152.874107187737">        <ele>203.242383742706</ele>        <time></time>      </trkpt>
      <trkpt lat="-27.4644028306097" lon="152.873755550181">        <ele>205.626805699311</ele>        <time></time>      </trkpt>
      <trkpt lat="-27.4640463569714" lon="152.873432415427">        <ele>201.831404192051</ele>        <time></time>      </trkpt>
      <trkpt lat="-27.4642377556965" lon="152.873098183498">        <ele>198.469171508498</ele>        <time></time>      </trkpt>
      <trkpt lat="-27.4646804458319" lon="152.872983431667">        <ele>192.495778907116</ele>        <time></time>      </trkpt>
      <trkpt lat="-27.465128722968" lon="152.872929092344">        <ele>184.516035530226</ele>        <time></time>      </trkpt>
      <trkpt lat="-27.4655235254927" lon="152.87267770588">        <ele>180.27174447442</ele>        <time></time>      </trkpt>
      <trkpt lat="-27.465805693711" lon="152.872274034486">        <ele>182.808408852756</ele>        <time></time>      </trkpt>
      <trkpt lat="-27.4660007347865" lon="152.871810346731">        <ele>193.632802623192</ele>        <time></time>      </trkpt>
      <trkpt lat="-27.4658751719334" lon="152.871388094799">        <ele>201.81582094168</ele>        <time></time>      </trkpt>
      <trkpt lat="-27.4658386143733" lon="152.870882475458">        <ele>209.733721229617</ele>        <time></time>      </trkpt>
      <trkpt lat="-27.4658607401342" lon="152.870394954766">        <ele>218.319897244129</ele>        <time></time>      </trkpt>
      <trkpt lat="-27.4660150000003" lon="152.869913982261">        <ele>216.849944116739</ele>        <time></time>      </trkpt>
      <trkpt lat="-27.4657275648288" lon="152.86954196125">        <ele>213.827337688598</ele>        <time></time>      </trkpt>
      <trkpt lat="-27.4655966484537" lon="152.869103533433">        <ele>211.062140973198</ele>        <time></time>      </trkpt>
      <trkpt lat="-27.465598" lon="152.868594">        <ele>204.47954968752</ele>        <time></time>      </trkpt>
      <trkpt lat="-27.465598" lon="152.868594">        <ele>204.517253552732</ele>        <time></time>      </trkpt>
      <trkpt lat="-27.465478785391" lon="152.868094391182">        <ele>207.265389996106</ele>        <time></time>      </trkpt>
      <trkpt lat="-27.4654739666629" lon="152.867587811132">        <ele>211.180727792234</ele>        <time></time>      </trkpt>
      <trkpt lat="-27.4655524250173" lon="152.86708472495">        <ele>219.437056415853</ele>        <time></time>      </trkpt>
      <trkpt lat="-27.465531738862" lon="152.866580175122">        <ele>229.31171352034</ele>        <time></time>      </trkpt>
      <trkpt lat="-27.4654054118524" lon="152.866110184395">        <ele>234.709740158104</ele>        <time></time>      </trkpt>
      <trkpt lat="-27.4650408913454" lon="152.865880690607">        <ele>236.711581823513</ele>        <time></time>      </trkpt>
      <trkpt lat="-27.4646972518661" lon="152.865541136193">        <ele>231.918641642888</ele>        <time></time>      </trkpt>
      <trkpt lat="-27.4643186961713" lon="152.865245277852">        <ele>233.08604134027</ele>        <time></time>      </trkpt>
      <trkpt lat="-27.4640008874905" lon="152.864869422649">        <ele>235.92796540683</ele>        <time></time>      </trkpt>
      <trkpt lat="-27.4636527238617" lon="152.864532669477">        <ele>244.063769224537</ele>        <time></time>      </trkpt>
      <trkpt lat="-27.4633168539096" lon="152.864191488215">        <ele>250.256850564824</ele>        <time></time>      </trkpt>
      <trkpt lat="-27.4632900900126" lon="152.863695459927">        <ele>249.768319007379</ele>        <time></time>      </trkpt>
      <trkpt lat="-27.463286528636" lon="152.863189493404">        <ele>238.27733770219</ele>        <time></time>      </trkpt>
      <trkpt lat="-27.4634055035061" lon="152.862706033338">        <ele>227.970629486458</ele>        <time></time>      </trkpt>
      <trkpt lat="-27.4636068501213" lon="152.862241224818">        <ele>225.991537387303</ele>        <time></time>      </trkpt>
      <trkpt lat="-27.4636160000001" lon="152.861792247071">        <ele>235.340742600103</ele>        <time></time>      </trkpt>
      <trkpt lat="-27.4634550735954" lon="152.861323604983">        <ele>241.21623951667</ele>        <time></time>      </trkpt>
      <trkpt lat="-27.4632332924568" lon="152.860872906188">        <ele>245.412824664959</ele>        <time></time>      </trkpt>
      <trkpt lat="-27.4629285585153" lon="152.860486130588">        <ele>244.421648572907</ele>        <time></time>      </trkpt>
      <trkpt lat="-27.4626371052301" lon="152.860085473638">        <ele>246.194432749574</ele>        <time></time>      </trkpt>
      <trkpt lat="-27.462468" lon="152.859606">        <ele>245.009660987821</ele>        <time></time>      </trkpt>
      <trkpt lat="-27.462468" lon="152.859606">        <ele>245.093967846253</ele>        <time></time>      </trkpt>
      <trkpt lat="-27.4623736371802" lon="152.859098696736">        <ele>237.878363958819</ele>        <time></time>      </trkpt>
      <trkpt lat="-27.4622291018992" lon="152.85862047769">        <ele>243.763417425257</ele>        <time></time>      </trkpt>
      <trkpt lat="-27.4620710000003" lon="152.858175367739">        <ele>249.988905162821</ele>        <time></time>      </trkpt>
      <trkpt lat="-27.4620740388313" lon="152.857663452442">        <ele>250.651597923345</ele>        <time></time>      </trkpt>
      <trkpt lat="-27.4621063070208" lon="152.857146989455">        <ele>243.054069533068</ele>        <time></time>      </trkpt>
      <trkpt lat="-27.4622001728796" lon="152.856632314426">        <ele>242.936648694124</ele>        <time></time>      </trkpt>
      <trkpt lat="-27.4622504533681" lon="152.856113142058">        <ele>241.662152148579</ele>        <time></time>      </trkpt>
      <trkpt lat="-27.4622553085109" lon="152.855591079786">        <ele>240.612167419433</ele>        <time></time>      </trkpt>
      <trkpt lat="-27.4621890786617" lon="152.85507324909">        <ele>238.228053754069</ele>        <time></time>      </trkpt>
      <trkpt lat="-27.4621084628894" lon="152.854559314442">        <ele>237.303586805387</ele>        <time></time>      </trkpt>
      <trkpt lat="-27.4620467239539" lon="152.85403848085">        <ele>242.28719676862</ele>        <time></time>      </trkpt>
      <trkpt lat="-27.4620234058067" lon="152.853514652257">        <ele>249.222038728798</ele>        <time></time>      </trkpt>
      <trkpt lat="-27.4620873709147" lon="152.852995996331">        <ele>251.763355036087</ele>        <time></time>      </trkpt>
      <trkpt lat="-27.462041" lon="152.852490747619">        <ele>265.248668455317</ele>        <time></time>      </trkpt>
      <trkpt lat="-27.4617617325998" lon="152.852109959695">        <ele>272.64173041014</ele>        <time></time>      </trkpt>
      <trkpt lat="-27.4617165377798" lon="152.851605113082">        <ele>286.364582052342</ele>        <time></time>      </trkpt>
      <trkpt lat="-27.461691059864" lon="152.851095811856">        <ele>295.340275538495</ele>        <time></time>      </trkpt>
      <trkpt lat="-27.4614945799009" lon="152.850716983206">        <ele>295.798681513889</ele>        <time></time>      </trkpt>
      <trkpt lat="-27.4610901954184" lon="152.850484410684">        <ele>292.771799960775</ele>        <time></time>      </trkpt>
      <trkpt lat="-27.4608720636807" lon="152.850053681599">        <ele>287.489803264168</ele>        <time></time>      </trkpt>
      <trkpt lat="-27.4607385990848" lon="152.849564893581">        <ele>283.32471383199</ele>        <time></time>      </trkpt>
      <trkpt lat="-27.460514" lon="152.849108">        <ele>288.796268984437</ele>        <time></time>      </trkpt>
      <trkpt lat="-27.460514" lon="152.849108">        <ele>288.747237185034</ele>        <time></time>      </trkpt>
      <trkpt lat="-27.4602391918929" lon="152.848710191893">        <ele>293.585255683219</ele>        <time></time>      </trkpt>
      <trkpt lat="-27.4600092788754" lon="152.848267083382">        <ele>292.097864022177</ele>        <time></time>      </trkpt>
      <trkpt lat="-27.459708305528" lon="152.847879311485">        <ele>286.901597826587</ele>        <time></time>      </trkpt>
      <trkpt lat="-27.4593065211264" lon="152.847636220451">        <ele>285.321234121226</ele>        <time></time>      </trkpt>
      <trkpt lat="-27.4591412880307" lon="152.84717182741">        <ele>277.609974821252</ele>        <time></time>      </trkpt>
      <trkpt lat="-27.4590052185254" lon="152.846680233958">        <ele>270.624263216527</ele>        <time></time>      </trkpt>
      <trkpt lat="-27.4588110358648" lon="152.846216086673">        <ele>269.504151799437</ele>        <time></time>      </trkpt>
      <trkpt lat="-27.4585348460629" lon="152.845815088673">        <ele>274.469865774499</ele>        <time></time>      </trkpt>
      <trkpt lat="-27.4581831395734" lon="152.845489093049">        <ele>282.677168842382</ele>        <time></time>      </trkpt>
      <trkpt lat="-27.4577429320394" lon="152.845368845682">        <ele>287.995668305618</ele>        <time></time>      </trkpt>
      <trkpt lat="-27.4576876970903" lon="152.844939954365">        <ele>284.498908634966</ele>        <time></time>      </trkpt>
      <trkpt lat="-27.4579258324574" lon="152.844508140948">        <ele>280.787653814832</ele>        <time></time>      </trkpt>
      <trkpt lat="-27.4581332670547" lon="152.844051999106">        <ele>281.760466436029</ele>        <time></time>      </trkpt>
      <trkpt lat="-27.4583088727281" lon="152.84357720485">        <ele>281.693189451958</ele>        <time></time>      </trkpt>
      <trkpt lat="-27.4582310508223" lon="152.843105177878">        <ele>289.329700604485</ele>        <time></time>      </trkpt>
      <trkpt lat="-27.4580588555703" lon="152.842671944943">        <ele>296.958254483688</ele>        <time></time>      </trkpt>
      <trkpt lat="-27.4581072086491" lon="152.842162176218">        <ele>301.634452236164</ele>        <time></time>      </trkpt>
      <trkpt lat="-27.458295621199" lon="152.841692475912">        <ele>296.782877743307</ele>        <time></time>      </trkpt>
      <trkpt lat="-27.4586264667457" lon="152.841344624057">        <ele>291.20380840182</ele>        <time></time>      </trkpt>
      <trkpt lat="-27.4588521765244" lon="152.840898376417">        <ele>290.904686363539</ele>        <time></time>      </trkpt>
      <trkpt lat="-27.4591932227834" lon="152.840550164212">        <ele>295</ele>        <time></time>      </trkpt>
      <trkpt lat="-27.4595764303806" lon="152.840258737233">        <ele>294.661071132088</ele>        <time></time>      </trkpt>
      <trkpt lat="-27.4598868577202" lon="152.839894699283">        <ele>295.056695304558</ele>        <time></time>      </trkpt>
      <trkpt lat="-27.459801" lon="152.839389">        <ele>298.681782324519</ele>        <time></time>      </trkpt>
      <trkpt lat="-27.459801" lon="152.839389">        <ele>298.546042266166</ele>        <time></time>      </trkpt>
      <trkpt lat="-27.4596811969269" lon="152.838930884082">        <ele>300.14652373752</ele>        <time></time>      </trkpt>
      <trkpt lat="-27.4598056490325" lon="152.838432377419">        <ele>296.352038675865</ele>        <time></time>      </trkpt>
      <trkpt lat="-27.4601457190052" lon="152.838137693184">        <ele>295.368048958388</ele>        <time></time>      </trkpt>
      <trkpt lat="-27.4604983040041" lon="152.837787184998">        <ele>292.656782864575</ele>        <time></time>      </trkpt>
      <trkpt lat="-27.4608136340815" lon="152.837421365919">        <ele>299.207693007636</ele>        <time></time>      </trkpt>
      <trkpt lat="-27.4610291593921" lon="152.836955532124">        <ele>310.517345270059</ele>        <time></time>      </trkpt>
      <trkpt lat="-27.4613122406078" lon="152.836559278177">        <ele>321.062302720528</ele>        <time></time>      </trkpt>
      <trkpt lat="-27.4616445507409" lon="152.836203030787">        <ele>333.097573583282</ele>        <time></time>      </trkpt>
      <trkpt lat="-27.4619034202072" lon="152.835830695751">        <ele>341.23921550784</ele>        <time></time>      </trkpt>
      <trkpt lat="-27.4616694325816" lon="152.835522486516">        <ele>340.680659034981</ele>        <time></time>      </trkpt>
      <trkpt lat="-27.4612299465468" lon="152.83548846565">        <ele>333.607060122306</ele>        <time></time>      </trkpt>
      <trkpt lat="-27.4608729270636" lon="152.83530978119">        <ele>326.379311288226</ele>        <time></time>      </trkpt>
      <trkpt lat="-27.4607036597679" lon="152.834819441047">        <ele>326.405851166449</ele>        <time></time>      </trkpt>
      <trkpt lat="-27.4604193782473" lon="152.83439856314">        <ele>324.177521100604</ele>        <time></time>      </trkpt>
      <trkpt lat="-27.4600089017391" lon="152.834150328043">        <ele>319.786369153646</ele>        <time></time>      </trkpt>
      <trkpt lat="-27.460054" lon="152.833653">        <ele>317.189126509705</ele>        <time></time>      </trkpt>
      <trkpt lat="-27.460054" lon="152.833653">        <ele>317.218528207049</ele>        <time></time>      </trkpt>
      <trkpt lat="-27.4597752522546" lon="152.833269323826">        <ele>315.173825451349</ele>        <time></time>      </trkpt>
      <trkpt lat="-27.4595455757973" lon="152.832810191083">        <ele>304.832077718951</ele>        <time></time>      </trkpt>
      <trkpt lat="-27.4592551295356" lon="152.832410238861">        <ele>295.828193116959</ele>        <time></time>      </trkpt>
      <trkpt lat="-27.4587993458257" lon="152.832325299712">        <ele>291.498179285534</ele>        <time></time>      </trkpt>
      <trkpt lat="-27.4583849026234" lon="152.832149856742">        <ele>295.083838744356</ele>        <time></time>      </trkpt>
      <trkpt lat="-27.4581615479023" lon="152.831728398257">        <ele>292.801287064902</ele>        <time></time>      </trkpt>
      <trkpt lat="-27.4580693954355" lon="152.831221761875">        <ele>289.187581264914</ele>        <time></time>      </trkpt>
      <trkpt lat="-27.4579034171708" lon="152.830731943354">        <ele>292.108781422086</ele>        <time></time>      </trkpt>
      <trkpt lat="-27.4577810631554" lon="152.830235494762">        <ele>293.331945010974</ele>        <time></time>      </trkpt>
      <trkpt lat="-27.457828028171" lon="152.829710239385">        <ele>290.665106009099</ele>        <time></time>      </trkpt>
      <trkpt lat="-27.4577975538625" lon="152.829183820572">        <ele>289.645194768479</ele>        <time></time>      </trkpt>
      <trkpt lat="-27.4576250617106" lon="152.828693123421">        <ele>295.983673270053</ele>        <time></time>      </trkpt>
      <trkpt lat="-27.4574755248266" lon="152.828232705686">        <ele>304.910419202973</ele>        <time></time>      </trkpt>
      <trkpt lat="-27.4575010000004" lon="152.827723269478">        <ele>307.866326030116</ele>        <time></time>      </trkpt>
      <trkpt lat="-27.4575910000007" lon="152.827209145388">        <ele>311.525386423151</ele>        <time></time>      </trkpt>
      <trkpt lat="-27.4576009468304" lon="152.826685698699">        <ele>312.203633803145</ele>        <time></time>      </trkpt>
      <trkpt lat="-27.4576266150091" lon="152.826161792822">        <ele>315.110522264628</ele>        <time></time>      </trkpt>
      <trkpt lat="-27.4575743959769" lon="152.825656440444">        <ele>318.670845138207</ele>        <time></time>      </trkpt>
      <trkpt lat="-27.4574334986584" lon="152.825233687332">        <ele>327.253803606758</ele>        <time></time>      </trkpt>
      <trkpt lat="-27.457118" lon="152.824926">        <ele>338.687420252477</ele>        <time></time>      </trkpt>
      <trkpt lat="-27.457118" lon="152.824926">        <ele>338.633565155514</ele>        <time></time>      </trkpt>
      <trkpt lat="-27.4568281414176" lon="152.824568369701">        <ele>355.20413045345</ele>        <time></time>      </trkpt>
      <trkpt lat="-27.4564641061449" lon="152.824356211304">        <ele>367.279761670419</ele>        <time></time>      </trkpt>
      <trkpt lat="-27.456210875956" lon="152.82394904779">        <ele>358.364966582279</ele>        <time></time>      </trkpt>
      <trkpt lat="-27.4558313384717" lon="152.8236858582">        <ele>343.434500782406</ele>        <time></time>      </trkpt>
      <trkpt lat="-27.4556863855637" lon="152.823206640341">        <ele>333.803198526524</ele>        <time></time>      </trkpt>
      <trkpt lat="-27.4554262285953" lon="152.822788347648">        <ele>332.0913751648</ele>        <time></time>      </trkpt>
      <trkpt lat="-27.4550324077173" lon="152.822548532184">        <ele>329.383975470447</ele>        <time></time>      </trkpt>
      <trkpt lat="-27.4545948904036" lon="152.822455351599">        <ele>334.396666106072</ele>        <time></time>      </trkpt>
      <trkpt lat="-27.4541698091084" lon="152.822383596056">        <ele>338.34761537481</ele>        <time></time>      </trkpt>
      <trkpt lat="-27.4537334889914" lon="152.822254405286">        <ele>332.820713183303</ele>        <time></time>      </trkpt>
      <trkpt lat="-27.4533218731008" lon="152.822139965574">        <ele>320.771277279201</ele>        <time></time>      </trkpt>
      <trkpt lat="-27.4528798247464" lon="152.822118680412">        <ele>321.421380443979</ele>        <time></time>      </trkpt>
      <trkpt lat="-27.4524462249267" lon="152.822131122883">        <ele>321.729234576185</ele>        <time></time>      </trkpt>
      <trkpt lat="-27.4519946951016" lon="152.82217">        <ele>324.313749275175</ele>        <time></time>      </trkpt>
      <trkpt lat="-27.451586602734" lon="152.822391472603">        <ele>326.410830510585</ele>        <time></time>      </trkpt>
      <trkpt lat="-27.4511435768019" lon="152.822492419227">        <ele>323.51099134254</ele>        <time></time>      </trkpt>
      <trkpt lat="-27.450742378919" lon="152.82271798319">        <ele>317.674797287073</ele>        <time></time>      </trkpt>
      <trkpt lat="-27.4503947137928" lon="152.823046597365">        <ele>316.792978344248</ele>        <time></time>      </trkpt>
      <trkpt lat="-27.4502600000002" lon="152.823530977278">        <ele>317.77771915809</ele>        <time></time>      </trkpt>
      <trkpt lat="-27.450067429262" lon="152.823996614676">        <ele>319.426338733953</ele>        <time></time>      </trkpt>
      <trkpt lat="-27.4497856130386" lon="152.824383386962">        <ele>320.445433279336</ele>        <time></time>      </trkpt>
      <trkpt lat="-27.4493843436465" lon="152.824604">        <ele>315.730454730923</ele>        <time></time>      </trkpt>
      <trkpt lat="-27.448947" lon="152.824751">        <ele>314.931817737879</ele>        <time></time>      </trkpt>
      <trkpt lat="-27.448947" lon="152.824751">        <ele>314.885977480275</ele>        <time></time>      </trkpt>
      <trkpt lat="-27.4485081155303" lon="152.824886280526">        <ele>319.773743979799</ele>        <time></time>      </trkpt>
      <trkpt lat="-27.4480830791819" lon="152.8249650215">        <ele>323.866825345438</ele>        <time></time>      </trkpt>
      <trkpt lat="-27.4476465830804" lon="152.82501165916">        <ele>323.909128390663</ele>        <time></time>      </trkpt>
      <trkpt lat="-27.4472346994508" lon="152.825214000647">        <ele>324.602170369379</ele>        <time></time>      </trkpt>
      <trkpt lat="-27.4468906634651" lon="152.825550593192">        <ele>334.833913828747</ele>        <time></time>      </trkpt>
      <trkpt lat="-27.4464944940344" lon="152.825789154176">        <ele>338.308809699259</ele>        <time></time>      </trkpt>
      <trkpt lat="-27.4463080138676" lon="152.82623294453">        <ele>345.693898964458</ele>        <time></time>      </trkpt>
      <trkpt lat="-27.4462790000002" lon="152.82669953371">        <ele>352.98576464837</ele>        <time></time>      </trkpt>
      <trkpt lat="-27.4459817918022" lon="152.82707156036">        <ele>356.167209211973</ele>        <time></time>      </trkpt>
      <trkpt lat="-27.4455497239404" lon="152.827243011525">        <ele>358.138645208407</ele>        <time></time>      </trkpt>
      <trkpt lat="-27.4450960614" lon="152.827190513157">        <ele>363.193330838097</ele>        <time></time>      </trkpt>
      <trkpt lat="-27.4446862799392" lon="152.827012599992">        <ele>364.021882184851</ele>        <time></time>      </trkpt>
      <trkpt lat="-27.4442322895752" lon="152.827041677607">        <ele>360.600931074215</ele>        <time></time>      </trkpt>
      <trkpt lat="-27.4438157967887" lon="152.82724223324">        <ele>365.951395674827</ele>        <time></time>      </trkpt>
      <trkpt lat="-27.4435159968204" lon="152.827580520672">        <ele>369.915237364973</ele>        <time></time>      </trkpt>
      <trkpt lat="-27.4433578958958" lon="152.828063884501">        <ele>368.617408724842</ele>        <time></time>      </trkpt>
      <trkpt lat="-27.4432169531612" lon="152.828443140517">        <ele>363.117759243934</ele>        <time></time>      </trkpt>
      <trkpt lat="-27.4430819476916" lon="152.828930203094">        <ele>360.478880447709</ele>        <time></time>      </trkpt>
      <trkpt lat="-27.4430346826526" lon="152.829441116712">        <ele>362.648362682045</ele>        <time></time>      </trkpt>
      <trkpt lat="-27.4429812389759" lon="152.829947341033">        <ele>358.668888753816</ele>        <time></time>      </trkpt>
      <trkpt lat="-27.4429884082886" lon="152.830461023776">        <ele>356.770313915515</ele>        <time></time>      </trkpt>
      <trkpt lat="-27.4432304313835" lon="152.830849041431">        <ele>352.246983417398</ele>        <time></time>      </trkpt>
      <trkpt lat="-27.443357" lon="152.83134">        <ele>344.990140980209</ele>        <time></time>      </trkpt>
      <trkpt lat="-27.443357" lon="152.83134">        <ele>345.010866408991</ele>        <time></time>      </trkpt>
      <trkpt lat="-27.4434680000006" lon="152.831829675865">        <ele>346.784491022674</ele>        <time></time>      </trkpt>
      <trkpt lat="-27.4435094268451" lon="152.832333902042">        <ele>341.697237295579</ele>        <time></time>      </trkpt>
      <trkpt lat="-27.4434956576089" lon="152.832836124995">        <ele>338.768527155506</ele>        <time></time>      </trkpt>
      <trkpt lat="-27.4435530000007" lon="152.833337475164">        <ele>341.959831593963</ele>        <time></time>      </trkpt>
      <trkpt lat="-27.4436984620656" lon="152.833807386194">        <ele>346.882438190137</ele>        <time></time>      </trkpt>
      <trkpt lat="-27.443893557731" lon="152.834257254014">        <ele>350.100168536792</ele>        <time></time>      </trkpt>
      <trkpt lat="-27.4439948415708" lon="152.834747284885">        <ele>352.231298754539</ele>        <time></time>      </trkpt>
      <trkpt lat="-27.4441725298236" lon="152.835211902919">        <ele>359.117881256697</ele>        <time></time>      </trkpt>
      <trkpt lat="-27.4444249316612" lon="152.835626520822">        <ele>354.509172408953</ele>        <time></time>      </trkpt>
      <trkpt lat="-27.444548506207" lon="152.83609774528">        <ele>351.925667181316</ele>        <time></time>      </trkpt>
      <trkpt lat="-27.444795714126" lon="152.836510476084">        <ele>355.510297810043</ele>        <time></time>      </trkpt>
      <trkpt lat="-27.4451864623682" lon="152.83673381183">        <ele>349.109134905259</ele>        <time></time>      </trkpt>
      <trkpt lat="-27.4453787293485" lon="152.837186292237">        <ele>347.053848952322</ele>        <time></time>      </trkpt>
      <trkpt lat="-27.445554781789" lon="152.837651627758">        <ele>347.448785540007</ele>        <time></time>      </trkpt>
      <trkpt lat="-27.4458760837327" lon="152.837998608904">        <ele>345.942431311742</ele>        <time></time>      </trkpt>
      <trkpt lat="-27.4463173494525" lon="152.838060910518">        <ele>342.183774475838</ele>        <time></time>      </trkpt>
      <trkpt lat="-27.4466872587997" lon="152.838314658763">        <ele>339.94002297137</ele>        <time></time>      </trkpt>
      <trkpt lat="-27.4468009608417" lon="152.838797443794">        <ele>335.439563425311</ele>        <time></time>      </trkpt>
      <trkpt lat="-27.4467971587886" lon="152.83930187757">        <ele>331.516727192379</ele>        <time></time>      </trkpt>
      <trkpt lat="-27.4467957076954" lon="152.839804687154">        <ele>324.613224371881</ele>        <time></time>      </trkpt>
      <trkpt lat="-27.4466779089139" lon="152.840292468735">        <ele>326.503911003818</ele>        <time></time>      </trkpt>
      <trkpt lat="-27.4467188795134" lon="152.840788191018">        <ele>326.06964995138</ele>        <time></time>      </trkpt>
      <trkpt lat="-27.4467762397059" lon="152.841284149975">        <ele>324.306801338181</ele>        <time></time>      </trkpt>
      <trkpt lat="-27.4468743617125" lon="152.841766316151">        <ele>326.282270428742</ele>        <time></time>      </trkpt>
      <trkpt lat="-27.4470560068513" lon="152.842215550232">        <ele>323.022480013743</ele>        <time></time>      </trkpt>
      <trkpt lat="-27.4471085801072" lon="152.84270804851">        <ele>321.561252374037</ele>        <time></time>      </trkpt>
      <trkpt lat="-27.4470660965582" lon="152.843206910147">        <ele>315.316993720837</ele>        <time></time>      </trkpt>
      <trkpt lat="-27.4472771154407" lon="152.843639613191">        <ele>312.232114663177</ele>        <time></time>      </trkpt>
      <trkpt lat="-27.4475073583571" lon="152.844065958914">        <ele>306.74876668463</ele>        <time></time>      </trkpt>
      <trkpt lat="-27.4474067718683" lon="152.844556603168">        <ele>299.65396295081</ele>        <time></time>      </trkpt>
      <trkpt lat="-27.447359" lon="152.845053">        <ele>302.267120428367</ele>        <time></time>      </trkpt>
      <trkpt lat="-27.447359" lon="152.845053">        <ele>302.241167732254</ele>        <time></time>      </trkpt>
      <trkpt lat="-27.4473760194201" lon="152.845563533919">        <ele>303.706795594367</ele>        <time></time>      </trkpt>
      <trkpt lat="-27.447239995373" lon="152.846050745125">        <ele>310.111669175927</ele>        <time></time>      </trkpt>
      <trkpt lat="-27.4471986625584" lon="152.846545648688">        <ele>308.228365516142</ele>        <time></time>      </trkpt>
      <trkpt lat="-27.4473684798779" lon="152.847020917503">        <ele>310.485385257155</ele>        <time></time>      </trkpt>
      <trkpt lat="-27.4475511603187" lon="152.847484560751">        <ele>312.370601809383</ele>        <time></time>      </trkpt>
      <trkpt lat="-27.4475406208961" lon="152.847981137314">        <ele>314.744036249356</ele>        <time></time>      </trkpt>
      <trkpt lat="-27.4475144330683" lon="152.84848866136">        <ele>313.970418744448</ele>        <time></time>      </trkpt>
      <trkpt lat="-27.4476131540226" lon="152.848987129498">        <ele>318.084576934176</ele>        <time></time>      </trkpt>
      <trkpt lat="-27.4477141749033" lon="152.849483384787">        <ele>325.271901047199</ele>        <time></time>      </trkpt>
      <trkpt lat="-27.447814167796" lon="152.849981036269">        <ele>329.534606990249</ele>        <time></time>      </trkpt>
      <trkpt lat="-27.4479537635525" lon="152.850467054209">        <ele>333.095910029542</ele>        <time></time>      </trkpt>
      <trkpt lat="-27.4478632835352" lon="152.850950335028">        <ele>339.579308762361</ele>        <time></time>      </trkpt>
      <trkpt lat="-27.4476585572165" lon="152.851397259693">        <ele>345.511616547806</ele>        <time></time>      </trkpt>
      <trkpt lat="-27.4473056450356" lon="152.851692401805">        <ele>350.840931819727</ele>        <time></time>      </trkpt>
      <trkpt lat="-27.4469113019685" lon="152.851940698033">        <ele>351.1871630306</ele>        <time></time>      </trkpt>
      <trkpt lat="-27.4465779990106" lon="152.852287948619">        <ele>347.154643517245</ele>        <time></time>      </trkpt>
      <trkpt lat="-27.4464312239589" lon="152.85275679655">        <ele>337.165652404028</ele>        <time></time>      </trkpt>
      <trkpt lat="-27.4462938884807" lon="152.853225455201">        <ele>325.928626705316</ele>        <time></time>      </trkpt>
      <trkpt lat="-27.4464427012765" lon="152.853705015545">        <ele>321.163614058153</ele>        <time></time>      </trkpt>
      <trkpt lat="-27.4466364607274" lon="152.854146821798">        <ele>318.038190677487</ele>        <time></time>      </trkpt>
      <trkpt lat="-27.446706805301" lon="152.854652137761">        <ele>314.279030877117</ele>        <time></time>      </trkpt>
      <trkpt lat="-27.4469190104614" lon="152.855093618665">        <ele>309.465839069761</ele>        <time></time>      </trkpt>
      <trkpt lat="-27.4472843127589" lon="152.855387777781">        <ele>297.260461554659</ele>        <time></time>      </trkpt>
      <trkpt lat="-27.4469202949831" lon="152.855639470011">        <ele>294.52120274758</ele>        <time></time>      </trkpt>
      <trkpt lat="-27.4466089114046" lon="152.856012388175">        <ele>286.302467964972</ele>        <time></time>      </trkpt>
      <trkpt lat="-27.446294" lon="152.856383">        <ele>280.508825788241</ele>        <time></time>      </trkpt>
      <trkpt lat="-27.446294" lon="152.856383">        <ele>280.5496445936</ele>        <time></time>      </trkpt>
      <trkpt lat="-27.4463342662327" lon="152.856880396089">        <ele>271.783188704048</ele>        <time></time>      </trkpt>
      <trkpt lat="-27.4464806420186" lon="152.85736967312">        <ele>274.463108630879</ele>        <time></time>      </trkpt>
      <trkpt lat="-27.4465780282368" lon="152.857863509963">        <ele>278.970780575308</ele>        <time></time>      </trkpt>
      <trkpt lat="-27.4468098670905" lon="152.858306944371">        <ele>281.598783402601</ele>        <time></time>      </trkpt>
      <trkpt lat="-27.4470971573857" lon="152.858713540297">        <ele>282.453258853368</ele>        <time></time>      </trkpt>
      <trkpt lat="-27.4473041681749" lon="152.859179246261">        <ele>284.211016872963</ele>        <time></time>      </trkpt>
      <trkpt lat="-27.4474263459474" lon="152.85966931891">        <ele>284.658604634292</ele>        <time></time>      </trkpt>
      <trkpt lat="-27.4473821174656" lon="152.860186206337">        <ele>275.248668434629</ele>        <time></time>      </trkpt>
      <trkpt lat="-27.4472123911522" lon="152.860666653088">        <ele>271.705376685976</ele>        <time></time>      </trkpt>
      <trkpt lat="-27.4471739154695" lon="152.861185112852">        <ele>270</ele>        <time></time>      </trkpt>
      <trkpt lat="-27.4469171975079" lon="152.861600757875">        <ele>270.036961214346</ele>        <time></time>      </trkpt>
      <trkpt lat="-27.4465184100292" lon="152.861840863324">        <ele>266.118085322423</ele>        <time></time>      </trkpt>
      <trkpt lat="-27.4461642148613" lon="152.862166128637">        <ele>266.438630495253</ele>        <time></time>      </trkpt>
      <trkpt lat="-27.4458227564447" lon="152.862510854934">        <ele>260.70674266407</ele>        <time></time>      </trkpt>
      <trkpt lat="-27.4454018106899" lon="152.862721646705">        <ele>257.857478888802</ele>        <time></time>      </trkpt>
      <trkpt lat="-27.4449925160018" lon="152.862949563788">        <ele>255.198222760367</ele>        <time></time>      </trkpt>
      <trkpt lat="-27.4446148765011" lon="152.863250089194">        <ele>252.122319485571</ele>        <time></time>      </trkpt>
      <trkpt lat="-27.4442117705185" lon="152.863497088262">        <ele>258.175812495968</ele>        <time></time>      </trkpt>
      <trkpt lat="-27.443784602957" lon="152.863640394931">        <ele>261.662344779808</ele>        <time></time>      </trkpt>
      <trkpt lat="-27.443729510867" lon="152.864063936589">        <ele>269.162912278062</ele>        <time></time>      </trkpt>
      <trkpt lat="-27.4440071849739" lon="152.864456851163">        <ele>269.887770887878</ele>        <time></time>      </trkpt>
      <trkpt lat="-27.4441528366085" lon="152.864949076006">        <ele>275.321941095787</ele>        <time></time>      </trkpt>
      <trkpt lat="-27.4443235221034" lon="152.865433429768">        <ele>280.078108499577</ele>        <time></time>      </trkpt>
      <trkpt lat="-27.444584" lon="152.865852">        <ele>276.815095570456</ele>        <time></time>      </trkpt>
      <trkpt lat="-27.444584" lon="152.865852">        <ele>276.855621902473</ele>        <time></time>      </trkpt>
      <trkpt lat="-27.4449486265878" lon="152.866182393937">        <ele>274.114029233074</ele>        <time></time>      </trkpt>
      <trkpt lat="-27.4452990259466" lon="152.866529732818">        <ele>276.15245948469</ele>        <time></time>      </trkpt>
      <trkpt lat="-27.4456708635022" lon="152.866845778479">        <ele>272.229126895496</ele>        <time></time>      </trkpt>
      <trkpt lat="-27.4460374595589" lon="152.867168975601">        <ele>260.705309250465</ele>        <time></time>      </trkpt>
      <trkpt lat="-27.4461919032236" lon="152.867650795737">        <ele>250.976105283303</ele>        <time></time>      </trkpt>
      <trkpt lat="-27.4461720000008" lon="152.868175794837">        <ele>253.623811558081</ele>        <time></time>      </trkpt>
      <trkpt lat="-27.4462169230659" lon="152.868689107649">        <ele>251.193001014301</ele>        <time></time>      </trkpt>
      <trkpt lat="-27.4462358606126" lon="152.869188983808">        <ele>257.001924025329</ele>        <time></time>      </trkpt>
      <trkpt lat="-27.4465134050924" lon="152.869511359771">        <ele>258.769315099708</ele>        <time></time>      </trkpt>
      <trkpt lat="-27.4469684396906" lon="152.869626364697">        <ele>259.352290256793</ele>        <time></time>      </trkpt>
      <trkpt lat="-27.4473678572832" lon="152.869896835251">        <ele>259.102178818449</ele>        <time></time>      </trkpt>
      <trkpt lat="-27.4477155396948" lon="152.870230577786">        <ele>267.071689029619</ele>        <time></time>      </trkpt>
      <trkpt lat="-27.4481005848117" lon="152.870530846293">        <ele>272.301484842646</ele>        <time></time>      </trkpt>
      <trkpt lat="-27.4484448105751" lon="152.870862532413">        <ele>268.892492882382</ele>        <time></time>      </trkpt>
      <trkpt lat="-27.4486673729037" lon="152.871323437722">        <ele>260.578745603923</ele>        <time></time>      </trkpt>
      <trkpt lat="-27.4487796713424" lon="152.871810629264">        <ele>263.025841106064</ele>        <time></time>      </trkpt>
      <trkpt lat="-27.4485885501447" lon="152.872283899714">        <ele>261.393870738696</ele>        <time></time>      </trkpt>
      <trkpt lat="-27.4484179789452" lon="152.872766848428">        <ele>247.355018491184</ele>        <time></time>      </trkpt>
      <trkpt lat="-27.4481274077149" lon="152.87317745179">        <ele>243.145961293786</ele>        <time></time>      </trkpt>
      <trkpt lat="-27.4479816778881" lon="152.873665329371">        <ele>237.732718615171</ele>        <time></time>      </trkpt>
      <trkpt lat="-27.4481387790908" lon="152.874156856664">        <ele>225.75351142589</ele>        <time></time>      </trkpt>
      <trkpt lat="-27.4483898463492" lon="152.874599786737">        <ele>221.905817195717</ele>        <time></time>      </trkpt>
      <trkpt lat="-27.448509" lon="152.875085">        <ele>225.253220310374</ele>        <time></time>      </trkpt>
      <trkpt lat="-27.448509" lon="152.875085">        <ele>225.247615615065</ele>        <time></time>      </trkpt>
      <trkpt lat="-27.4486148124747" lon="152.875595249899">        <ele>226.450466863101</ele>        <time></time>      </trkpt>
      <trkpt lat="-27.4488001285861" lon="152.876079151053">        <ele>233.127610340724</ele>        <time></time>      </trkpt>
      <trkpt lat="-27.449024593061" lon="152.876533310202">        <ele>240.253928912154</ele>        <time></time>      </trkpt>
      <trkpt lat="-27.4493629003351" lon="152.876895850502">        <ele>247.304450909008</ele>        <time></time>      </trkpt>
      <trkpt lat="-27.4494872435311" lon="152.877400322676">        <ele>249.423431775198</ele>        <time></time>      </trkpt>
      <trkpt lat="-27.4496475121022" lon="152.87789579902">        <ele>251.778102286012</ele>        <time></time>      </trkpt>
      <trkpt lat="-27.4497610697498" lon="152.878400906746">        <ele>254.266734361255</ele>        <time></time>      </trkpt>
      <trkpt lat="-27.4498040000002" lon="152.87892677745">        <ele>257.477250159779</ele>        <time></time>      </trkpt>
      <trkpt lat="-27.4498398726079" lon="152.879451133733">        <ele>261.217208561905</ele>        <time></time>      </trkpt>
      <trkpt lat="-27.4498474690154" lon="152.879973557728">        <ele>266.225655329781</ele>        <time></time>      </trkpt>
      <trkpt lat="-27.4497638849306" lon="152.880486239728">        <ele>260.983163840434</ele>        <time></time>      </trkpt>
      <trkpt lat="-27.4497020837858" lon="152.880970125291">        <ele>251.994459339483</ele>        <time></time>      </trkpt>
      <trkpt lat="-27.4501329537057" lon="152.88089017761">        <ele>264.953717876102</ele>        <time></time>      </trkpt>
      <trkpt lat="-27.4505224975655" lon="152.881142120739">        <ele>268.830960829846</ele>        <time></time>      </trkpt>
      <trkpt lat="-27.4507964581886" lon="152.881572439604">        <ele>268.974387702855</ele>        <time></time>      </trkpt>
      <trkpt lat="-27.4510968048938" lon="152.881979059479">        <ele>266.4387152877</ele>        <time></time>      </trkpt>
      <trkpt lat="-27.4512475922256" lon="152.882476514471">        <ele>258.879488919035</ele>        <time></time>      </trkpt>
      <trkpt lat="-27.4515119354079" lon="152.882650081817">        <ele>250.680036173441</ele>        <time></time>      </trkpt>
      <trkpt lat="-27.4517769095767" lon="152.882214371373">        <ele>250.430748626444</ele>        <time></time>      </trkpt>
      <trkpt lat="-27.452173" lon="152.881931">        <ele>239.357788416018</ele>        <time></time>      </trkpt>
      <trkpt lat="-27.452173" lon="152.881931">        <ele>239.661648111561</ele>        <time></time>      </trkpt>
      <trkpt lat="-27.4525913646991" lon="152.881898221424">        <ele>229.893639615948</ele>        <time></time>      </trkpt>
      <trkpt lat="-27.4530333649153" lon="152.881987189204">        <ele>222.215934848045</ele>        <time></time>      </trkpt>
      <trkpt lat="-27.4534853707542" lon="152.882001474151">        <ele>219.262078497993</ele>        <time></time>      </trkpt>
      <trkpt lat="-27.453934933585" lon="152.881996892579">        <ele>212.830747909402</ele>        <time></time>      </trkpt>
      <trkpt lat="-27.4543708463959" lon="152.88212069813">        <ele>210.868047522431</ele>        <time></time>      </trkpt>
      <trkpt lat="-27.4547748966387" lon="152.8823496287">        <ele>206.674634021178</ele>        <time></time>      </trkpt>
      <trkpt lat="-27.4552012883476" lon="152.882510467168">        <ele>201.301354660103</ele>        <time></time>      </trkpt>
      <trkpt lat="-27.4556425428811" lon="152.88258791429">        <ele>196.74784913227</ele>        <time></time>      </trkpt>
      <trkpt lat="-27.4560780085572" lon="152.882725537897">        <ele>193.578782395168</ele>        <time></time>      </trkpt>
      <trkpt lat="-27.4563920745035" lon="152.883066670275">        <ele>197.95567074507</ele>        <time></time>      </trkpt>
      <trkpt lat="-27.456769756652" lon="152.883226225287">        <ele>193.45902864584</ele>        <time></time>      </trkpt>
      <trkpt lat="-27.4571073539398" lon="152.882889494673">        <ele>188.236597453308</ele>        <time></time>      </trkpt>
      <trkpt lat="-27.4574398682301" lon="152.882551921354">        <ele>181.405180268164</ele>        <time></time>      </trkpt>
      <trkpt lat="-27.4577918740778" lon="152.882516657917">        <ele>173.380981517781</ele>        <time></time>      </trkpt>
      <trkpt lat="-27.4577141729073" lon="152.882955815566">        <ele>174.797958537162</ele>        <time></time>      </trkpt>
      <trkpt lat="-27.457826071993" lon="152.883385622851">        <ele>163.15979957296</ele>        <time></time>      </trkpt>
      <trkpt lat="-27.4581829770804" lon="152.883693954159">        <ele>145.398951028252</ele>        <time></time>      </trkpt>
      <trkpt lat="-27.4582660168058" lon="152.884184255331">        <ele>142.990950356182</ele>        <time></time>      </trkpt>
      <trkpt lat="-27.4585787978137" lon="152.88401630738">        <ele>136.002431068209</ele>        <time></time>      </trkpt>
      <trkpt lat="-27.4586535640691" lon="152.883530584676">        <ele>142.422562625352</ele>        <time></time>      </trkpt>
      <trkpt lat="-27.458961094413" lon="152.883781236031">        <ele>131.620476881496</ele>        <time></time>      </trkpt>
      <trkpt lat="-27.4591046743712" lon="152.884261358646">        <ele>122.791128548652</ele>        <time></time>      </trkpt>
      <trkpt lat="-27.4592088952184" lon="152.884755528483">        <ele>120.113678148</ele>        <time></time>      </trkpt>
      <trkpt lat="-27.4592054165006" lon="152.885148850789">        <ele>119.040665657614</ele>        <time></time>      </trkpt>
      <trkpt lat="-27.459582" lon="152.885029">        <ele>115.07475602532</ele>        <time></time>      </trkpt>
      <trkpt lat="-27.459582" lon="152.885029">        <ele>115.128450978036</ele>        <time></time>      </trkpt>
      <trkpt lat="-27.4600026906432" lon="152.885083939246">        <ele>121.488226387521</ele>        <time></time>      </trkpt>
      <trkpt lat="-27.4603191938959" lon="152.884810612208">        <ele>125.848082039145</ele>        <time></time>      </trkpt>
      <trkpt lat="-27.4607116218336" lon="152.88469401213">        <ele>125.210317918278</ele>        <time></time>      </trkpt>
      <trkpt lat="-27.4611188674606" lon="152.884771397618">        <ele>129.50525138041</ele>        <time></time>      </trkpt>
      <trkpt lat="-27.461286174102" lon="152.884265772341">        <ele>114.342143337112</ele>        <time></time>      </trkpt>
      <trkpt lat="-27.4614530458182" lon="152.883800065918">        <ele>104.321166532511</ele>        <time></time>      </trkpt>
      <trkpt lat="-27.4618341066607" lon="152.883464720748">        <ele>95.2539487988245</ele>        <time></time>      </trkpt>
      <trkpt lat="-27.4622466127652" lon="152.883225799018">        <ele>93.3051319983778</ele>        <time></time>      </trkpt>
      <trkpt lat="-27.4627273350821" lon="152.883205106387">        <ele>91.052475331611</ele>        <time></time>      </trkpt>
      <trkpt lat="-27.462963" lon="152.883584">        <ele>92.8413203757809</ele>        <time></time>      </trkpt>
    </trkseg>
  </trk>
</gpx>
