<?xml version="1.0" encoding="UTF-8" standalone="no"?>
<gpx xmlns="http://www.topografix.com/GPX/1/1" xmlns:xsi="http://www.w3.org/2001/XMLSchema-instance" xsi:schemaLocation="http://www.topografix.com/GPX/1/1 http://www.topografix.com/GPX/1/1/gpx.xsd" version="1.1" creator="Metric Trails">
  <metadata>
    <name>Metric Trails Generated GPX</name>
    <desc>This track was generated by Metric Trails technology for GNSS trajectory processing.</desc>
    <author>
      <name>Metric Trails</name>
      <link href="https://www.metrictrails.com"/>
    </author>
    <time>2025-10-28T11:38:21Z</time>
  </metadata>
  <trk>
    <name>Metric Trails. Track standarized to 50-meter spatial resolution</name>
    <trkseg>
      <trkpt lat="-27.305378" lon="152.690588">        <ele>167.231567514263</ele>        <time></time>      </trkpt>
      <trkpt lat="-27.3050685419937" lon="152.690959663677">        <ele>180.178496629668</ele>        <time></time>      </trkpt>
      <trkpt lat="-27.3046564721103" lon="152.691053243131">        <ele>183.623451527925</ele>        <time></time>      </trkpt>
      <trkpt lat="-27.3042415672366" lon="152.691149298294">        <ele>187.442137811466</ele>        <time></time>      </trkpt>
      <trkpt lat="-27.3044583472071" lon="152.691565349914">        <ele>195.190126256185</ele>        <time></time>      </trkpt>
      <trkpt lat="-27.3047636267697" lon="152.691944221491">        <ele>203.94759572601</ele>        <time></time>      </trkpt>
      <trkpt lat="-27.3051428907748" lon="152.69222391808">        <ele>215.095936212765</ele>        <time></time>      </trkpt>
      <trkpt lat="-27.3055064641061" lon="152.692524885839">        <ele>229.765265588699</ele>        <time></time>      </trkpt>
      <trkpt lat="-27.3057840338076" lon="152.692929796388">        <ele>244.594202166653</ele>        <time></time>      </trkpt>
      <trkpt lat="-27.3060849783387" lon="152.693316471974">        <ele>258.737566415037</ele>        <time></time>      </trkpt>
      <trkpt lat="-27.3063555216499" lon="152.693729099801">        <ele>254.802212397214</ele>        <time></time>      </trkpt>
      <trkpt lat="-27.3066474768284" lon="152.694122415275">        <ele>262.611437592343</ele>        <time></time>      </trkpt>
      <trkpt lat="-27.3069808246648" lon="152.694475824663">        <ele>272.25837034212</ele>        <time></time>      </trkpt>
      <trkpt lat="-27.3072948901218" lon="152.694830892895">        <ele>284.76010514364</ele>        <time></time>      </trkpt>
      <trkpt lat="-27.3075730833326" lon="152.69522132993">        <ele>288.523404061444</ele>        <time></time>      </trkpt>
      <trkpt lat="-27.3079785104718" lon="152.695452303973">        <ele>303.060558249568</ele>        <time></time>      </trkpt>
      <trkpt lat="-27.3083814497527" lon="152.695686705225">        <ele>320.869383918625</ele>        <time></time>      </trkpt>
      <trkpt lat="-27.3087507005367" lon="152.695977720616">        <ele>330.824131102201</ele>        <time></time>      </trkpt>
      <trkpt lat="-27.3091939950819" lon="152.696088639425">        <ele>340.006834801814</ele>        <time></time>      </trkpt>
      <trkpt lat="-27.3096494150756" lon="152.696068300273">        <ele>349.573922245414</ele>        <time></time>      </trkpt>
      <trkpt lat="-27.3100885932138" lon="152.696168802073">        <ele>360.511974732048</ele>        <time></time>      </trkpt>
      <trkpt lat="-27.3102968554676" lon="152.696581496381">        <ele>368.937575574616</ele>        <time></time>      </trkpt>
      <trkpt lat="-27.3102852078635" lon="152.697091983321">        <ele>376.187617827921</ele>        <time></time>      </trkpt>
      <trkpt lat="-27.3103016953223" lon="152.697601139436">        <ele>383.775912071492</ele>        <time></time>      </trkpt>
      <trkpt lat="-27.3103225442032" lon="152.698106916828">        <ele>401.011365049708</ele>        <time></time>      </trkpt>
      <trkpt lat="-27.310261331863" lon="152.698603662623">        <ele>411.700116468648</ele>        <time></time>      </trkpt>
      <trkpt lat="-27.3106356087482" lon="152.698811402187">        <ele>414.653325624216</ele>        <time></time>      </trkpt>
      <trkpt lat="-27.3110722387112" lon="152.698968053946">        <ele>426.079902663134</ele>        <time></time>      </trkpt>
      <trkpt lat="-27.3114764945685" lon="152.699208266306">        <ele>428.870879447908</ele>        <time></time>      </trkpt>
      <trkpt lat="-27.3118899045074" lon="152.699421401196">        <ele>435.625738134672</ele>        <time></time>      </trkpt>
      <trkpt lat="-27.3123010181707" lon="152.699645345442">        <ele>438.190404356823</ele>        <time></time>      </trkpt>
      <trkpt lat="-27.3127125100533" lon="152.699869489724">        <ele>437.631803804081</ele>        <time></time>      </trkpt>
      <trkpt lat="-27.3131542977793" lon="152.700002953795">        <ele>445.16917988362</ele>        <time></time>      </trkpt>
      <trkpt lat="-27.3135128934371" lon="152.700312900786">        <ele>460.070362408951</ele>        <time></time>      </trkpt>
      <trkpt lat="-27.3138979795746" lon="152.700591271122">        <ele>474.918133969493</ele>        <time></time>      </trkpt>
      <trkpt lat="-27.3142338310821" lon="152.70094032901">        <ele>483.642344117511</ele>        <time></time>      </trkpt>
      <trkpt lat="-27.3146236987417" lon="152.701207451637">        <ele>490.562329967759</ele>        <time></time>      </trkpt>
      <trkpt lat="-27.3148982275749" lon="152.701618538754">        <ele>497.026635018038</ele>        <time></time>      </trkpt>
      <trkpt lat="-27.3150435335004" lon="152.702079404493">        <ele>501.859665107902</ele>        <time></time>      </trkpt>
      <trkpt lat="-27.315063" lon="152.702587">        <ele>507.844590627954</ele>        <time></time>      </trkpt>
      <trkpt lat="-27.315063" lon="152.702587">        <ele>507.929795106541</ele>        <time></time>      </trkpt>
      <trkpt lat="-27.3150634484552" lon="152.703091007211">        <ele>507.866993509375</ele>        <time></time>      </trkpt>
      <trkpt lat="-27.3153899636652" lon="152.70344296365">        <ele>505.852998984377</ele>        <time></time>      </trkpt>
      <trkpt lat="-27.3157357732123" lon="152.703767786476">        <ele>515.081751101773</ele>        <time></time>      </trkpt>
      <trkpt lat="-27.3160510815545" lon="152.704133339527">        <ele>534.815073373607</ele>        <time></time>      </trkpt>
      <trkpt lat="-27.3163052342641" lon="152.704550587681">        <ele>541.483981222874</ele>        <time></time>      </trkpt>
      <trkpt lat="-27.3165950795383" lon="152.704928974809">        <ele>550.023452558999</ele>        <time></time>      </trkpt>
      <trkpt lat="-27.3169652135374" lon="152.705226253081">        <ele>572.171965792786</ele>        <time></time>      </trkpt>
      <trkpt lat="-27.3171256266069" lon="152.705683647013">        <ele>570.961436424875</ele>        <time></time>      </trkpt>
      <trkpt lat="-27.3174358497557" lon="152.706004861435">        <ele>576.974111962655</ele>        <time></time>      </trkpt>
      <trkpt lat="-27.3178358439905" lon="152.706240822848">        <ele>581.154209013782</ele>        <time></time>      </trkpt>
      <trkpt lat="-27.3182537699931" lon="152.706438956873">        <ele>582.606695833327</ele>        <time></time>      </trkpt>
      <trkpt lat="-27.3186948199923" lon="152.706548993037">        <ele>590.970080662441</ele>        <time></time>      </trkpt>
      <trkpt lat="-27.3190835338101" lon="152.70680701534">        <ele>587.983266374188</ele>        <time></time>      </trkpt>
      <trkpt lat="-27.3192044223621" lon="152.70727454432">        <ele>590.727056936084</ele>        <time></time>      </trkpt>
      <trkpt lat="-27.3192000000074" lon="152.70778426201">        <ele>588.096997802297</ele>        <time></time>      </trkpt>
      <trkpt lat="-27.3191813237453" lon="152.70829514388">        <ele>585.177940908248</ele>        <time></time>      </trkpt>
      <trkpt lat="-27.3191606754625" lon="152.708803784521">        <ele>587.894068288813</ele>        <time></time>      </trkpt>
      <trkpt lat="-27.3191217053689" lon="152.70928991826">        <ele>594.66467229378</ele>        <time></time>      </trkpt>
      <trkpt lat="-27.3194708237155" lon="152.709617190692">        <ele>595.674043895255</ele>        <time></time>      </trkpt>
      <trkpt lat="-27.3198411755482" lon="152.70991701157">        <ele>593.377035523158</ele>        <time></time>      </trkpt>
      <trkpt lat="-27.3202376958829" lon="152.710170380557">        <ele>598.457366086577</ele>        <time></time>      </trkpt>
      <trkpt lat="-27.320579287337" lon="152.710501968852">        <ele>603.123724037753</ele>        <time></time>      </trkpt>
      <trkpt lat="-27.3206832129602" lon="152.710981239466">        <ele>601.084116049948</ele>        <time></time>      </trkpt>
      <trkpt lat="-27.320785107846" lon="152.71147663459">        <ele>596.81610288637</ele>        <time></time>      </trkpt>
      <trkpt lat="-27.3209323113434" lon="152.711957141124">        <ele>596.091227151038</ele>        <time></time>      </trkpt>
      <trkpt lat="-27.3212176971427" lon="152.712356485523">        <ele>597.967892982705</ele>        <time></time>      </trkpt>
      <trkpt lat="-27.3214774677916" lon="152.712775071615">        <ele>603.413261650356</ele>        <time></time>      </trkpt>
      <trkpt lat="-27.3217937460185" lon="152.713135246631">        <ele>611.472574415372</ele>        <time></time>      </trkpt>
      <trkpt lat="-27.3221807635037" lon="152.713399034731">        <ele>611.846082457112</ele>        <time></time>      </trkpt>
      <trkpt lat="-27.3220848613156" lon="152.713850712243">        <ele>619.31263432939</ele>        <time></time>      </trkpt>
      <trkpt lat="-27.3218823550388" lon="152.714304252357">        <ele>624.889910356187</ele>        <time></time>      </trkpt>
      <trkpt lat="-27.321630987908" lon="152.71471985489">        <ele>630.3699933834</ele>        <time></time>      </trkpt>
      <trkpt lat="-27.3219382501158" lon="152.715091750129">        <ele>634.50123274193</ele>        <time></time>      </trkpt>
      <trkpt lat="-27.3221274176968" lon="152.715540686009">        <ele>641.149177944915</ele>        <time></time>      </trkpt>
      <trkpt lat="-27.3223440112659" lon="152.715989966683">        <ele>641.737835721973</ele>        <time></time>      </trkpt>
      <trkpt lat="-27.3226510745408" lon="152.71636707454">        <ele>642.860154534609</ele>        <time></time>      </trkpt>
      <trkpt lat="-27.3228909578969" lon="152.716793268429">        <ele>640.133866297195</ele>        <time></time>      </trkpt>
      <trkpt lat="-27.3229474550008" lon="152.717297276885">        <ele>630.475147480726</ele>        <time></time>      </trkpt>
      <trkpt lat="-27.322910874767" lon="152.717806348651">        <ele>621.595582151467</ele>        <time></time>      </trkpt>
      <trkpt lat="-27.3229248591456" lon="152.718312910045">        <ele>621.091060199338</ele>        <time></time>      </trkpt>
      <trkpt lat="-27.3232588765024" lon="152.718635614756">        <ele>622.041168891344</ele>        <time></time>      </trkpt>
      <trkpt lat="-27.3236613813199" lon="152.718873542469">        <ele>624.760667446998</ele>        <time></time>      </trkpt>
      <trkpt lat="-27.3240959918979" lon="152.718774974268">        <ele>611.651086888898</ele>        <time></time>      </trkpt>
      <trkpt lat="-27.3245495570297" lon="152.718725088596">        <ele>605.529445216334</ele>        <time></time>      </trkpt>
      <trkpt lat="-27.3249976740343" lon="152.718639242646">        <ele>594.182224700462</ele>        <time></time>      </trkpt>
      <trkpt lat="-27.3254362794565" lon="152.718771744347">        <ele>593.740764679771</ele>        <time></time>      </trkpt>
      <trkpt lat="-27.32586654025" lon="152.71894141227">        <ele>578.256719006243</ele>        <time></time>      </trkpt>
      <trkpt lat="-27.3263218927157" lon="152.718971715397">        <ele>567.016932983767</ele>        <time></time>      </trkpt>
      <trkpt lat="-27.3267599751101" lon="152.719077231321">        <ele>557.869969440239</ele>        <time></time>      </trkpt>
      <trkpt lat="-27.3271688502639" lon="152.719286515847">        <ele>552.13774037466</ele>        <time></time>      </trkpt>
      <trkpt lat="-27.3276187822094" lon="152.71936552639">        <ele>546.259589992272</ele>        <time></time>      </trkpt>
      <trkpt lat="-27.3279938364526" lon="152.71918784438">        <ele>530.4346047365</ele>        <time></time>      </trkpt>
      <trkpt lat="-27.328144648514" lon="152.718710996291">        <ele>526.207755578505</ele>        <time></time>      </trkpt>
      <trkpt lat="-27.3285370787945" lon="152.718454570108">        <ele>518.893144691232</ele>        <time></time>      </trkpt>
      <trkpt lat="-27.3289403667966" lon="152.718214025099">        <ele>525.199996198305</ele>        <time></time>      </trkpt>
      <trkpt lat="-27.3293514969383" lon="152.71799144696">        <ele>525.415706027046</ele>        <time></time>      </trkpt>
      <trkpt lat="-27.3296867799535" lon="152.717648625916">        <ele>526.364043687305</ele>        <time></time>      </trkpt>
      <trkpt lat="-27.3301273441722" lon="152.717538127371">        <ele>540.182347114954</ele>        <time></time>      </trkpt>
      <trkpt lat="-27.330580518582" lon="152.717488317654">        <ele>544.010798461705</ele>        <time></time>      </trkpt>
      <trkpt lat="-27.3310352896763" lon="152.71753270458">        <ele>544.190798933431</ele>        <time></time>      </trkpt>
      <trkpt lat="-27.3314865609111" lon="152.717605500695">        <ele>541.857235170647</ele>        <time></time>      </trkpt>
      <trkpt lat="-27.3319297205906" lon="152.717488918235">        <ele>543.79841684655</ele>        <time></time>      </trkpt>
      <trkpt lat="-27.3323425482647" lon="152.717278024812">        <ele>550.025009837742</ele>        <time></time>      </trkpt>
      <trkpt lat="-27.3327960044509" lon="152.717217438151">        <ele>551.34342355701</ele>        <time></time>      </trkpt>
      <trkpt lat="-27.3331996318638" lon="152.716999460734">        <ele>549.511785562664</ele>        <time></time>      </trkpt>
      <trkpt lat="-27.3334804928123" lon="152.716602669521">        <ele>543.896310676109</ele>        <time></time>      </trkpt>
      <trkpt lat="-27.3336407834697" lon="152.716123977003">        <ele>542.465149156094</ele>        <time></time>      </trkpt>
      <trkpt lat="-27.3339366007002" lon="152.715742997146">        <ele>536.3569000282</ele>        <time></time>      </trkpt>
      <trkpt lat="-27.3342862189398" lon="152.715414797503">        <ele>524.536741867901</ele>        <time></time>      </trkpt>
      <trkpt lat="-27.3346353034612" lon="152.715084927422">        <ele>526.091590202329</ele>        <time></time>      </trkpt>
      <trkpt lat="-27.334977" lon="152.714745">        <ele>518.841931581602</ele>        <time></time>      </trkpt>
      <trkpt lat="-27.334977" lon="152.714745">        <ele>518.870033690839</ele>        <time></time>      </trkpt>
      <trkpt lat="-27.3352786030443" lon="152.714367218549">        <ele>515.010814811474</ele>        <time></time>      </trkpt>
      <trkpt lat="-27.3356044408095" lon="152.714024190234">        <ele>507.796385270149</ele>        <time></time>      </trkpt>
      <trkpt lat="-27.3360391949814" lon="152.713916948363">        <ele>515.903835258978</ele>        <time></time>      </trkpt>
      <trkpt lat="-27.3364596353137" lon="152.714080993078">        <ele>504.722259866118</ele>        <time></time>      </trkpt>
      <trkpt lat="-27.3368922507188" lon="152.714213470849">        <ele>497.920009494317</ele>        <time></time>      </trkpt>
      <trkpt lat="-27.3371755919437" lon="152.714539247756">        <ele>498.036142323991</ele>        <time></time>      </trkpt>
      <trkpt lat="-27.337490115453" lon="152.714883461805">        <ele>479.944065961547</ele>        <time></time>      </trkpt>
      <trkpt lat="-27.3372272261336" lon="152.714892626159">        <ele>481.767684695492</ele>        <time></time>      </trkpt>
      <trkpt lat="-27.33694192263" lon="152.714589495221">        <ele>486.7587135248</ele>        <time></time>      </trkpt>
      <trkpt lat="-27.3364953417934" lon="152.714573901818">        <ele>479.829349931277</ele>        <time></time>      </trkpt>
      <trkpt lat="-27.3360525026701" lon="152.714575116084">        <ele>487.966101906367</ele>        <time></time>      </trkpt>
      <trkpt lat="-27.3357638727494" lon="152.714957345395">        <ele>488.993120050135</ele>        <time></time>      </trkpt>
      <trkpt lat="-27.3356638732635" lon="152.715450549212">        <ele>477.078431317845</ele>        <time></time>      </trkpt>
      <trkpt lat="-27.3354595535038" lon="152.715897618896">        <ele>480.29186412772</ele>        <time></time>      </trkpt>
      <trkpt lat="-27.3352591721965" lon="152.71635103686">        <ele>466.812061013601</ele>        <time></time>      </trkpt>
      <trkpt lat="-27.3354013704938" lon="152.716784776054">        <ele>441.267240974556</ele>        <time></time>      </trkpt>
      <trkpt lat="-27.3355261240593" lon="152.717244073333">        <ele>441.000953072562</ele>        <time></time>      </trkpt>
      <trkpt lat="-27.3353201017372" lon="152.717691485735">        <ele>442.505203224417</ele>        <time></time>      </trkpt>
      <trkpt lat="-27.3355695358566" lon="152.718050521509">        <ele>420.956431942354</ele>        <time></time>      </trkpt>
      <trkpt lat="-27.3357757657408" lon="152.718423031825">        <ele>411.156027565924</ele>        <time></time>      </trkpt>
      <trkpt lat="-27.3355144930206" lon="152.718837624741">        <ele>408.893196895557</ele>        <time></time>      </trkpt>
      <trkpt lat="-27.3357477885514" lon="152.719152663017">        <ele>398.186765665603</ele>        <time></time>      </trkpt>
      <trkpt lat="-27.3361063194363" lon="152.719457596139">        <ele>389.92383559475</ele>        <time></time>      </trkpt>
      <trkpt lat="-27.3363422932062" lon="152.7198905663">        <ele>383.247792419604</ele>        <time></time>      </trkpt>
      <trkpt lat="-27.3366649137303" lon="152.72024882804">        <ele>373.982309673186</ele>        <time></time>      </trkpt>
      <trkpt lat="-27.337042685885" lon="152.72052964077">        <ele>367.938507605458</ele>        <time></time>      </trkpt>
      <trkpt lat="-27.3374291145915" lon="152.720797030588">        <ele>360.359677444353</ele>        <time></time>      </trkpt>
      <trkpt lat="-27.3378161297074" lon="152.721059774629">        <ele>356.19813388605</ele>        <time></time>      </trkpt>
      <trkpt lat="-27.3381962603241" lon="152.721338903277">        <ele>354.675157023494</ele>        <time></time>      </trkpt>
      <trkpt lat="-27.3385797891043" lon="152.721611273461">        <ele>353.379458787913</ele>        <time></time>      </trkpt>
      <trkpt lat="-27.3389499759679" lon="152.721902188211">        <ele>345.440275519619</ele>        <time></time>      </trkpt>
      <trkpt lat="-27.3393310394104" lon="152.722178635462">        <ele>342.778313779432</ele>        <time></time>      </trkpt>
      <trkpt lat="-27.3397021012051" lon="152.72247126505">        <ele>345.865175439303</ele>        <time></time>      </trkpt>
      <trkpt lat="-27.3400659613628" lon="152.722775692206">        <ele>339.538422979148</ele>        <time></time>      </trkpt>
      <trkpt lat="-27.3404955909324" lon="152.722936581379">        <ele>332.384975816028</ele>        <time></time>      </trkpt>
      <trkpt lat="-27.3409454700896" lon="152.72299240511">        <ele>332.555899428667</ele>        <time></time>      </trkpt>
      <trkpt lat="-27.3413846860602" lon="152.72312170783">        <ele>329.175502297877</ele>        <time></time>      </trkpt>
      <trkpt lat="-27.3418369341809" lon="152.723172258806">        <ele>322.245400690714</ele>        <time></time>      </trkpt>
      <trkpt lat="-27.34228934897" lon="152.723216646136">        <ele>315.837093261504</ele>        <time></time>      </trkpt>
      <trkpt lat="-27.3427372176364" lon="152.723293171811">        <ele>311.747168821999</ele>        <time></time>      </trkpt>
      <trkpt lat="-27.3431386046281" lon="152.723529142984">        <ele>309.651641421608</ele>        <time></time>      </trkpt>
      <trkpt lat="-27.343559567679" lon="152.723690138803">        <ele>305.436669690786</ele>        <time></time>      </trkpt>
      <trkpt lat="-27.3440068618525" lon="152.723709127132">        <ele>303.81878089749</ele>        <time></time>      </trkpt>
      <trkpt lat="-27.3444414973387" lon="152.723856728257">        <ele>297.039466538678</ele>        <time></time>      </trkpt>
      <trkpt lat="-27.3448375475808" lon="152.723991809379">        <ele>292.968553497619</ele>        <time></time>      </trkpt>
      <trkpt lat="-27.3448374569486" lon="152.724495802526">        <ele>293.490493959255</ele>        <time></time>      </trkpt>
      <trkpt lat="-27.3450200342693" lon="152.724960746603">        <ele>288.615145401435</ele>        <time></time>      </trkpt>
      <trkpt lat="-27.3451999907287" lon="152.725425464035">        <ele>280.541492302092</ele>        <time></time>      </trkpt>
      <trkpt lat="-27.3453728464455" lon="152.725888715723">        <ele>268.885785660701</ele>        <time></time>      </trkpt>
      <trkpt lat="-27.3455436277587" lon="152.726353280526">        <ele>260.058343892381</ele>        <time></time>      </trkpt>
      <trkpt lat="-27.3457192065067" lon="152.726813499932">        <ele>253.209565926135</ele>        <time></time>      </trkpt>
      <trkpt lat="-27.3454041069752" lon="152.727148623692">        <ele>250.560796970145</ele>        <time></time>      </trkpt>
      <trkpt lat="-27.3450434610916" lon="152.727453028013">        <ele>241.184709617767</ele>        <time></time>      </trkpt>
      <trkpt lat="-27.344707970847" lon="152.727258052254">        <ele>245.625855559901</ele>        <time></time>      </trkpt>
      <trkpt lat="-27.3442883354943" lon="152.727388427646">        <ele>233.759000650431</ele>        <time></time>      </trkpt>
      <trkpt lat="-27.3439213560673" lon="152.727666683541">        <ele>232.144374060017</ele>        <time></time>      </trkpt>
      <trkpt lat="-27.3437290651368" lon="152.728125910718">        <ele>220.970852556857</ele>        <time></time>      </trkpt>
      <trkpt lat="-27.3435735802925" lon="152.728603717451">        <ele>206.189852696002</ele>        <time></time>      </trkpt>
      <trkpt lat="-27.3434443911796" lon="152.729089000964">        <ele>190.67829622562</ele>        <time></time>      </trkpt>
      <trkpt lat="-27.3430760156637" lon="152.729223080302">        <ele>183.001892769333</ele>        <time></time>      </trkpt>
      <trkpt lat="-27.3427572232625" lon="152.728880844508">        <ele>183.048409115034</ele>        <time></time>      </trkpt>
      <trkpt lat="-27.3423166297958" lon="152.728988408911">        <ele>172.108866523952</ele>        <time></time>      </trkpt>
      <trkpt lat="-27.3418818017333" lon="152.729067512467">        <ele>165.989228151194</ele>        <time></time>      </trkpt>
      <trkpt lat="-27.3422181943162" lon="152.729327976447">        <ele>162.410513423353</ele>        <time></time>      </trkpt>
      <trkpt lat="-27.3426600771553" lon="152.729446786654">        <ele>169.22604814116</ele>        <time></time>      </trkpt>
      <trkpt lat="-27.3429868947214" lon="152.729773015074">        <ele>169.773050952218</ele>        <time></time>      </trkpt>
      <trkpt lat="-27.3432412399068" lon="152.730181839875">        <ele>162.47611314732</ele>        <time></time>      </trkpt>
      <trkpt lat="-27.3435797270594" lon="152.730521397982">        <ele>159.589637971151</ele>        <time></time>      </trkpt>
      <trkpt lat="-27.3439496181555" lon="152.730774975007">        <ele>160.980446598369</ele>        <time></time>      </trkpt>
      <trkpt lat="-27.3443527529151" lon="152.730626902541">        <ele>160.726709343668</ele>        <time></time>      </trkpt>
      <trkpt lat="-27.344801266148" lon="152.730563600446">        <ele>160.268574197214</ele>        <time></time>      </trkpt>
      <trkpt lat="-27.3452493387723" lon="152.730485464685">        <ele>160.066956675184</ele>        <time></time>      </trkpt>
      <trkpt lat="-27.3456895107064" lon="152.730591903372">        <ele>148.137789924269</ele>        <time></time>      </trkpt>
      <trkpt lat="-27.3461247833893" lon="152.730596729979">        <ele>147.308020253145</ele>        <time></time>      </trkpt>
      <trkpt lat="-27.3463809102609" lon="152.730187020577">        <ele>145.925004449164</ele>        <time></time>      </trkpt>
      <trkpt lat="-27.3467362693496" lon="152.729874449653">        <ele>148.768713127886</ele>        <time></time>      </trkpt>
      <trkpt lat="-27.3471526824436" lon="152.729672941444">        <ele>143.665237861724</ele>        <time></time>      </trkpt>
      <trkpt lat="-27.3475227602099" lon="152.729386973405">        <ele>142.301314572764</ele>        <time></time>      </trkpt>
      <trkpt lat="-27.3477629453538" lon="152.728961888129">        <ele>146.890752108432</ele>        <time></time>      </trkpt>
      <trkpt lat="-27.3479020652059" lon="152.728478393903">        <ele>145.060694678804</ele>        <time></time>      </trkpt>
      <trkpt lat="-27.3481059637866" lon="152.728025625075">        <ele>148.606800957259</ele>        <time></time>      </trkpt>
      <trkpt lat="-27.3484116725475" lon="152.727664779837">        <ele>141.343618990447</ele>        <time></time>      </trkpt>
      <trkpt lat="-27.348835438695" lon="152.727485306753">        <ele>143.878277121838</ele>        <time></time>      </trkpt>
      <trkpt lat="-27.3492405175902" lon="152.727257383471">        <ele>144.415344091493</ele>        <time></time>      </trkpt>
      <trkpt lat="-27.3496342013159" lon="152.727003303796">        <ele>142.735818430694</ele>        <time></time>      </trkpt>
      <trkpt lat="-27.3500259176556" lon="152.726746314143">        <ele>142.787372696078</ele>        <time></time>      </trkpt>
      <trkpt lat="-27.3503670603104" lon="152.726412887224">        <ele>142.991439519036</ele>        <time></time>      </trkpt>
      <trkpt lat="-27.350705" lon="152.726074">        <ele>143.845066145618</ele>        <time></time>      </trkpt>
      <trkpt lat="-27.350705" lon="152.726074">        <ele>143.777685405271</ele>        <time></time>      </trkpt>
      <trkpt lat="-27.3510263034278" lon="152.725712820792">        <ele>142.652164344092</ele>        <time></time>      </trkpt>
      <trkpt lat="-27.3513579486291" lon="152.725364744775">        <ele>135.14609349488</ele>        <time></time>      </trkpt>
      <trkpt lat="-27.3516674080626" lon="152.724988566291">        <ele>141.757064699956</ele>        <time></time>      </trkpt>
      <trkpt lat="-27.3519811744683" lon="152.724619145578">        <ele>139.944780436415</ele>        <time></time>      </trkpt>
      <trkpt lat="-27.3523189860325" lon="152.724281506987">        <ele>140.220673289183</ele>        <time></time>      </trkpt>
      <trkpt lat="-27.3527491776056" lon="152.724279030368">        <ele>144.895404263246</ele>        <time></time>      </trkpt>
      <trkpt lat="-27.3531137697174" lon="152.724584291763">        <ele>144.794901505965</ele>        <time></time>      </trkpt>
      <trkpt lat="-27.3535122518117" lon="152.724804074748">        <ele>148.24283100234</ele>        <time></time>      </trkpt>
      <trkpt lat="-27.3535560317156" lon="152.724317171264">        <ele>147.350432718686</ele>        <time></time>      </trkpt>
      <trkpt lat="-27.353883684388" lon="152.724122825811">        <ele>153.464545470241</ele>        <time></time>      </trkpt>
      <trkpt lat="-27.3542764813279" lon="152.724360825281">        <ele>159.145590007915</ele>        <time></time>      </trkpt>
      <trkpt lat="-27.354636324628" lon="152.724651799544">        <ele>165.114904913903</ele>        <time></time>      </trkpt>
      <trkpt lat="-27.3548416961158" lon="152.725030266186">        <ele>168.260009112748</ele>        <time></time>      </trkpt>
      <trkpt lat="-27.3547063001424" lon="152.72551664936">        <ele>177.589203757084</ele>        <time></time>      </trkpt>
      <trkpt lat="-27.354799157024" lon="152.726009945642">        <ele>185.12365882409</ele>        <time></time>      </trkpt>
      <trkpt lat="-27.3548024794022" lon="152.726487388221">        <ele>193.406283789419</ele>        <time></time>      </trkpt>
      <trkpt lat="-27.3547022974927" lon="152.726919768072">        <ele>201.846581189405</ele>        <time></time>      </trkpt>
      <trkpt lat="-27.3551042327214" lon="152.72714646831">        <ele>198.540945390529</ele>        <time></time>      </trkpt>
      <trkpt lat="-27.3553406111094" lon="152.727548880323">        <ele>207.019878308298</ele>        <time></time>      </trkpt>
      <trkpt lat="-27.3552982190419" lon="152.728036388172">        <ele>215.022906518491</ele>        <time></time>      </trkpt>
      <trkpt lat="-27.3550970380014" lon="152.728473464861">        <ele>227.437225881005</ele>        <time></time>      </trkpt>
      <trkpt lat="-27.3553852913281" lon="152.728815900887">        <ele>226.205893878878</ele>        <time></time>      </trkpt>
      <trkpt lat="-27.3558119300762" lon="152.728652013734">        <ele>217.376422868014</ele>        <time></time>      </trkpt>
      <trkpt lat="-27.3562393552245" lon="152.7285">        <ele>218.433718523261</ele>        <time></time>      </trkpt>
      <trkpt lat="-27.3566856258094" lon="152.728408418232">        <ele>229.015030706827</ele>        <time></time>      </trkpt>
      <trkpt lat="-27.3570734463646" lon="152.728141016745">        <ele>227.135289574098</ele>        <time></time>      </trkpt>
      <trkpt lat="-27.3573091725587" lon="152.728416206527">        <ele>222.363756301662</ele>        <time></time>      </trkpt>
      <trkpt lat="-27.3571910980306" lon="152.72890252916">        <ele>226.376630120263</ele>        <time></time>      </trkpt>
      <trkpt lat="-27.3572659583425" lon="152.729404854179">        <ele>223.36301245027</ele>        <time></time>      </trkpt>
      <trkpt lat="-27.3575438367616" lon="152.729286964148">        <ele>222.31157384563</ele>        <time></time>      </trkpt>
      <trkpt lat="-27.3577064754954" lon="152.728830043301">        <ele>216.516223636835</ele>        <time></time>      </trkpt>
      <trkpt lat="-27.358081373757" lon="152.728540165088">        <ele>214.427459084013</ele>        <time></time>      </trkpt>
      <trkpt lat="-27.3585213403909" lon="152.728432236189">        <ele>212.234627170206</ele>        <time></time>      </trkpt>
      <trkpt lat="-27.358974768543" lon="152.728448938374">        <ele>212.227724680909</ele>        <time></time>      </trkpt>
      <trkpt lat="-27.3593745139689" lon="152.728210071534">        <ele>202.350349230463</ele>        <time></time>      </trkpt>
      <trkpt lat="-27.3596912413252" lon="152.727855558278">        <ele>195.572529669076</ele>        <time></time>      </trkpt>
      <trkpt lat="-27.3601337698461" lon="152.727748531182">        <ele>191.584814018207</ele>        <time></time>      </trkpt>
      <trkpt lat="-27.3605881739154" lon="152.727797321177">        <ele>193.932171941685</ele>        <time></time>      </trkpt>
      <trkpt lat="-27.3610430764871" lon="152.727832513078">        <ele>195.388519365364</ele>        <time></time>      </trkpt>
      <trkpt lat="-27.3614949030139" lon="152.727856330149">        <ele>194.164506364868</ele>        <time></time>      </trkpt>
      <trkpt lat="-27.3618735220596" lon="152.728131488286">        <ele>200.603429732017</ele>        <time></time>      </trkpt>
      <trkpt lat="-27.3621442263599" lon="152.728533227259">        <ele>208.363541513341</ele>        <time></time>      </trkpt>
      <trkpt lat="-27.3624528222467" lon="152.728876143605">        <ele>214.482874649395</ele>        <time></time>      </trkpt>
      <trkpt lat="-27.3625815902807" lon="152.729328300245">        <ele>220.045281132878</ele>        <time></time>      </trkpt>
      <trkpt lat="-27.3624703235382" lon="152.729824012228">        <ele>229.449856493885</ele>        <time></time>      </trkpt>
      <trkpt lat="-27.3623112611307" lon="152.73030260164">        <ele>237.913883265321</ele>        <time></time>      </trkpt>
      <trkpt lat="-27.3623122655457" lon="152.730809694406">        <ele>240.948056367284</ele>        <time></time>      </trkpt>
      <trkpt lat="-27.3625735336554" lon="152.73118510169">        <ele>237.283484590241</ele>        <time></time>      </trkpt>
      <trkpt lat="-27.362993287454" lon="152.731208813483">        <ele>234.454390010404</ele>        <time></time>      </trkpt>
      <trkpt lat="-27.363191600361" lon="152.730772856965">        <ele>229.951364169855</ele>        <time></time>      </trkpt>
      <trkpt lat="-27.3634969669028" lon="152.730398462628">        <ele>233.813632863866</ele>        <time></time>      </trkpt>
      <trkpt lat="-27.3638472344719" lon="152.730519097809">        <ele>239.203128462205</ele>        <time></time>      </trkpt>
      <trkpt lat="-27.364097538237" lon="152.730891125383">        <ele>255.80769903894</ele>        <time></time>      </trkpt>
      <trkpt lat="-27.3645526267424" lon="152.730898968894">        <ele>263.696679269478</ele>        <time></time>      </trkpt>
      <trkpt lat="-27.3649702516625" lon="152.730716734344">        <ele>260.947024716161</ele>        <time></time>      </trkpt>
      <trkpt lat="-27.3653953632081" lon="152.730596812921">        <ele>258.40978472965</ele>        <time></time>      </trkpt>
      <trkpt lat="-27.3658344310725" lon="152.730737529322">        <ele>266.285184726685</ele>        <time></time>      </trkpt>
      <trkpt lat="-27.3659209153763" lon="152.73086520337">        <ele>268.634073623935</ele>        <time></time>      </trkpt>
      <trkpt lat="-27.3654906945999" lon="152.731030995498">        <ele>277.492760556179</ele>        <time></time>      </trkpt>
      <trkpt lat="-27.3651792450109" lon="152.731388183303">        <ele>282.892097179003</ele>        <time></time>      </trkpt>
      <trkpt lat="-27.3649680366055" lon="152.731838185947">        <ele>296.977072817697</ele>        <time></time>      </trkpt>
      <trkpt lat="-27.3647074918689" lon="152.732258204145">        <ele>303.741855702091</ele>        <time></time>      </trkpt>
      <trkpt lat="-27.3644481704626" lon="152.732670854579">        <ele>316.222445772432</ele>        <time></time>      </trkpt>
      <trkpt lat="-27.3640512186037" lon="152.732899397342">        <ele>319.041573537033</ele>        <time></time>      </trkpt>
      <trkpt lat="-27.3636066840708" lon="152.733013754121">        <ele>319.992284711335</ele>        <time></time>      </trkpt>
      <trkpt lat="-27.3631679599108" lon="152.733148160788">        <ele>333.737219163303</ele>        <time></time>      </trkpt>
      <trkpt lat="-27.3627224706906" lon="152.733247071848">        <ele>334.774875327649</ele>        <time></time>      </trkpt>
      <trkpt lat="-27.3622883628938" lon="152.733378689752">        <ele>343.781708845189</ele>        <time></time>      </trkpt>
      <trkpt lat="-27.3618462948535" lon="152.733286441572">        <ele>356.320650381163</ele>        <time></time>      </trkpt>
      <trkpt lat="-27.361401" lon="152.733347">        <ele>364.837306398082</ele>        <time></time>      </trkpt>
      <trkpt lat="-27.361401" lon="152.733347">        <ele>364.936095117666</ele>        <time></time>      </trkpt>
      <trkpt lat="-27.3609579145069" lon="152.733277059541">        <ele>378.222706367503</ele>        <time></time>      </trkpt>
      <trkpt lat="-27.3606713996736" lon="152.732903190611">        <ele>376.16355846581</ele>        <time></time>      </trkpt>
      <trkpt lat="-27.3604364861044" lon="152.732476802952">        <ele>372.814069090699</ele>        <time></time>      </trkpt>
      <trkpt lat="-27.3600824562804" lon="152.732527378909">        <ele>383.17542541971</ele>        <time></time>      </trkpt>
      <trkpt lat="-27.3600124962882" lon="152.733028127708">        <ele>382.092562027396</ele>        <time></time>      </trkpt>
      <trkpt lat="-27.3599027896368" lon="152.733519420728">        <ele>386.427826730457</ele>        <time></time>      </trkpt>
      <trkpt lat="-27.3596111045699" lon="152.73388313698">        <ele>383.039340272519</ele>        <time></time>      </trkpt>
      <trkpt lat="-27.359199365952" lon="152.734095127553">        <ele>376.524498767163</ele>        <time></time>      </trkpt>
      <trkpt lat="-27.3587593125071" lon="152.734202676544">        <ele>367.776943827259</ele>        <time></time>      </trkpt>
      <trkpt lat="-27.3584968533811" lon="152.734539477495">        <ele>371.270155466167</ele>        <time></time>      </trkpt>
      <trkpt lat="-27.3585120145647" lon="152.735046343722">        <ele>375.284612592549</ele>        <time></time>      </trkpt>
      <trkpt lat="-27.3586665016636" lon="152.735507592886">        <ele>376.010218807706</ele>        <time></time>      </trkpt>
      <trkpt lat="-27.3589658893889" lon="152.735888596156">        <ele>382.449622634419</ele>        <time></time>      </trkpt>
      <trkpt lat="-27.3590093507779" lon="152.736384162213">        <ele>380.083260783212</ele>        <time></time>      </trkpt>
      <trkpt lat="-27.3588867359275" lon="152.736868532044">        <ele>373.270575679761</ele>        <time></time>      </trkpt>
      <trkpt lat="-27.3586032788305" lon="152.737259721171">        <ele>366.919628214391</ele>        <time></time>      </trkpt>
      <trkpt lat="-27.3583186462072" lon="152.737653471882">        <ele>374.241193466868</ele>        <time></time>      </trkpt>
      <trkpt lat="-27.3580906762434" lon="152.738091472141">        <ele>384.534923703686</ele>        <time></time>      </trkpt>
      <trkpt lat="-27.3579632548957" lon="152.738573070388">        <ele>391.79559768664</ele>        <time></time>      </trkpt>
      <trkpt lat="-27.3579140143016" lon="152.73907320945">        <ele>387.782052704679</ele>        <time></time>      </trkpt>
      <trkpt lat="-27.3576227824728" lon="152.739454574505">        <ele>392.060012218918</ele>        <time></time>      </trkpt>
      <trkpt lat="-27.3572174370953" lon="152.739679091753">        <ele>388.694974335128</ele>        <time></time>      </trkpt>
      <trkpt lat="-27.3568468942313" lon="152.739970233444">        <ele>382.502822140528</ele>        <time></time>      </trkpt>
      <trkpt lat="-27.3565756163856" lon="152.740375717199">        <ele>381.583025323831</ele>        <time></time>      </trkpt>
      <trkpt lat="-27.3563950324823" lon="152.740838036126">        <ele>380.213742760079</ele>        <time></time>      </trkpt>
      <trkpt lat="-27.3562572220889" lon="152.741319170464">        <ele>386.611140842839</ele>        <time></time>      </trkpt>
      <trkpt lat="-27.3562506593472" lon="152.741821970598">        <ele>395.245290004849</ele>        <time></time>      </trkpt>
      <trkpt lat="-27.3563172049734" lon="152.742323229766">        <ele>398.138001635444</ele>        <time></time>      </trkpt>
      <trkpt lat="-27.3562748591934" lon="152.742768810027">        <ele>402.67418782826</ele>        <time></time>      </trkpt>
      <trkpt lat="-27.3558344742864" lon="152.742697766348">        <ele>408.965558718614</ele>        <time></time>      </trkpt>
      <trkpt lat="-27.3553926616692" lon="152.7426855015">        <ele>417.534756421032</ele>        <time></time>      </trkpt>
      <trkpt lat="-27.3549627513154" lon="152.74284445288">        <ele>432.0272112137</ele>        <time></time>      </trkpt>
      <trkpt lat="-27.3545826155151" lon="152.743110180009">        <ele>434.38730294763</ele>        <time></time>      </trkpt>
      <trkpt lat="-27.3541361992409" lon="152.743049367277">        <ele>437.10492645646</ele>        <time></time>      </trkpt>
      <trkpt lat="-27.3536906313474" lon="152.742969045756">        <ele>433.40755575819</ele>        <time></time>      </trkpt>
      <trkpt lat="-27.353250206753" lon="152.74305878024">        <ele>433.670783654672</ele>        <time></time>      </trkpt>
      <trkpt lat="-27.3528391657599" lon="152.743271258153">        <ele>432.67265704257</ele>        <time></time>      </trkpt>
      <trkpt lat="-27.3524179071234" lon="152.743457658251">        <ele>430.971068527185</ele>        <time></time>      </trkpt>
      <trkpt lat="-27.3520123629049" lon="152.743675996543">        <ele>443.230021219853</ele>        <time></time>      </trkpt>
      <trkpt lat="-27.3517971249547" lon="152.744118326496">        <ele>456.179354656035</ele>        <time></time>      </trkpt>
      <trkpt lat="-27.351710412459" lon="152.74457274478">        <ele>459.661580015224</ele>        <time></time>      </trkpt>
      <trkpt lat="-27.3517182123815" lon="152.745068940876">        <ele>461.937849832367</ele>        <time></time>      </trkpt>
      <trkpt lat="-27.3517036001395" lon="152.745568068639">        <ele>470.837389907674</ele>        <time></time>      </trkpt>
      <trkpt lat="-27.3519213180923" lon="152.746010588709">        <ele>458.486091341362</ele>        <time></time>      </trkpt>
      <trkpt lat="-27.3521279459415" lon="152.746460503409">        <ele>453.654610755565</ele>        <time></time>      </trkpt>
      <trkpt lat="-27.3519090606507" lon="152.746732290551">        <ele>457.85378000953</ele>        <time></time>      </trkpt>
      <trkpt lat="-27.3514587213096" lon="152.746745070178">        <ele>464.969346519349</ele>        <time></time>      </trkpt>
      <trkpt lat="-27.3510357937663" lon="152.74657429622">        <ele>474.307788192285</ele>        <time></time>      </trkpt>
      <trkpt lat="-27.3505985126107" lon="152.74665682379">        <ele>479.661157945396</ele>        <time></time>      </trkpt>
      <trkpt lat="-27.3501946192364" lon="152.746881241985">        <ele>481.503560784713</ele>        <time></time>      </trkpt>
      <trkpt lat="-27.3497879009728" lon="152.747094960693">        <ele>479.79240459907</ele>        <time></time>      </trkpt>
      <trkpt lat="-27.3493496784157" lon="152.747221404381">        <ele>482.832359585659</ele>        <time></time>      </trkpt>
      <trkpt lat="-27.3489135191869" lon="152.747346308965">        <ele>482.063578841007</ele>        <time></time>      </trkpt>
      <trkpt lat="-27.3484721162787" lon="152.747460568993">        <ele>480.26917276684</ele>        <time></time>      </trkpt>
      <trkpt lat="-27.3481024970196" lon="152.747746455665">        <ele>489.113388635748</ele>        <time></time>      </trkpt>
      <trkpt lat="-27.3478273678643" lon="152.748147491534">        <ele>497.648014377798</ele>        <time></time>      </trkpt>
      <trkpt lat="-27.3476508056724" lon="152.748609295597">        <ele>509.858435948795</ele>        <time></time>      </trkpt>
      <trkpt lat="-27.3473630999405" lon="152.74895512662">        <ele>512.951156732681</ele>        <time></time>      </trkpt>
      <trkpt lat="-27.3469626948987" lon="152.749170522564">        <ele>515.346391976493</ele>        <time></time>      </trkpt>
      <trkpt lat="-27.3467032431804" lon="152.749580413711">        <ele>515.00463848243</ele>        <time></time>      </trkpt>
      <trkpt lat="-27.34654548444" lon="152.750052715537">        <ele>507.076408387255</ele>        <time></time>      </trkpt>
      <trkpt lat="-27.346233347137" lon="152.750289678727">        <ele>507.823060435721</ele>        <time></time>      </trkpt>
      <trkpt lat="-27.3458525174383" lon="152.75010347842">        <ele>513.284061144376</ele>        <time></time>      </trkpt>
      <trkpt lat="-27.3454228438273" lon="152.750160992376">        <ele>508.072066943204</ele>        <time></time>      </trkpt>
      <trkpt lat="-27.3450211993551" lon="152.749936378125">        <ele>516.892423217748</ele>        <time></time>      </trkpt>
      <trkpt lat="-27.3446160949602" lon="152.750149607059">        <ele>517.619363070168</ele>        <time></time>      </trkpt>
      <trkpt lat="-27.3442025888847" lon="152.750075441162">        <ele>517.582824929832</ele>        <time></time>      </trkpt>
      <trkpt lat="-27.3437647256375" lon="152.749991033364">        <ele>516.878574556129</ele>        <time></time>      </trkpt>
      <trkpt lat="-27.3433160574449" lon="152.750038495472">        <ele>522.79691761997</ele>        <time></time>      </trkpt>
      <trkpt lat="-27.3428653417834" lon="152.749988175245">        <ele>523.813962262771</ele>        <time></time>      </trkpt>
      <trkpt lat="-27.3424155433976" lon="152.750029990357">        <ele>518.12909195818</ele>        <time></time>      </trkpt>
      <trkpt lat="-27.3419851350852" lon="152.750021135084">        <ele>513.4509479305</ele>        <time></time>      </trkpt>
      <trkpt lat="-27.3417226301377" lon="152.749611492228">        <ele>521.46918744224</ele>        <time></time>      </trkpt>
      <trkpt lat="-27.3414230210935" lon="152.74923643396">        <ele>521.971356336555</ele>        <time></time>      </trkpt>
      <trkpt lat="-27.3410265860573" lon="152.74899687202">        <ele>524.841974829607</ele>        <time></time>      </trkpt>
      <trkpt lat="-27.3405849624008" lon="152.74898618753">        <ele>537.135035006471</ele>        <time></time>      </trkpt>
      <trkpt lat="-27.3401740965792" lon="152.749189793868">        <ele>541.185956976329</ele>        <time></time>      </trkpt>
      <trkpt lat="-27.3398078666922" lon="152.749482176012">        <ele>550.632367869144</ele>        <time></time>      </trkpt>
      <trkpt lat="-27.3393805614842" lon="152.749482824586">        <ele>547.558533472113</ele>        <time></time>      </trkpt>
      <trkpt lat="-27.3389356262234" lon="152.749403872053">        <ele>547.88582464139</ele>        <time></time>      </trkpt>
      <trkpt lat="-27.3384851195311" lon="152.749413971453">        <ele>560.323500712331</ele>        <time></time>      </trkpt>
      <trkpt lat="-27.3380351471567" lon="152.749381515755">        <ele>562.199118394114</ele>        <time></time>      </trkpt>
      <trkpt lat="-27.3375901830045" lon="152.749313132731">        <ele>566.696217423873</ele>        <time></time>      </trkpt>
      <trkpt lat="-27.337151" lon="152.749334">        <ele>560.746372659087</ele>        <time></time>      </trkpt>
      <trkpt lat="-27.337151" lon="152.749334">        <ele>560.598952842699</ele>        <time></time>      </trkpt>
      <trkpt lat="-27.3367887131185" lon="152.749120517504">        <ele>562.873252507784</ele>        <time></time>      </trkpt>
      <trkpt lat="-27.3363412746835" lon="152.749151538834">        <ele>575.627826767915</ele>        <time></time>      </trkpt>
      <trkpt lat="-27.3359472299495" lon="152.749356224981">        <ele>577.425516670953</ele>        <time></time>      </trkpt>
      <trkpt lat="-27.3356225752108" lon="152.749056133946">        <ele>588.801590630672</ele>        <time></time>      </trkpt>
      <trkpt lat="-27.3351744302555" lon="152.749119776032">        <ele>584.106782341508</ele>        <time></time>      </trkpt>
      <trkpt lat="-27.3347583135179" lon="152.749315669624">        <ele>594.239351459263</ele>        <time></time>      </trkpt>
      <trkpt lat="-27.3343165774242" lon="152.749375778871">        <ele>596.687255935776</ele>        <time></time>      </trkpt>
      <trkpt lat="-27.3339516512467" lon="152.749632433051">        <ele>591.343679311089</ele>        <time></time>      </trkpt>
      <trkpt lat="-27.3336617198135" lon="152.75002166977">        <ele>598.14047975256</ele>        <time></time>      </trkpt>
      <trkpt lat="-27.3333564552885" lon="152.750396544712">        <ele>603.67017510844</ele>        <time></time>      </trkpt>
      <trkpt lat="-27.3330721788537" lon="152.750790145888">        <ele>603.866431772671</ele>        <time></time>      </trkpt>
      <trkpt lat="-27.3327248755148" lon="152.751109007537">        <ele>610.406451605159</ele>        <time></time>      </trkpt>
      <trkpt lat="-27.3323095187703" lon="152.75130485614">        <ele>612.252906923072</ele>        <time></time>      </trkpt>
      <trkpt lat="-27.3318932721319" lon="152.751498964262">        <ele>617.591057476742</ele>        <time></time>      </trkpt>
      <trkpt lat="-27.3314727353948" lon="152.751683007011">        <ele>620.68157301286</ele>        <time></time>      </trkpt>
      <trkpt lat="-27.3310925317728" lon="152.751948245737">        <ele>632.306833988342</ele>        <time></time>      </trkpt>
      <trkpt lat="-27.3308197602459" lon="152.75235032634">        <ele>632.346446665573</ele>        <time></time>      </trkpt>
      <trkpt lat="-27.3307975565441" lon="152.752834679103">        <ele>634.785552912738</ele>        <time></time>      </trkpt>
      <trkpt lat="-27.3310003691998" lon="152.753287957626">        <ele>640.487200920351</ele>        <time></time>      </trkpt>
      <trkpt lat="-27.3309852404127" lon="152.753785115073">        <ele>646.598309334815</ele>        <time></time>      </trkpt>
      <trkpt lat="-27.3309927989351" lon="152.754289708048">        <ele>644.207077982841</ele>        <time></time>      </trkpt>
      <trkpt lat="-27.3310136766599" lon="152.754792663348">        <ele>646.854192655529</ele>        <time></time>      </trkpt>
      <trkpt lat="-27.3307801384305" lon="152.755211032953">        <ele>658.250762391816</ele>        <time></time>      </trkpt>
      <trkpt lat="-27.3305280948295" lon="152.755628325382">        <ele>646.534742045208</ele>        <time></time>      </trkpt>
      <trkpt lat="-27.3303314245246" lon="152.756082301905">        <ele>645.833910892907</ele>        <time></time>      </trkpt>
      <trkpt lat="-27.3302555165871" lon="152.756582213176">        <ele>646.377292867401</ele>        <time></time>      </trkpt>
      <trkpt lat="-27.330357808797" lon="152.757075420526">        <ele>639.099161560895</ele>        <time></time>      </trkpt>
      <trkpt lat="-27.3304896032663" lon="152.757558335652">        <ele>640.751948687045</ele>        <time></time>      </trkpt>
      <trkpt lat="-27.3308044389259" lon="152.757908975538">        <ele>642.325976958514</ele>        <time></time>      </trkpt>
      <trkpt lat="-27.3311375679367" lon="152.75825015021">        <ele>643.528476662562</ele>        <time></time>      </trkpt>
      <trkpt lat="-27.3313691630214" lon="152.758683627951">        <ele>646.548430504347</ele>        <time></time>      </trkpt>
      <trkpt lat="-27.3316115795581" lon="152.759062892009">        <ele>647.585419350575</ele>        <time></time>      </trkpt>
      <trkpt lat="-27.3320480246432" lon="152.759144287263">        <ele>635.51264458114</ele>        <time></time>      </trkpt>
      <trkpt lat="-27.3324793731579" lon="152.759281845487">        <ele>641.385016649979</ele>        <time></time>      </trkpt>
      <trkpt lat="-27.3327874813538" lon="152.759635592421">        <ele>652.883766442227</ele>        <time></time>      </trkpt>
      <trkpt lat="-27.3330742948908" lon="152.760018552452">        <ele>653.481326625722</ele>        <time></time>      </trkpt>
      <trkpt lat="-27.3334465339641" lon="152.760288191786">        <ele>649.230838512535</ele>        <time></time>      </trkpt>
      <trkpt lat="-27.3338269109736" lon="152.760556527603">        <ele>656.553484164154</ele>        <time></time>      </trkpt>
      <trkpt lat="-27.3342473884774" lon="152.760699958678">        <ele>650.86429991194</ele>        <time></time>      </trkpt>
      <trkpt lat="-27.334696250702" lon="152.760761017525">        <ele>644.518806302691</ele>        <time></time>      </trkpt>
      <trkpt lat="-27.3350815967183" lon="152.760995712518">        <ele>645.501246533654</ele>        <time></time>      </trkpt>
      <trkpt lat="-27.3350747783333" lon="152.761476755445">        <ele>649.862301738692</ele>        <time></time>      </trkpt>
      <trkpt lat="-27.3351858741427" lon="152.761962749966">        <ele>652.015256648469</ele>        <time></time>      </trkpt>
      <trkpt lat="-27.3352959157787" lon="152.762450222751">        <ele>651.901208888952</ele>        <time></time>      </trkpt>
      <trkpt lat="-27.3354232110292" lon="152.762909418003">        <ele>653.092516119441</ele>        <time></time>      </trkpt>
      <trkpt lat="-27.335474341167" lon="152.763410292974">        <ele>653.656246558984</ele>        <time></time>      </trkpt>
      <trkpt lat="-27.3353734039725" lon="152.763774632922">        <ele>649.777708698079</ele>        <time></time>      </trkpt>
      <trkpt lat="-27.3352400469925" lon="152.763294578957">        <ele>657.475110974712</ele>        <time></time>      </trkpt>
      <trkpt lat="-27.3350563690066" lon="152.762840796881">        <ele>662.056833116828</ele>        <time></time>      </trkpt>
      <trkpt lat="-27.3349622065657" lon="152.762347595915">        <ele>663.740072437003</ele>        <time></time>      </trkpt>
      <trkpt lat="-27.3348224551408" lon="152.761875832786">        <ele>669.898938149956</ele>        <time></time>      </trkpt>
      <trkpt lat="-27.3346916309957" lon="152.761419846694">        <ele>660.787813356127</ele>        <time></time>      </trkpt>
      <trkpt lat="-27.3342687688229" lon="152.761256589607">        <ele>668.62854163165</ele>        <time></time>      </trkpt>
      <trkpt lat="-27.3338556967903" lon="152.76105463037">        <ele>668.934888807534</ele>        <time></time>      </trkpt>
      <trkpt lat="-27.3335082283264" lon="152.760750847865">        <ele>668.223942647357</ele>        <time></time>      </trkpt>
      <trkpt lat="-27.333207163274" lon="152.760385787725">        <ele>659.041569306211</ele>        <time></time>      </trkpt>
      <trkpt lat="-27.3328416141979" lon="152.760114346242">        <ele>667.140232012644</ele>        <time></time>      </trkpt>
      <trkpt lat="-27.3325223117964" lon="152.75976962243">        <ele>668.334305219601</ele>        <time></time>      </trkpt>
      <trkpt lat="-27.3320870554879" lon="152.759647044078">        <ele>667.337495753714</ele>        <time></time>      </trkpt>
      <trkpt lat="-27.3316886999573" lon="152.759417806702">        <ele>663.320254041774</ele>        <time></time>      </trkpt>
      <trkpt lat="-27.3313051053162" lon="152.759149247855">        <ele>664.501436653952</ele>        <time></time>      </trkpt>
      <trkpt lat="-27.3310459708125" lon="152.758745276331">        <ele>668.450246270417</ele>        <time></time>      </trkpt>
      <trkpt lat="-27.3307361209179" lon="152.758390391367">        <ele>665.299478020398</ele>        <time></time>      </trkpt>
      <trkpt lat="-27.3303244604991" lon="152.758199773033">        <ele>670.200847190384</ele>        <time></time>      </trkpt>
      <trkpt lat="-27.3300461945482" lon="152.757849348757">        <ele>669.356497102478</ele>        <time></time>      </trkpt>
      <trkpt lat="-27.3297964066869" lon="152.757435017691">        <ele>668.956895363638</ele>        <time></time>      </trkpt>
      <trkpt lat="-27.3295974380889" lon="152.757097348077">        <ele>677.564169529831</ele>        <time></time>      </trkpt>
      <trkpt lat="-27.3293982326693" lon="152.756999006463">        <ele>685.858155674877</ele>        <time></time>      </trkpt>
      <trkpt lat="-27.3295290417221" lon="152.757453939363">        <ele>682.456944751445</ele>        <time></time>      </trkpt>
      <trkpt lat="-27.3298011866482" lon="152.757851604571">        <ele>677.961925761387</ele>        <time></time>      </trkpt>
      <trkpt lat="-27.3300787501356" lon="152.758251882498">        <ele>679.484859627167</ele>        <time></time>      </trkpt>
      <trkpt lat="-27.3304386931991" lon="152.758557329044">        <ele>679.041840105373</ele>        <time></time>      </trkpt>
      <trkpt lat="-27.3307060727932" lon="152.758963341009">        <ele>682.640421287998</ele>        <time></time>      </trkpt>
      <trkpt lat="-27.3310042044168" lon="152.759343715356">        <ele>682.964656623968</ele>        <time></time>      </trkpt>
      <trkpt lat="-27.3313660180012" lon="152.759648929552">        <ele>680.455430616807</ele>        <time></time>      </trkpt>
      <trkpt lat="-27.3317394864368" lon="152.759935413425">        <ele>684.069711975976</ele>        <time></time>      </trkpt>
      <trkpt lat="-27.332099491899" lon="152.76023288048">        <ele>687.059890470481</ele>        <time></time>      </trkpt>
      <trkpt lat="-27.3324211485668" lon="152.760587337708">        <ele>689.441145472566</ele>        <time></time>      </trkpt>
      <trkpt lat="-27.3327193161833" lon="152.760968048219">        <ele>689.287064771277</ele>        <time></time>      </trkpt>
      <trkpt lat="-27.3330352388923" lon="152.761327726905">        <ele>687.603358294789</ele>        <time></time>      </trkpt>
      <trkpt lat="-27.3334065562094" lon="152.761615428331">        <ele>683.437403978142</ele>        <time></time>      </trkpt>
      <trkpt lat="-27.333726" lon="152.761932">        <ele>680.266908985204</ele>        <time></time>      </trkpt>
    </trkseg>
  </trk>
</gpx>
